{"type":"FeatureCollection","features":[{"type":"Feature","id":0,"geometry":{"type":"Polygon","coordinates":[[[-122.17616599999998,37.046345999999993],[-122.17544099999999,37.046626999999994],[-122.17515000000002,37.046084999999998],[-122.17482899999999,37.045026],[-122.17454699999999,37.044241],[-122.17412899999999,37.043579999999999],[-122.17351600000002,37.042538000000008],[-122.17199599999998,37.042310999999991],[-122.17066400000002,37.042605999999999],[-122.16966799999999,37.042986999999997],[-122.16859299999999,37.042110999999998],[-122.167379,37.042027999999995],[-122.16725,37.041663999999997],[-122.16753699999998,37.041215000000001],[-122.16776,37.040864999999997],[-122.16802799999999,37.040669999999999],[-122.16964,37.040017999999996],[-122.16947299999998,37.039514999999994],[-122.16779699999999,37.039473000000001],[-122.165913,37.039346999999999],[-122.16543100000001,37.039698999999992],[-122.16518600000001,37.039878000000002],[-122.165075,37.039922999999995],[-122.16467200000001,37.040090000000006],[-122.16469800000002,37.039518999999991],[-122.164722,37.038989999999991],[-122.164618,37.039020000000008],[-122.164489,37.038216999999996],[-122.16386100000001,37.037421000000009],[-122.16187399999998,37.037150000000004],[-122.16117999999999,37.036911999999994],[-122.161097,37.03616499999999],[-122.15820700000002,37.037421000000009],[-122.156099,37.038124000000003],[-122.15605500000001,37.038122999999999],[-122.15590799999998,37.038187000000001],[-122.155694,37.038258999999996],[-122.15557800000001,37.038330999999999],[-122.155489,37.03837],[-122.15501599999999,37.038642999999993],[-122.154419,37.03886399999999],[-122.15423599999998,37.039169999999991],[-122.15401899999999,37.039305999999996],[-122.15406100000001,37.040603999999988],[-122.152721,37.041902000000007],[-122.153852,37.042194999999992],[-122.15540099999998,37.043492999999998],[-122.15565899999999,37.043515999999997],[-122.15599199999998,37.043742000000002],[-122.156431,37.04372],[-122.156615,37.043597999999996],[-122.158164,37.043731000000001],[-122.15886200000001,37.044542],[-122.15945300000001,37.044471000000001],[-122.16061000000001,37.045214999999999],[-122.160681,37.046172000000006],[-122.16061299999998,37.047575999999999],[-122.16216900000001,37.047552000000003],[-122.16219,37.047570999999991],[-122.162049,37.047899000000015],[-122.161979,37.04857599999999],[-122.161908,37.049402999999984],[-122.16183099999999,37.049725000000002],[-122.160359,37.05039],[-122.15938499999999,37.050829999999998],[-122.15946099999999,37.052618999999993],[-122.15816200000002,37.054130999999998],[-122.15943799999999,37.054671999999997],[-122.160544,37.054909000000002],[-122.16126300000002,37.055039000000001],[-122.16197800000002,37.055026000000005],[-122.162599,37.054870999999999],[-122.16321499999999,37.05450299999999],[-122.16372600000001,37.053914000000006],[-122.16457699999999,37.053376999999998],[-122.16833099999999,37.052946999999996],[-122.16888700000001,37.054207000000005],[-122.17052300000002,37.05646200000001],[-122.17101200000002,37.05666200000001],[-122.17241300000001,37.05723600000001],[-122.17253799999999,37.057476000000001],[-122.17252300000001,37.057530999999997],[-122.17264299999999,37.057983],[-122.17216900000001,37.058430999999999],[-122.17166899999999,37.058748999999999],[-122.17169200000001,37.058192999999989],[-122.17049899999999,37.058177999999998],[-122.17048200000001,37.058168999999999],[-122.17034999999998,37.058176000000003],[-122.16882200000001,37.058157000000001],[-122.168384,37.058151000000002],[-122.16801999999998,37.058287999999997],[-122.16701600000002,37.058663999999993],[-122.167012,37.058599000000001],[-122.16641000000001,37.058351000000002],[-122.166066,37.058381000000004],[-122.165712,37.057902999999996],[-122.165171,37.057892999999993],[-122.16495699999999,37.057642000000001],[-122.164733,37.057606],[-122.164644,37.057826999999996],[-122.163944,37.057145999999996],[-122.162353,37.056434000000003],[-122.16147400000001,37.056726999999995],[-122.160263,37.05780399999999],[-122.160056,37.058396000000009],[-122.15983200000001,37.058846000000003],[-122.15973099999999,37.059448000000003],[-122.15975000000002,37.059490999999994],[-122.15961900000001,37.059612000000001],[-122.158524,37.059702000000001],[-122.15795,37.059453999999995],[-122.15789199999999,37.059210999999998],[-122.157662,37.058661999999991],[-122.15808499999999,37.058432999999994],[-122.15816800000002,37.058183],[-122.157971,37.057873000000008],[-122.15782000000002,37.057811000000008],[-122.15819499999999,37.057543000000003],[-122.158248,37.056647999999988],[-122.15787100000001,37.055945999999992],[-122.15681499999998,37.055788],[-122.15575699999999,37.056317],[-122.15562199999999,37.056507000000011],[-122.155507,37.056489999999989],[-122.15505299999998,37.056074000000002],[-122.15424899999999,37.056263000000001],[-122.153868,37.056012000000003],[-122.15310999999998,37.055970000000009],[-122.15194499999998,37.055906],[-122.14876,37.055542999999993],[-122.14902300000001,37.056421],[-122.151414,37.057192999999998],[-122.150938,37.059014999999995],[-122.15004699999999,37.059958000000009],[-122.14953699999998,37.060615999999996],[-122.14918400000002,37.061071999999996],[-122.149432,37.061621999999993],[-122.149343,37.061906999999998],[-122.14927400000001,37.062458999999997],[-122.14974300000002,37.062511999999998],[-122.15036800000001,37.062592000000002],[-122.150775,37.062574999999995],[-122.15089400000001,37.063006999999992],[-122.15086399999998,37.063370999999997],[-122.150823,37.06388299999999],[-122.151259,37.064431999999996],[-122.15123299999999,37.064451000000005],[-122.15072200000002,37.064207999999994],[-122.15042699999999,37.064450000000001],[-122.15095700000001,37.064723999999991],[-122.15087699999999,37.064832999999993],[-122.150733,37.065113999999994],[-122.15074799999999,37.065325999999992],[-122.150835,37.065438999999991],[-122.15095599999999,37.065651999999993],[-122.15094999999999,37.065653999999995],[-122.150744,37.06566500000001],[-122.150462,37.065690999999994],[-122.150216,37.065702999999999],[-122.14989799999999,37.065756999999998],[-122.14993200000002,37.065856000000004],[-122.15019599999999,37.06591499999999],[-122.15035399999998,37.065916000000009],[-122.150565,37.065974000000004],[-122.150952,37.06599099999999],[-122.15126800000002,37.066091999999998],[-122.151354,37.066276000000002],[-122.15142200000001,37.066502],[-122.15149,37.06671399999999],[-122.151454,37.066827000000004],[-122.15122599999999,37.066670000000002],[-122.151087,37.066513999999991],[-122.150859,37.066470000000002],[-122.15047199999999,37.066439000000003],[-122.150294,37.066535999999999],[-122.15034399999999,37.066819000000002],[-122.15048299999998,37.066960999999999],[-122.15056899999999,37.067188000000002],[-122.150514,37.067328000000003],[-122.150232,37.067397],[-122.149862,37.067393999999993],[-122.14961400000001,37.067504999999997],[-122.14938599999999,37.067446999999994],[-122.149265,37.067248999999997],[-122.14924899999998,37.067051000000006],[-122.14935699999998,37.066853999999992],[-122.14936,37.066656999999999],[-122.14936200000001,37.066458999999995],[-122.14925599999999,37.066430000000004],[-122.149097,37.066527999999991],[-122.14883099999999,37.066639000000002],[-122.14874500000001,37.066525000000006],[-122.14862300000001,37.066368999999995],[-122.14862599999999,37.066142999999997],[-122.148697,37.066031000000002],[-122.148788,37.065820000000002],[-122.14882499999999,37.065678999999996],[-122.14863099999999,37.065634999999993],[-122.148279,37.065618999999998],[-122.14805000000001,37.065631000000003],[-122.14776800000001,37.065671000000002],[-122.147398,37.065710999999993],[-122.147257,37.065668000000002],[-122.14704700000001,37.065567999999992],[-122.146731,37.065466000000001],[-122.146503,37.065351999999997],[-122.14639899999999,37.065266000000008],[-122.14627599999999,37.065236999999989],[-122.14610100000002,37.065151],[-122.14597899999998,37.065008999999996],[-122.145751,37.064922999999993],[-122.145433,37.064990999999992],[-122.14523900000002,37.064990000000002],[-122.14501200000001,37.064889000000001],[-122.14494299999998,37.064720000000001],[-122.144767,37.064690000000006],[-122.14451800000001,37.064886000000001],[-122.14449800000001,37.065041999999998],[-122.14442699999998,37.065153000000002],[-122.14430299999999,37.065236999999996],[-122.14417899999999,37.06530699999999],[-122.14402,37.065376000000001],[-122.14382500000002,37.065459999999995],[-122.14368399999999,37.065458999999997],[-122.14345600000001,37.065385999999982],[-122.143299,37.065300999999984],[-122.14314,37.065284999999996],[-122.14313900000001,37.065412000000002],[-122.14314999999999,37.065524999999994],[-122.14225899999998,37.065166999999995],[-122.140275,37.065199],[-122.139715,37.066597000000009],[-122.140249,37.067489000000009],[-122.14144899999999,37.067965000000001],[-122.14240299999999,37.068173000000002],[-122.14261399999999,37.068188999999997],[-122.14264599999998,37.06818899999999],[-122.14278999999999,37.068261],[-122.142893,37.068487000000005],[-122.14294200000002,37.068840999999992],[-122.14285000000001,37.069207000000006],[-122.14273900000001,37.069658000000004],[-122.142752,37.070025000000008],[-122.142977,37.070365000000002],[-122.143326,37.070663999999987],[-122.14365799999999,37.070948999999999],[-122.14384900000002,37.071162000000001],[-122.14405699999999,37.071488000000002],[-122.14401700000002,37.071911],[-122.144221,37.072293999999992],[-122.144133,37.072532999999993],[-122.14384800000001,37.07282699999999],[-122.143548,37.07291],[-122.14321200000001,37.072977999999999],[-122.14291299999999,37.07298999999999],[-122.14268300000001,37.073044999999993],[-122.14289199999999,37.07321499999999],[-122.14315499999999,37.073400999999997],[-122.14322300000001,37.073541999999996],[-122.143169,37.073711000000003],[-122.14307799999999,37.073965000000008],[-122.14305799999998,37.074134000000001],[-122.14330699999998,37.073951999999991],[-122.14375300000002,37.073740000000001],[-122.14445999999998,37.074919999999999],[-122.144657,37.075597000000002],[-122.14429800000001,37.075710000000001],[-122.142893,37.076466000000003],[-122.14206099999998,37.075806],[-122.142321,37.076914000000009],[-122.14270900000001,37.078662000000001],[-122.14192199999999,37.079544000000006],[-122.14208099999999,37.080884999999995],[-122.140171,37.081353999999997],[-122.13855900000001,37.081139999999998],[-122.13772400000002,37.081040999999992],[-122.13497,37.080443999999986],[-122.13395100000001,37.079801999999994],[-122.133931,37.079431000000007],[-122.13380900000001,37.079128999999995],[-122.13334700000001,37.079407000000003],[-122.132865,37.07908900000001],[-122.13244899999999,37.078119999999998],[-122.13197599999998,37.076917000000002],[-122.131199,37.075181999999998],[-122.130437,37.073759000000003],[-122.129034,37.072330000000001],[-122.12742600000001,37.07186699999999],[-122.12562200000001,37.071480000000008],[-122.12485399999998,37.070695000000008],[-122.12441699999999,37.069756999999996],[-122.12382599999999,37.068756],[-122.12334699999998,37.068128999999992],[-122.12223899999998,37.068167000000003],[-122.12119099999998,37.067957],[-122.120636,37.067174000000001],[-122.118877,37.066366000000002],[-122.11899800000002,37.065856999999994],[-122.119345,37.064407999999993],[-122.11982999999999,37.064174999999999],[-122.120583,37.064055999999994],[-122.121369,37.063685],[-122.121438,37.063133999999998],[-122.12139500000001,37.062685999999985],[-122.12199,37.062457000000002],[-122.12216300000001,37.062712999999995],[-122.12241200000001,37.062815000000001],[-122.12279599999999,37.062908],[-122.12305600000001,37.063088999999991],[-122.12459799999999,37.063903000000003],[-122.12462199999999,37.063985000000002],[-122.125147,37.064565999999985],[-122.125552,37.064770000000003],[-122.12617799999998,37.064774],[-122.12671400000002,37.064376999999986],[-122.12730999999998,37.064305999999995],[-122.12761399999999,37.064047000000009],[-122.127191,37.063702999999997],[-122.12590999999999,37.063138999999993],[-122.1258,37.062834000000002],[-122.12599999999999,37.062553999999992],[-122.12677799999999,37.062052000000008],[-122.12763,37.060920999999993],[-122.12833599999999,37.060717000000011],[-122.12877199999998,37.060761999999997],[-122.13082799999999,37.061482999999996],[-122.131439,37.061348000000002],[-122.13220000000001,37.061132000000008],[-122.13237499999998,37.060952],[-122.132623,37.060472999999995],[-122.13262600000002,37.059812999999998],[-122.13303999999999,37.059296999999994],[-122.133588,37.058987000000002],[-122.13531500000001,37.058791999999983],[-122.135949,37.058886999999999],[-122.136589,37.059168999999997],[-122.13726799999999,37.058976999999999],[-122.13655300000002,37.058002000000009],[-122.13628300000002,37.057880999999995],[-122.136144,37.057456999999999],[-122.13515,37.056017000000004],[-122.13471600000001,37.054829000000005],[-122.13427800000001,37.054062999999999],[-122.13422700000001,37.053408000000005],[-122.134156,37.05315800000001],[-122.134638,37.053018999999992],[-122.135285,37.052829999999993],[-122.13531000000002,37.052801999999993],[-122.135391,37.052850999999997],[-122.135829,37.052853999999989],[-122.13592600000001,37.052579000000001],[-122.13570999999999,37.052300999999993],[-122.13559300000001,37.052157000000001],[-122.135678,37.051884000000001],[-122.13555599999999,37.051402000000003],[-122.135847,37.051462000000001],[-122.136304,37.051246999999996],[-122.13623500000001,37.050910000000002],[-122.13616699999999,37.050516000000002],[-122.136714,37.05040300000001],[-122.13672799999999,37.050035000000001],[-122.136988,37.050001999999992],[-122.13708500000001,37.049776999999992],[-122.136742,37.049649000000002],[-122.13657100000002,37.049647999999998],[-122.136124,37.049464999999998],[-122.13486099999999,37.049300000000002],[-122.133968,37.048541],[-122.13397199999999,37.048222999999993],[-122.13395900000002,37.047770999999997],[-122.13418400000002,37.047159999999991],[-122.13487499999999,37.04719399999999],[-122.135324,37.047810000000005],[-122.13483100000001,37.047893999999992],[-122.13486099999999,37.048071],[-122.13443699999999,37.048153000000006],[-122.13443400000001,37.048387999999996],[-122.13502099999999,37.048352999999999],[-122.13512400000002,37.048313],[-122.13529899999999,37.048394000000002],[-122.135648,37.048090000000002],[-122.13585500000001,37.048183999999999],[-122.13584899999998,37.048711999999995],[-122.13623599999998,37.049028000000007],[-122.13653000000001,37.048941999999997],[-122.13653100000001,37.04894500000001],[-122.13687400000002,37.04899799999999],[-122.13749799999999,37.049177999999998],[-122.138093,37.049157999999998],[-122.138192,37.048757000000002],[-122.138164,37.048404999999995],[-122.13794999999999,37.047977000000003],[-122.137578,37.047674000000001],[-122.13742700000002,37.047196],[-122.137306,37.046794000000006],[-122.137186,37.046340999999998],[-122.13700999999999,37.046180000000007],[-122.136939,37.045390000000005],[-122.136651,37.045349999999999],[-122.13660499999999,37.045182999999994],[-122.13629300000001,37.045105999999997],[-122.136151,37.045280000000005],[-122.13597300000001,37.045254999999997],[-122.13595399999998,37.045380999999999],[-122.13583800000002,37.045341000000001],[-122.13536799999999,37.045234000000008],[-122.135294,37.044908],[-122.134925,37.044858999999995],[-122.13452499999998,37.045015999999997],[-122.134208,37.045332999999992],[-122.13389999999998,37.044943000000011],[-122.13341099999998,37.04485900000001],[-122.13326300000001,37.044606999999999],[-122.13282599999999,37.044478000000005],[-122.132661,37.044465999999993],[-122.13249999999999,37.043866999999985],[-122.13229200000001,37.043714999999999],[-122.13239799999999,37.043571999999998],[-122.13231100000002,37.042993999999993],[-122.132409,37.042568999999993],[-122.13278800000002,37.042346000000009],[-122.133106,37.041896000000008],[-122.133205,37.041370000000001],[-122.133745,37.040721999999988],[-122.134186,37.040474000000003],[-122.13484599999998,37.040202999999991],[-122.134727,37.039490000000001],[-122.13505499999999,37.039535999999998],[-122.137322,37.039175],[-122.138239,37.039394999999999],[-122.138969,37.039091999999997],[-122.13909700000001,37.038780999999993],[-122.138925,37.038300999999997],[-122.138215,37.037658],[-122.13777599999999,37.036436000000009],[-122.13751600000001,37.036210999999994],[-122.13615199999998,37.036397000000001],[-122.136239,37.036023999999998],[-122.13613399999998,37.035746000000003],[-122.13644000000001,37.035745999999996],[-122.13676100000001,37.035531000000006],[-122.13665399999998,37.034807999999998],[-122.13686899999999,37.034592999999994],[-122.13764600000002,37.035075999999997],[-122.138182,37.034218000000003],[-122.13716399999998,37.033332999999999],[-122.136735,37.033039000000002],[-122.136976,37.032395000000001],[-122.13654699999999,37.030197999999999],[-122.135261,37.028401999999986],[-122.13504600000002,37.027785000000009],[-122.13442999999999,37.027891999999994],[-122.133465,37.027678000000002],[-122.13193699999998,37.027571000000002],[-122.13046300000001,37.027758000000006],[-122.12877399999999,37.02842900000001],[-122.12841399999999,37.028942999999991],[-122.12828200000001,37.028735999999995],[-122.12780100000002,37.028503999999984],[-122.127315,37.028796999999997],[-122.12681099999999,37.028086999999992],[-122.12653199999998,37.027605999999992],[-122.126338,37.02714799999999],[-122.12592799999999,37.027135999999992],[-122.125918,37.027127999999998],[-122.12548,37.02680999999999],[-122.12458000000001,37.027059999999999],[-122.124135,37.027315999999999],[-122.123884,37.025618000000001],[-122.12425300000001,37.025446000000002],[-122.124375,37.024762000000003],[-122.12257699999999,37.022857000000002],[-122.12234300000001,37.023046000000001],[-122.12218300000002,37.022976],[-122.121804,37.023274999999998],[-122.12120299999998,37.023797000000002],[-122.12120299999998,37.023820999999991],[-122.12083099999998,37.023879000000001],[-122.12080300000001,37.02437900000001],[-122.12014200000002,37.024366000000001],[-122.120006,37.023885999999997],[-122.119906,37.023798999999997],[-122.12039800000001,37.023050999999981],[-122.120684,37.022846000000001],[-122.12052900000002,37.022080000000003],[-122.120268,37.021855000000002],[-122.11931,37.022019999999991],[-122.11905500000002,37.022312000000007],[-122.11889399999998,37.022865999999993],[-122.119193,37.023700000000005],[-122.11914900000001,37.023720999999995],[-122.11895199999999,37.02373],[-122.118105,37.023848999999991],[-122.11785700000001,37.023868999999998],[-122.11804100000001,37.024326999999992],[-122.11805299999999,37.025030999999991],[-122.117965,37.025286000000001],[-122.11700500000001,37.025782],[-122.11616699999999,37.025449000000002],[-122.114953,37.024399999999993],[-122.114952,37.024399000000003],[-122.11486400000001,37.024408000000001],[-122.11355,37.024514999999987],[-122.11285299999999,37.024648999999989],[-122.11196900000002,37.024809999999995],[-122.111272,37.024327999999997],[-122.11044099999999,37.023496999999999],[-122.111031,37.022773000000008],[-122.112049,37.022264],[-122.112371,37.02156699999999],[-122.111728,37.021165000000003],[-122.111406,37.021807999999993],[-122.11042400000001,37.022168000000001],[-122.11030700000001,37.022450999999997],[-122.109557,37.023576999999989],[-122.10923499999998,37.02408599999999],[-122.109779,37.024180000000008],[-122.11024399999998,37.024702999999995],[-122.110319,37.025186999999995],[-122.11008099999999,37.025168999999998],[-122.10970500000002,37.025165999999992],[-122.10967200000002,37.025385999999997],[-122.10944100000002,37.025390000000002],[-122.10865099999999,37.024863000000003],[-122.107776,37.02520599999999],[-122.108041,37.025650999999996],[-122.10785199999999,37.025779],[-122.107596,37.026157999999995],[-122.10750499999999,37.026057000000002],[-122.10697000000002,37.026352000000003],[-122.10638,37.026665999999992],[-122.106435,37.027386],[-122.10668599999998,37.027548000000003],[-122.106624,37.027748999999993],[-122.10691700000001,37.028700999999998],[-122.10616599999999,37.028953000000001],[-122.10508800000001,37.029006000000003],[-122.104052,37.029417000000002],[-122.103048,37.031374],[-122.10254499999999,37.031558000000004],[-122.10226300000001,37.03232899999999],[-122.102279,37.032426999999991],[-122.10219499999999,37.032507000000003],[-122.10205299999998,37.032681999999994],[-122.10207100000001,37.032795],[-122.102271,37.032829],[-122.10234199999998,37.032793999999996],[-122.10236499999999,37.032929000000003],[-122.10318599999999,37.032745000000006],[-122.103841,37.032823],[-122.103954,37.032444000000005],[-122.10432300000001,37.032447000000005],[-122.10447000000001,37.032795999999998],[-122.10514499999999,37.033560999999999],[-122.105023,37.034061000000001],[-122.10544500000002,37.03416],[-122.105209,37.034479999999995],[-122.104888,37.035082999999993],[-122.105222,37.035303999999996],[-122.104681,37.035572999999999],[-122.10440300000002,37.035864000000004],[-122.10432400000001,37.035786999999999],[-122.10404600000001,37.035533999999991],[-122.103702,37.035456000000003],[-122.10338900000001,37.03552899999999],[-122.103363,37.035567999999998],[-122.10242599999998,37.035482999999999],[-122.10233500000001,37.035713000000008],[-122.102009,37.035719999999984],[-122.10196999999999,37.035739999999983],[-122.101837,37.035596999999996],[-122.10185499999999,37.034981000000009],[-122.10126200000002,37.034829999999999],[-122.10070700000001,37.034952999999994],[-122.10048399999999,37.035331999999997],[-122.10077800000001,37.036820999999996],[-122.100523,37.037112999999998],[-122.09989700000001,37.037205],[-122.09913899999999,37.036760000000001],[-122.09895100000001,37.036237000000007],[-122.09927999999999,37.035316000000002],[-122.09906800000002,37.034891999999999],[-122.09866600000001,37.034604000000002],[-122.09802399999998,37.034652000000001],[-122.097964,37.035654999999984],[-122.09722799999999,37.037277999999993],[-122.09671899999999,37.036025000000002],[-122.09600599999999,37.036040999999997],[-122.09514,37.036799000000002],[-122.09420100000001,37.036016999999994],[-122.09333900000001,37.035784],[-122.09184199999999,37.035786000000009],[-122.090925,37.03556600000001],[-122.089111,37.035685000000008],[-122.088613,37.035465000000002],[-122.088067,37.035444999999996],[-122.086624,37.035763999999986],[-122.08621799999999,37.036137000000004],[-122.086057,37.03669099999999],[-122.08679099999999,37.037234999999995],[-122.08720200000002,37.037379000000001],[-122.087977,37.037537],[-122.08843699999998,37.03748199999999],[-122.08837,37.038297999999998],[-122.088802,37.039003000000008],[-122.089555,37.038930999999998],[-122.090047,37.038632999999997],[-122.091117,37.038443000000001],[-122.09158399999998,37.038575000000002],[-122.09235700000002,37.039062999999999],[-122.09304299999998,37.039805999999992],[-122.09346499999999,37.040984999999999],[-122.09279599999999,37.041718999999993],[-122.092624,37.041440999999999],[-122.09179000000002,37.041122999999999],[-122.091762,37.041079000000003],[-122.09105,37.040765999999984],[-122.09029099999999,37.040652000000001],[-122.08918199999998,37.040567000000003],[-122.08755699999999,37.040880000000008],[-122.087351,37.040972999999994],[-122.08714299999998,37.041395999999999],[-122.08732200000001,37.042062999999999],[-122.08834899999999,37.042588999999992],[-122.091881,37.043489000000001],[-122.09230300000002,37.044292999999989],[-122.09257699999999,37.044812999999984],[-122.09259299999998,37.044845000000002],[-122.092741,37.045608999999999],[-122.09260699999999,37.045614999999998],[-122.09260400000001,37.045856000000001],[-122.09254100000001,37.046127999999996],[-122.09265800000001,37.046402],[-122.09275499999998,37.046643999999993],[-122.09297300000001,37.046854000000003],[-122.093152,37.046968],[-122.09353200000001,37.046684999999997],[-122.09379699999998,37.047262000000003],[-122.09454999999998,37.046549999999996],[-122.09668600000001,37.046717999999991],[-122.097758,37.045704000000001],[-122.098748,37.046460000000003],[-122.097886,37.047305999999999],[-122.09683800000001,37.04772599999999],[-122.095118,37.048106999999995],[-122.09474200000001,37.048896999999997],[-122.094281,37.049281999999991],[-122.09458600000001,37.049968],[-122.095478,37.050617999999993],[-122.09591599999999,37.051839999999999],[-122.09683099999999,37.052720999999998],[-122.09812700000001,37.053329000000005],[-122.099386,37.053331999999997],[-122.10345500000001,37.052408],[-122.10293599999999,37.052926000000006],[-122.103151,37.053570000000001],[-122.10491999999999,37.053542999999998],[-122.10550899999998,37.054882999999997],[-122.10598500000002,37.056041999999998],[-122.10837299999999,37.056083999999998],[-122.10962700000002,37.056894999999997],[-122.10992,37.058276999999997],[-122.11077299999999,37.059035999999999],[-122.11144999999999,37.058573000000003],[-122.114058,37.057994000000001],[-122.115706,37.057912000000002],[-122.11637100000002,37.058093999999997],[-122.116631,37.058318999999997],[-122.116652,37.058879999999995],[-122.11639800000002,37.05917199999999],[-122.11540599999999,37.059579999999997],[-122.11487200000002,37.060263000000006],[-122.115013,37.060656000000002],[-122.11594500000001,37.061250000000008],[-122.116148,37.061817999999995],[-122.115965,37.062140999999997],[-122.11563899999999,37.062401999999999],[-122.115139,37.062511999999998],[-122.11249500000001,37.062156000000002],[-122.11067300000001,37.062089],[-122.10881700000002,37.06259399999999],[-122.10857300000002,37.062412999999999],[-122.10843199999999,37.062019999999997],[-122.10877600000001,37.061142999999994],[-122.10871,37.060932999999999],[-122.108431,37.061127999999997],[-122.107399,37.061146000000001],[-122.107359,37.061032999999988],[-122.107489,37.060392000000007],[-122.107248,37.059220999999994],[-122.104625,37.057917999999994],[-122.104246,37.057530999999997],[-122.104147,37.05675200000001],[-122.10382399999999,37.056353000000001],[-122.102738,37.056499000000002],[-122.10253899999999,37.056778999999999],[-122.10246400000001,37.057407999999995],[-122.10068,37.057944000000006],[-122.09998100000001,37.058334999999992],[-122.09978099999998,37.058613999999992],[-122.100649,37.06120099999999],[-122.10101999999999,37.061400999999996],[-122.102358,37.061622999999997],[-122.103177,37.062572000000003],[-122.10377299999999,37.06389999999999],[-122.103796,37.064131000000003],[-122.10358099999999,37.064367000000004],[-122.10378300000001,37.065263999999992],[-122.104997,37.066051000000002],[-122.104392,37.067155],[-122.106759,37.070180000000001],[-122.10598300000001,37.070250000000001],[-122.10587500000001,37.070385000000002],[-122.10576699999999,37.070373999999994],[-122.105546,37.070200000000007],[-122.104688,37.070149000000001],[-122.10431099999998,37.070422999999998],[-122.10398499999999,37.070286000000003],[-122.103916,37.070011000000001],[-122.103522,37.069754000000003],[-122.10254399999999,37.06971999999999],[-122.102495,37.069783999999999],[-122.10180300000002,37.068434000000003],[-122.100595,37.067571999999991],[-122.10026499999999,37.066984999999995],[-122.10127800000001,37.065630999999996],[-122.10141400000001,37.065176000000001],[-122.10144000000001,37.064746999999997],[-122.100672,37.062938999999993],[-122.10002600000001,37.062139999999999],[-122.09852500000001,37.061295000000001],[-122.09817999999999,37.060665],[-122.09752499999999,37.060008999999994],[-122.09705599999999,37.058699999999995],[-122.096052,37.058404000000003],[-122.09538499999998,37.058551999999992],[-122.09450499999998,37.060442000000002],[-122.094731,37.061240000000005],[-122.096335,37.063710999999998],[-122.09793599999999,37.065334],[-122.09886199999998,37.06724899999999],[-122.09854300000001,37.067695999999991],[-122.098189,37.068716999999992],[-122.097784,37.069089000000012],[-122.097598,37.069743000000003],[-122.09757500000002,37.071349000000005],[-122.097808,37.072333999999991],[-122.09821899999999,37.07260999999999],[-122.097812,37.073180999999998],[-122.097707,37.073721999999989],[-122.09795699999999,37.074420000000003],[-122.09914900000001,37.075239999999994],[-122.09951899999999,37.075770000000006],[-122.09983200000001,37.076642999999997],[-122.09904,37.078277999999997],[-122.09925400000002,37.079878999999998],[-122.09979499999999,37.081220000000002],[-122.101066,37.082256999999991],[-122.10138300000001,37.082139999999995],[-122.10096500000002,37.079971],[-122.10109400000002,37.079659999999997],[-122.10151499999999,37.079331000000003],[-122.102339,37.079289999999993],[-122.10332600000001,37.080202],[-122.104309,37.081774000000003],[-122.10513899999999,37.082250000000002],[-122.10543199999999,37.082231999999998],[-122.105774,37.082014999999998],[-122.10588799999998,37.081330000000008],[-122.10704699999999,37.080885000000002],[-122.10777,37.08039500000001],[-122.111458,37.079484000000008],[-122.11188199999999,37.079278999999985],[-122.11204199999999,37.079343999999999],[-122.11205900000002,37.079711999999986],[-122.11243200000001,37.079912999999991],[-122.112731,37.080478999999997],[-122.113208,37.080803000000003],[-122.11354699999998,37.080886],[-122.11386700000001,37.08101700000001],[-122.113917,37.081026999999999],[-122.113962,37.081068000000002],[-122.11455599999998,37.081788999999993],[-122.11453899999999,37.082509000000002],[-122.11423499999999,37.082396999999993],[-122.11317999999999,37.082639999999998],[-122.11274799999998,37.083023999999995],[-122.112683,37.083707999999994],[-122.112533,37.084435999999997],[-122.11254999999998,37.085371000000002],[-122.112314,37.086122000000003],[-122.11242099999998,37.086669999999998],[-122.11224799999999,37.086701000000005],[-122.10974800000001,37.086289000000001],[-122.10927,37.087614000000002],[-122.11085300000001,37.088571000000002],[-122.110558,37.089306999999991],[-122.112178,37.090226999999999],[-122.11380699999999,37.090425000000003],[-122.113968,37.090739999999997],[-122.11397200000002,37.091002000000003],[-122.11398400000002,37.091766000000007],[-122.11483,37.092411000000006],[-122.11550700000001,37.091560999999999],[-122.115751,37.091622000000001],[-122.116258,37.091405999999999],[-122.11739799999999,37.091610000000003],[-122.117739,37.09169399999999],[-122.11716399999999,37.091881999999998],[-122.11612500000001,37.092776000000001],[-122.115433,37.093438999999996],[-122.115442,37.093831000000002],[-122.115454,37.094424000000004],[-122.113319,37.094754999999999],[-122.112656,37.095638000000001],[-122.11412900000001,37.097220999999998],[-122.11416499999999,37.098987999999999],[-122.11181000000002,37.099871],[-122.109785,37.101233000000001],[-122.11118399999998,37.104435000000002],[-122.112655,37.105544999999992],[-122.11208499999998,37.105705999999998],[-122.111227,37.106042000000002],[-122.110028,37.106306999999994],[-122.10968099999999,37.106760000000001],[-122.110023,37.106785000000002],[-122.11099399999999,37.106541999999997],[-122.11193799999999,37.106070000000003],[-122.11245099999998,37.106051000000001],[-122.11372699999998,37.106516999999997],[-122.11471799999998,37.106979999999993],[-122.11465700000001,37.107299000000005],[-122.11498999999999,37.107742999999992],[-122.11537499999999,37.107968999999997],[-122.11575599999999,37.108193],[-122.11645900000001,37.108266],[-122.116489,37.108585999999995],[-122.11620599999999,37.10940999999999],[-122.11610899999999,37.109749999999991],[-122.116535,37.109372],[-122.117204,37.109293999999998],[-122.11707800000001,37.109749999999991],[-122.116415,37.110344999999995],[-122.11675000000001,37.110962999999998],[-122.11733799999999,37.111764999999998],[-122.11785399999999,37.111472999999989],[-122.11838900000001,37.111890000000002],[-122.117701,37.11277599999999],[-122.11788499999999,37.113178999999995],[-122.118162,37.113582000000001],[-122.118313,37.114035000000001],[-122.11862300000001,37.11436299999999],[-122.11893499999999,37.114466],[-122.119343,37.114393999999997],[-122.11971800000002,37.114446999999991],[-122.11962200000002,37.114646999999991],[-122.11958900000002,37.114797000000003],[-122.11983599999999,37.115049999999997],[-122.120024,37.115075999999995],[-122.12005899999998,37.115025999999993],[-122.120952,37.115212],[-122.12098599999999,37.115226999999997],[-122.12182100000001,37.116330999999995],[-122.123789,37.117557999999995],[-122.123904,37.117629999999998],[-122.124207,37.117818999999983],[-122.12470300000001,37.118127999999999],[-122.125423,37.119213000000002],[-122.12512999999998,37.120009000000003],[-122.12550299999999,37.120023999999994],[-122.12529500000001,37.120598000000008],[-122.127032,37.120892999999988],[-122.12631200000001,37.121233999999994],[-122.12611400000002,37.121389999999991],[-122.12581399999999,37.121974999999992],[-122.12630000000001,37.122253000000008],[-122.12751299999999,37.122351000000002],[-122.127752,37.122723000000001],[-122.12773300000001,37.122984999999993],[-122.127758,37.123511999999998],[-122.12807199999999,37.123513999999993],[-122.12838600000002,37.123366000000004],[-122.128683,37.123253000000005],[-122.12956700000001,37.123440999999993],[-122.12981900000001,37.124023999999999],[-122.13016999999999,37.124670000000002],[-122.131289,37.12458199999999],[-122.13193200000002,37.124920000000003],[-122.13215700000002,37.12650399999999],[-122.13335499999999,37.128095000000009],[-122.134337,37.12854999999999],[-122.13529800000002,37.128995000000003],[-122.13590200000002,37.130389999999998],[-122.136849,37.130717000000004],[-122.137249,37.131310999999997],[-122.137912,37.132294000000002],[-122.14018700000001,37.134568999999999],[-122.14075800000001,37.135069999999999],[-122.140602,37.135607],[-122.140843,37.135945000000007],[-122.14161899999999,37.135826000000002],[-122.14304799999999,37.137081000000002],[-122.14344499999999,37.137944000000005],[-122.143995,37.138021000000002],[-122.14455599999998,37.137214000000007],[-122.14609400000001,37.137345999999987],[-122.149714,37.138917000000006],[-122.145866,37.139516],[-122.14518700000001,37.138812999999999],[-122.144741,37.139364000000008],[-122.14436499999999,37.139294999999997],[-122.143542,37.139353],[-122.14322900000001,37.138869999999997],[-122.142792,37.138118999999996],[-122.141413,37.138109],[-122.14013199999999,37.137245000000007],[-122.138673,37.136415],[-122.13767900000002,37.136145999999989],[-122.13744199999999,37.134491000000004],[-122.13738299999999,37.133473000000009],[-122.13653299999999,37.132299000000003],[-122.13572200000002,37.132465999999994],[-122.135312,37.13212],[-122.13499300000001,37.132033],[-122.134613,37.131765000000001],[-122.134562,37.131300999999993],[-122.13369400000001,37.131114999999994],[-122.13360599999999,37.131053000000001],[-122.13291599999998,37.130812999999996],[-122.132643,37.129905999999991],[-122.13153900000002,37.127807999999995],[-122.12955100000002,37.12714600000001],[-122.126335,37.126342999999999],[-122.12586800000001,37.126900999999997],[-122.12590100000001,37.127333999999976],[-122.124966,37.127977000000001],[-122.124881,37.129088000000003],[-122.12451100000001,37.129117000000008],[-122.12451100000001,37.130519],[-122.126214,37.132840999999999],[-122.12659199999999,37.132525999999991],[-122.126614,37.133247000000004],[-122.127025,37.133294999999997],[-122.127759,37.133380999999993],[-122.128795,37.133502999999997],[-122.12886,37.134113999999997],[-122.128641,37.134822],[-122.12898800000001,37.135314000000008],[-122.129082,37.136192999999999],[-122.129599,37.136882999999997],[-122.129148,37.137261999999993],[-122.13005800000001,37.137804000000003],[-122.12996800000001,37.138167000000003],[-122.13074700000001,37.138354],[-122.13163900000001,37.139367],[-122.13254000000001,37.139575000000001],[-122.132361,37.140171000000002],[-122.13265,37.140643999999995],[-122.13323600000001,37.140765999999992],[-122.13328999999999,37.140793999999993],[-122.13330499999999,37.142090000000003],[-122.13481500000002,37.144593],[-122.136802,37.145659999999992],[-122.139011,37.148162999999997],[-122.13706000000001,37.149524999999997],[-122.137973,37.152937000000001],[-122.137381,37.152330999999997],[-122.13653100000001,37.153311999999993],[-122.136129,37.153291000000003],[-122.13607600000002,37.153603999999994],[-122.136149,37.153753000000002],[-122.13593499999999,37.153999999999996],[-122.137179,37.15528599999999],[-122.137154,37.155359999999995],[-122.13581000000001,37.155608999999998],[-122.135054,37.156177],[-122.136292,37.157604000000006],[-122.137496,37.158549999999998],[-122.13856699999999,37.158345999999995],[-122.13856699999999,37.158816999999999],[-122.13856699999999,37.159363999999989],[-122.138987,37.160065000000003],[-122.13900599999999,37.160177999999995],[-122.139687,37.16071199999999],[-122.139225,37.161324],[-122.13956200000001,37.161971999999992],[-122.13891599999999,37.163345999999997],[-122.139,37.163392999999999],[-122.13806699999999,37.163758000000001],[-122.13773699999999,37.164444000000003],[-122.13800500000001,37.164662],[-122.13802500000001,37.164824999999986],[-122.13816000000001,37.165008999999991],[-122.138042,37.165050000000008],[-122.13784,37.165225],[-122.13796500000001,37.16537799999999],[-122.137745,37.165688999999993],[-122.13880599999999,37.166252999999998],[-122.13859299999999,37.166602999999995],[-122.13828599999999,37.166561000000002],[-122.13786399999998,37.166654000000008],[-122.137721,37.166846],[-122.13767999999999,37.16703900000001],[-122.13751799999999,37.167052999999989],[-122.13711499999999,37.16722699999999],[-122.136832,37.167400999999998],[-122.136348,37.167606999999997],[-122.13584400000001,37.16785999999999],[-122.135721,37.168035000000003],[-122.13608000000001,37.168246999999994],[-122.13729899999998,37.168720999999998],[-122.13760100000002,37.168610999999991],[-122.13805000000001,37.168638999999985],[-122.138092,37.169156000000001],[-122.137894,37.16923899999999],[-122.13793099999999,37.169592999999992],[-122.13806599999999,37.169798999999998],[-122.13800699999999,37.169913999999999],[-122.13822500000001,37.170172999999991],[-122.138525,37.170271],[-122.13874599999998,37.170319999999997],[-122.13880300000001,37.170482],[-122.13914200000001,37.170661000000003],[-122.13956399999999,37.170664000000002],[-122.14022599999998,37.170605000000002],[-122.140608,37.170527],[-122.14101100000001,37.170370000000005],[-122.14139299999999,37.170355999999991],[-122.141794,37.170343000000003],[-122.14193899999999,37.170329000000002],[-122.141963,37.170795999999996],[-122.14281300000002,37.171049000000004],[-122.142788,37.171168999999999],[-122.142804,37.171491000000003],[-122.14302400000001,37.171588],[-122.14338499999998,37.171590999999999],[-122.14376599999999,37.171593999999999],[-122.14390099999999,37.171737999999998],[-122.143542,37.172207000000007],[-122.142422,37.173102999999998],[-122.14352899999999,37.174788999999997],[-122.142419,37.175184999999992],[-122.14228199999999,37.175131],[-122.14196,37.175208999999995],[-122.14187800000001,37.175320999999997],[-122.14188299999999,37.17537699999999],[-122.141755,37.175421999999998],[-122.14181600000002,37.175508000000001],[-122.14072100000001,37.176119],[-122.140749,37.176574000000009],[-122.14012399999999,37.176884999999999],[-122.14015000000002,37.177311000000003],[-122.14020700000002,37.177863999999992],[-122.14016899999999,37.178389999999993],[-122.13994599999999,37.178739999999998],[-122.139785,37.179115000000003],[-122.13984500000001,37.179340999999987],[-122.140377,37.179469999999995],[-122.14081299999999,37.179723999999986],[-122.14099700000001,37.18007699999999],[-122.141212,37.180455000000002],[-122.14153,37.180464999999991],[-122.14160800000001,37.180973999999999],[-122.14168100000002,37.181457999999999],[-122.14275699999999,37.181421999999998],[-122.143666,37.181549999999994],[-122.14377199999998,37.181724000000003],[-122.14402999999999,37.181982999999995],[-122.144391,37.182034000000002],[-122.14467,37.182180000000002],[-122.14488799999999,37.182406999999998],[-122.14488599999999,37.182631999999998],[-122.14496399999999,37.182792999999997],[-122.14518299999999,37.182970999999995],[-122.14518600000001,37.182971000000002],[-122.145268,37.183609999999994],[-122.14760699999998,37.186048],[-122.148009,37.186083999999994],[-122.15156500000002,37.187792999999999],[-122.15302599999998,37.187517],[-122.15502199999999,37.188392999999991],[-122.15584800000001,37.188490000000002],[-122.15601200000002,37.188195999999991],[-122.156218,37.188097999999997],[-122.15642200000001,37.188140999999995],[-122.15666399999999,37.188061999999995],[-122.156734,37.187851999999992],[-122.15692799999999,37.187759],[-122.15946099999999,37.187209999999993],[-122.159515,37.18753199999999],[-122.16060400000001,37.187937999999988],[-122.16126900000002,37.187809000000001],[-122.161748,37.187919999999998],[-122.16209899999998,37.188362999999995],[-122.16270800000001,37.188529000000003],[-122.16317900000001,37.188349000000002],[-122.16315500000002,37.188474999999997],[-122.162989,37.188512000000003],[-122.16250099999999,37.189325999999994],[-122.162757,37.190871000000008],[-122.163208,37.191290000000002],[-122.16432500000001,37.191889999999994],[-122.16586399999998,37.191830999999993],[-122.16719600000002,37.192195999999988],[-122.16729000000001,37.19245699999999],[-122.16696900000001,37.193565],[-122.16718899999998,37.194175999999999],[-122.167568,37.194562999999995],[-122.16773000000001,37.194659999999992],[-122.16763200000001,37.19493099999999],[-122.16708300000001,37.195476999999997],[-122.165277,37.195242999999991],[-122.16469299999999,37.195167999999995],[-122.16351400000001,37.19551899999999],[-122.163616,37.195694000000003],[-122.163523,37.195720999999985],[-122.16314000000001,37.195830999999991],[-122.16303899999998,37.195909999999991],[-122.163157,37.196120000000001],[-122.16349200000001,37.1967],[-122.16340599999999,37.197165000000005],[-122.16374500000001,37.197344000000001],[-122.16418400000001,37.19758800000001],[-122.16464799999999,37.197606999999998],[-122.16484000000001,37.198134000000003],[-122.164953,37.198445000000007],[-122.16503,37.198657999999995],[-122.16479,37.199116999999994],[-122.16459699999999,37.199298999999996],[-122.16365400000001,37.199199000000007],[-122.163043,37.199335000000005],[-122.162628,37.199849999999998],[-122.16267499999999,37.199981000000001],[-122.162142,37.200335000000003],[-122.16279200000001,37.202641000000007],[-122.16406299999998,37.204337000000002],[-122.16478299999999,37.204836999999998],[-122.16538699999998,37.204844999999992],[-122.166929,37.204353000000005],[-122.16737099999999,37.205533999999993],[-122.17036199999998,37.205879000000003],[-122.17042600000001,37.205887999999995],[-122.17085000000002,37.206177999999994],[-122.173005,37.207160000000002],[-122.173957,37.207467000000008],[-122.17435799999998,37.207501000000001],[-122.174503,37.208753999999999],[-122.17594099999998,37.208926999999989],[-122.17715000000001,37.208170999999993],[-122.17717500000001,37.208195000000003],[-122.17751199999999,37.20850200000001],[-122.17758899999998,37.208839999999995],[-122.17762700000002,37.209009000000009],[-122.17763399999998,37.20900799999999],[-122.180037,37.209510999999999],[-122.181256,37.210560000000001],[-122.18149099999999,37.211213999999991],[-122.18106800000001,37.211872999999983],[-122.181099,37.212290999999986],[-122.18175600000001,37.212615999999997],[-122.182605,37.21280500000001],[-122.18438300000001,37.212739999999989],[-122.18476699999999,37.212924000000001],[-122.18475599999998,37.212939999999996],[-122.18479400000001,37.213214000000001],[-122.18443400000001,37.214047999999991],[-122.18465399999998,37.214658],[-122.184549,37.21520000000001],[-122.184045,37.216301000000001],[-122.184265,37.216911999999994],[-122.18501599999999,37.217829000000002],[-122.18729499999999,37.219820000000006],[-122.188698,37.220545999999999],[-122.189807,37.220329],[-122.18981599999999,37.220410000000001],[-122.190327,37.220574000000006],[-122.19089700000002,37.220728999999999],[-122.190791,37.221626000000008],[-122.19109000000002,37.22246599999999],[-122.19292800000001,37.224219999999988],[-122.193743,37.224854000000008],[-122.194632,37.225034999999998],[-122.194858,37.226526999999997],[-122.195899,37.227130000000002],[-122.195763,37.227673000000003],[-122.19621100000001,37.228662999999997],[-122.199487,37.232497999999993],[-122.20066300000001,37.233477999999991],[-122.20063299999998,37.234306999999987],[-122.20197899999999,37.235289999999999],[-122.20258200000001,37.235408],[-122.20289200000002,37.235689000000001],[-122.20291099999999,37.235971999999997],[-122.20314999999999,37.236145999999998],[-122.20506000000002,37.235489000000008],[-122.20528400000001,37.235675999999991],[-122.20588999999998,37.235690999999996],[-122.206401,37.235423999999995],[-122.206828,37.235033000000001],[-122.20726999999999,37.235064000000001],[-122.20738,37.235487999999989],[-122.20698899999998,37.236058],[-122.206671,37.236522999999998],[-122.20653900000001,37.236937000000005],[-122.20685599999999,37.237203999999998],[-122.206588,37.237563000000002],[-122.20673900000001,37.238574],[-122.20916599999998,37.240428000000001],[-122.21021500000002,37.240318000000009],[-122.21028,37.240504000000001],[-122.211743,37.240341000000001],[-122.21174699999999,37.240374000000003],[-122.212301,37.24086299999999],[-122.21250099999999,37.242032000000002],[-122.21317599999999,37.24333],[-122.21529700000001,37.244610000000016],[-122.216318,37.245799999999996],[-122.21717099999999,37.246467000000017],[-122.21789600000001,37.24630599999999],[-122.21888300000002,37.247441000000002],[-122.220258,37.24756],[-122.221182,37.247463000000003],[-122.22110000000001,37.247698999999997],[-122.22121799999998,37.24823099999999],[-122.220958,37.248828999999994],[-122.221608,37.24924699999999],[-122.22251,37.249826999999996],[-122.22257099999999,37.25060400000001],[-122.22354300000002,37.250686000000002],[-122.22402699999999,37.250514000000003],[-122.22507299999998,37.250795999999987],[-122.22545,37.251375999999993],[-122.226074,37.251539000000008],[-122.22619899999998,37.252019999999995],[-122.22673399999999,37.252389000000001],[-122.22760100000001,37.252555000000008],[-122.228081,37.252443999999983],[-122.22917,37.252721000000001],[-122.229613,37.252406999999998],[-122.22913699999999,37.251942],[-122.229815,37.251927000000009],[-122.23102400000001,37.251904000000003],[-122.231942,37.251739000000001],[-122.23300999999999,37.252042000000003],[-122.23382400000001,37.25253],[-122.23443899999999,37.253391000000008],[-122.23561599999999,37.25387099999999],[-122.236536,37.254640000000002],[-122.23761500000001,37.254761999999999],[-122.23807299999999,37.255110999999999],[-122.23881100000001,37.255811000000001],[-122.240443,37.256422999999998],[-122.24115399999998,37.25619600000001],[-122.24222899999998,37.256174999999999],[-122.24296200000001,37.256732999999997],[-122.243893,37.257112999999997],[-122.24476900000001,37.257211999999996],[-122.24550399999998,37.257808999999995],[-122.24575400000001,37.258082999999999],[-122.24572599999999,37.259236000000001],[-122.246538,37.259292000000002],[-122.247276,37.259697999999986],[-122.24838299999999,37.260159000000009],[-122.24871600000002,37.260178000000003],[-122.24875500000002,37.259715],[-122.24973300000002,37.259830000000008],[-122.25099299999998,37.260476000000004],[-122.251093,37.260475],[-122.25125099999998,37.261082000000002],[-122.25194600000002,37.261237999999992],[-122.252272,37.26171999999999],[-122.253778,37.262637999999995],[-122.25467300000001,37.262588000000001],[-122.255779,37.262210000000003],[-122.256564,37.262847999999998],[-122.25942399999998,37.262673000000007],[-122.260452,37.262997000000006],[-122.260418,37.263594999999995],[-122.261358,37.264040000000001],[-122.26212199999999,37.26387600000001],[-122.26228799999998,37.264203999999999],[-122.262872,37.265040999999997],[-122.263316,37.265765999999992],[-122.26421799999999,37.265839],[-122.26486000000001,37.266508000000002],[-122.26583300000001,37.266559000000001],[-122.26592300000002,37.266663999999999],[-122.26581499999999,37.267459000000002],[-122.26559399999998,37.268268999999982],[-122.271557,37.27051500000001],[-122.27365500000001,37.26917499999999],[-122.27371700000002,37.269615000000002],[-122.27414999999999,37.270463000000007],[-122.274896,37.270820000000001],[-122.27641999999999,37.270460000000007],[-122.276695,37.270301999999994],[-122.27663699999998,37.271691999999994],[-122.278256,37.270551000000005],[-122.280643,37.270952999999984],[-122.28155,37.270383000000002],[-122.28390499999999,37.270254000000001],[-122.28439799999998,37.270234999999992],[-122.28631300000001,37.271093999999991],[-122.287324,37.270973999999995],[-122.289992,37.270249999999997],[-122.291409,37.271441000000003],[-122.292917,37.270974000000002],[-122.29287599999999,37.270324000000002],[-122.29304100000002,37.27030899999999],[-122.29340999999999,37.270731999999988],[-122.29459799999999,37.271073000000001],[-122.294973,37.270203000000009],[-122.29608399999998,37.270268999999985],[-122.29701999999999,37.269818000000001],[-122.296943,37.269204000000009],[-122.296949,37.269199],[-122.297535,37.268374999999992],[-122.297534,37.268286000000003],[-122.29780700000001,37.268348000000003],[-122.29793299999999,37.268090000000001],[-122.29834,37.268155999999998],[-122.298333,37.268591000000001],[-122.299409,37.269507999999995],[-122.300234,37.269814000000004],[-122.30284899999999,37.270166999999994],[-122.30478099999999,37.269885000000002],[-122.30673599999999,37.269413999999998],[-122.30824299999999,37.269249000000009],[-122.309209,37.267905999999996],[-122.30839500000002,37.266581999999993],[-122.30901799999998,37.265846000000003],[-122.30924500000002,37.264557000000003],[-122.310489,37.263876000000003],[-122.31146499999998,37.263065000000005],[-122.31146200000001,37.262982999999984],[-122.312415,37.262490999999997],[-122.31211999999998,37.261534000000005],[-122.311752,37.260871000000002],[-122.312856,37.259876999999996],[-122.313777,37.259914000000002],[-122.31348199999999,37.259436000000001],[-122.312415,37.258184],[-122.31154800000002,37.258044999999996],[-122.31189099999999,37.257648999999994],[-122.31103499999999,37.257127999999994],[-122.30951300000001,37.256848999999988],[-122.30912200000002,37.256292000000002],[-122.307895,37.25546700000001],[-122.30624899999999,37.255377999999993],[-122.30535100000002,37.255332999999993],[-122.304292,37.255187000000006],[-122.30350499999999,37.255302],[-122.303248,37.255285999999991],[-122.30304800000002,37.254834999999993],[-122.30327200000001,37.253041000000003],[-122.30335100000002,37.25201400000001],[-122.30400699999998,37.251877],[-122.30427299999999,37.251418000000001],[-122.305457,37.251493000000011],[-122.30604700000002,37.251669],[-122.309139,37.250638000000002],[-122.31044299999999,37.249080999999997],[-122.31140499999998,37.248840000000001],[-122.31183299999999,37.248959000000006],[-122.31202500000002,37.249578],[-122.312382,37.249733999999989],[-122.31441600000001,37.249374999999993],[-122.315607,37.249344999999998],[-122.31721999999999,37.248986000000002],[-122.31770400000001,37.248830999999996],[-122.31809399999999,37.24841399999999],[-122.31927099999999,37.247680000000003],[-122.32051100000001,37.247121],[-122.32210899999998,37.245727999999986],[-122.32378600000001,37.244882999999994],[-122.32443100000002,37.244174000000008],[-122.324725,37.24349500000001],[-122.32486199999998,37.242381000000002],[-122.32583400000001,37.240419999999993],[-122.32574,37.239828999999993],[-122.32591499999999,37.239317999999997],[-122.32629000000001,37.238528000000002],[-122.32691,37.237918000000001],[-122.32720500000001,37.23724],[-122.327175,37.23649300000001],[-122.32753300000002,37.235658999999991],[-122.327169,37.235315999999997],[-122.32663700000001,37.235339999999987],[-122.32640600000001,37.235532999999982],[-122.32611099999998,37.236540999999988],[-122.32549800000001,37.237338000000001],[-122.325361,37.238451999999995],[-122.32439000000001,37.240082999999991],[-122.32446899999998,37.240301000000002],[-122.32377699999999,37.240878999999993],[-122.323356,37.240878999999993],[-122.32280900000001,37.240529000000002],[-122.321636,37.239283],[-122.32105799999998,37.237855999999994],[-122.321139,37.237084000000003],[-122.321944,37.235491000000003],[-122.322137,37.234034000000008],[-122.3219,37.233379999999997],[-122.321569,37.232874999999993],[-122.32157100000001,37.232875],[-122.32183799999999,37.232652999999992],[-122.32327300000001,37.231460999999996],[-122.322647,37.229878999999997],[-122.324304,37.227191999999995],[-122.3241,37.225645],[-122.323866,37.225541999999997],[-122.323358,37.225136999999989],[-122.323121,37.224482999999992],[-122.32332,37.224203000000003],[-122.32336100000001,37.223486999999999],[-122.32321900000001,37.223093999999996],[-122.322434,37.222420999999997],[-122.32207099999999,37.221418],[-122.32219899999998,37.220776999999998],[-122.32269999999998,37.220334999999999],[-122.32367600000001,37.220211999999997],[-122.324668,37.220791999999982],[-122.325247,37.220898000000005],[-122.32580299999999,37.220774000000006],[-122.326295,37.220475999999998],[-122.326995,37.219754000000002],[-122.327445,37.219580999999991],[-122.32714899999999,37.219009],[-122.32758400000002,37.218727000000008],[-122.328515,37.217813],[-122.33064399999999,37.216724999999997],[-122.33307499999999,37.215145999999997],[-122.333973,37.214803999999994],[-122.33461699999998,37.214095000000007],[-122.33461000000001,37.213247999999993],[-122.33376900000002,37.21291699999999],[-122.33134700000001,37.213363000000001],[-122.329562,37.213242999999999],[-122.32923700000001,37.212514999999996],[-122.32966,37.211525000000002],[-122.32978799999999,37.210553999999995],[-122.33028899999999,37.20978199999999],[-122.33175200000001,37.208513000000011],[-122.33242,37.207374000000002],[-122.332865,37.206944999999997],[-122.332937,37.206645999999999],[-122.33323900000001,37.206483999999996],[-122.334281,37.205214999999995],[-122.335083,37.204611999999997],[-122.335426,37.20406400000001],[-122.336371,37.203192999999999],[-122.33753900000001,37.202602999999996],[-122.338803,37.201284000000001],[-122.33921599999999,37.201096999999997],[-122.34006600000001,37.200295000000004],[-122.34008700000001,37.200044999999996],[-122.34051900000001,37.200059999999993],[-122.34164699999999,37.200324000000002],[-122.342676,37.200314999999996],[-122.342776,37.199555999999987],[-122.34171099999999,37.199204999999999],[-122.33970200000002,37.198842999999997],[-122.33851699999998,37.198852999999993],[-122.338185,37.198224000000003],[-122.338656,37.198152999999991],[-122.338939,37.196975000000009],[-122.33839699999999,37.196715999999995],[-122.33835000000001,37.196339000000002],[-122.33785500000002,37.196055999999992],[-122.33809100000001,37.194737000000003],[-122.337521,37.194136999999998],[-122.33855599999998,37.19386999999999],[-122.33954799999999,37.194016999999988],[-122.33969500000001,37.194940999999993],[-122.34082299999999,37.195720999999999],[-122.341404,37.196548],[-122.34251900000001,37.197550999999997],[-122.34328700000002,37.198116000000006],[-122.34467499999998,37.198321999999997],[-122.34549399999999,37.198507999999997],[-122.34627500000001,37.198333000000005],[-122.34625200000001,37.197233999999995],[-122.345484,37.196153000000002],[-122.34491499999999,37.195101999999991],[-122.34396299999999,37.193767999999984],[-122.342922,37.192968999999998],[-122.34153400000001,37.192247999999992],[-122.34053,37.192324999999997],[-122.33916600000001,37.192702999999987],[-122.338086,37.193090999999995],[-122.336479,37.193240000000003],[-122.336483,37.192880000000002],[-122.33672900000002,37.192813000000001],[-122.336821,37.192787999999993],[-122.33756200000001,37.192990000000002],[-122.33757900000002,37.192510000000006],[-122.337656,37.192317000000003],[-122.33786600000001,37.191792],[-122.339179,37.191963999999999],[-122.34038200000001,37.191915999999999],[-122.341114,37.191605000000003],[-122.341314,37.190603000000003],[-122.34083200000001,37.189532999999997],[-122.340064,37.188451999999998],[-122.33975599999999,37.187341999999994],[-122.33994300000001,37.186563999999997],[-122.33867899999998,37.186183999999997],[-122.338008,37.186922000000003],[-122.33730099999998,37.187300999999998],[-122.336927,37.187463000000001],[-122.33688900000001,37.187246000000002],[-122.33764299999999,37.186092000000002],[-122.33738400000001,37.185831999999991],[-122.336536,37.186609999999995],[-122.33643299999999,37.186563],[-122.33668299999998,37.186114000000011],[-122.33667199999999,37.185305999999997],[-122.33574200000001,37.185071999999998],[-122.33447799999999,37.185206999999991],[-122.33369500000001,37.185897000000004],[-122.33350799999999,37.186674999999994],[-122.33363200000001,37.187621],[-122.33351799999998,37.187730999999999],[-122.33299100000002,37.187594999999995],[-122.332882,37.18741],[-122.33255900000002,37.186717000000002],[-122.33187100000002,37.186453999999991],[-122.33048700000002,37.185405999999993],[-122.33000699999999,37.185338999999999],[-122.33,37.184704000000004],[-122.329958,37.184420999999993],[-122.33044099999998,37.183750000000003],[-122.32997999999999,37.183196000000002],[-122.32984200000001,37.183233999999999],[-122.32989300000001,37.182369999999985],[-122.329123,37.181964999999998],[-122.330556,37.180465000000005],[-122.32970399999999,37.179575999999997],[-122.329678,37.179082999999999],[-122.328721,37.178936],[-122.328076,37.179376000000005],[-122.32787599999999,37.179116999999998],[-122.32787599999999,37.178636999999995],[-122.32840100000001,37.178164999999993],[-122.32901999999999,37.178249999999998],[-122.329166,37.178112000000006],[-122.33061499999998,37.178204999999998],[-122.33029999999998,37.177386000000006],[-122.33014300000001,37.176825999999991],[-122.33009400000002,37.176400999999998],[-122.33137699999999,37.176315000000002],[-122.333308,37.175961999999998],[-122.33389699999998,37.175702999999999],[-122.33361499999999,37.175019999999996],[-122.33326099999999,37.174289000000002],[-122.333662,37.174147999999995],[-122.33410900000001,37.173794999999998],[-122.33323799999999,37.173017000000002],[-122.332413,37.173181999999997],[-122.33132999999999,37.172758000000002],[-122.33121200000001,37.172099000000003],[-122.33095299999999,37.170708999999988],[-122.329686,37.171151999999992],[-122.329742,37.170209],[-122.32966399999999,37.170038000000005],[-122.33026899999999,37.169553999999998],[-122.330646,37.168188000000001],[-122.33043400000001,37.167293000000008],[-122.329424,37.167338999999998],[-122.32936799999999,37.167274999999997],[-122.32792400000001,37.166492999999996],[-122.32748600000001,37.167436999999993],[-122.327485,37.167437999999997],[-122.32705600000001,37.166761999999999],[-122.325965,37.166212000000002],[-122.32577699999999,37.16593000000001],[-122.32617600000002,37.164351000000003],[-122.32665999999999,37.162627000000008],[-122.32662000000002,37.161325999999995],[-122.32731200000001,37.161724999999997],[-122.32848300000001,37.162762000000008],[-122.329202,37.161735],[-122.330327,37.16160399999999],[-122.33103499999999,37.160708999999983],[-122.33097499999998,37.159765],[-122.33011299999998,37.159152999999996],[-122.33024,37.158526000000009],[-122.33023300000001,37.158495000000002],[-122.331237,37.158160000000002],[-122.33251400000002,37.157800999999992],[-122.33389000000001,37.157714999999996],[-122.33478400000001,37.157073999999987],[-122.33547900000001,37.156402999999997],[-122.335666,37.15592199999999],[-122.33598600000001,37.155985999999999],[-122.33788699999998,37.153170000000003],[-122.339506,37.151832000000006],[-122.34443399999999,37.149367999999996],[-122.344505,37.147677999999999],[-122.335987,37.145299999999992],[-122.33714100000002,37.14045999999999],[-122.33718600000002,37.140267999999999],[-122.33714799999998,37.140222000000001],[-122.33790699999999,37.139805999999993],[-122.33854100000001,37.138706999999997],[-122.338133,37.137841000000002],[-122.337254,37.137227000000003],[-122.33643600000001,37.137556999999994],[-122.336212,37.13797499999999],[-122.335891,37.137605000000008],[-122.33524700000001,37.137380999999976],[-122.33451499999998,37.13769099999999],[-122.33435800000001,37.138076000000005],[-122.33334399999998,37.138055999999999],[-122.33231599999999,37.138384999999992],[-122.33203700000001,37.138052999999992],[-122.33221,37.137014000000001],[-122.33160500000001,37.136640000000007],[-122.33118700000001,37.136862000000001],[-122.32865700000001,37.136274999999991],[-122.32589299999999,37.13718699999999],[-122.32534699999999,37.137751000000002],[-122.325655,37.138860000000001],[-122.326559,37.139026000000001],[-122.328084,37.138317999999998],[-122.32874100000001,37.137803000000005],[-122.329931,37.137462999999997],[-122.33073999999999,37.137774],[-122.33073999999999,37.137851000000005],[-122.33108599999998,37.138628999999987],[-122.33128399999998,37.138911999999991],[-122.330045,37.139741000000001],[-122.329853,37.140835000000003],[-122.32744999999998,37.140918999999997],[-122.326983,37.142157999999995],[-122.326818,37.143690999999997],[-122.326656,37.143982000000008],[-122.326106,37.143473],[-122.32528799999999,37.143286999999994],[-122.32419800000001,37.142867000000003],[-122.32224100000001,37.142642000000009],[-122.321624,37.142861000000003],[-122.321487,37.142733],[-122.32129,37.142513999999998],[-122.321094,37.14229499999999],[-122.320948,37.142036000000004],[-122.32065299999998,37.141795999999992],[-122.320457,37.141556999999999],[-122.32018599999999,37.141376999999984],[-122.319891,37.141216999999997],[-122.31964499999999,37.140937999999998],[-122.31945000000002,37.140678999999999],[-122.31918099999999,37.140281000000002],[-122.31908300000001,37.140121999999984],[-122.31896199999998,37.139864000000003],[-122.31886599999999,37.139506000000004],[-122.31883200000001,37.139467000000003],[-122.31886799999999,37.139209000000001],[-122.31855000000002,37.138829999999992],[-122.31815400000001,37.13882799999999],[-122.318128,37.138987],[-122.31795200000002,37.139203999999985],[-122.31767900000001,37.139300999999996],[-122.317554,37.139439000000003],[-122.31728000000001,37.139615999999997],[-122.31703099999999,37.139733999999997],[-122.316784,37.139652999999996],[-122.316513,37.139532000000003],[-122.31639200000001,37.139253999999994],[-122.31619499999999,37.139074999999998],[-122.31612199999998,37.138954999999989],[-122.31597600000002,37.138696999999993],[-122.315978,37.138418999999999],[-122.315658,37.138278],[-122.31553600000001,37.137999999999998],[-122.31534000000002,37.137740999999991],[-122.31511800000001,37.137661000000001],[-122.314897,37.137461000000009],[-122.31467600000002,37.137241999999993],[-122.314505,37.137062],[-122.314234,37.136901999999999],[-122.314138,37.136524999999999],[-122.31464399999999,37.135585000000006],[-122.314217,37.135651000000003],[-122.314171,37.135314999999991],[-122.313372,37.13547999999998],[-122.312574,37.135644999999997],[-122.31242,37.135531000000007],[-122.31260499999999,37.134917000000002],[-122.312613,37.134331000000003],[-122.31281300000001,37.13360999999999],[-122.31252700000002,37.13358800000001],[-122.31290799999999,37.13276599999999],[-122.31248600000001,37.132826999999999],[-122.312079,37.133535000000002],[-122.31214600000001,37.133946000000002],[-122.312105,37.134028999999998],[-122.311982,37.134357999999992],[-122.311938,37.134344999999989],[-122.311538,37.134512000000001],[-122.311449,37.135073000000006],[-122.310857,37.13521699999999],[-122.31058499999999,37.135136000000003],[-122.310959,37.134841000000002],[-122.31140799999999,37.134506999999999],[-122.311487,37.133971999999993],[-122.31146699999999,37.133777000000002],[-122.311441,37.133535999999999],[-122.31099599999999,37.133533],[-122.31095099999999,37.133017000000002],[-122.31070499999998,37.132857000000001],[-122.310334,37.132735999999994],[-122.31016499999998,37.132299000000003],[-122.31016699999999,37.132021000000002],[-122.31014600000002,37.131625],[-122.30995199999998,37.131247000000009],[-122.30965699999999,37.130968000000003],[-122.30983000000002,37.130455000000005],[-122.30997000000001,37.129167000000002],[-122.30976,37.128171000000002],[-122.308325,37.128055999999994],[-122.30760900000001,37.128070000000001],[-122.307208,37.128038999999994],[-122.30750500000001,37.128000999999983],[-122.307542,37.128003999999997],[-122.30768,37.12780399999999],[-122.30758499999999,37.127387000000006],[-122.307388,37.12724699999999],[-122.30691900000001,37.127065999999999],[-122.30677,37.127124999999992],[-122.30689099999999,37.127501999999993],[-122.306839,37.12769999999999],[-122.30614199999998,37.128112000000002],[-122.30567000000001,37.128288000000005],[-122.305245,37.128780999999996],[-122.304947,37.128858999999991],[-122.304726,37.128619000000008],[-122.30502700000001,37.128225],[-122.30517799999998,37.128006999999982],[-122.30530400000001,37.127749999999992],[-122.30524900000002,37.127699999999997],[-122.305773,37.127625999999999],[-122.30610200000001,37.126992000000008],[-122.30632999999999,37.12641],[-122.30696400000001,37.125673999999989],[-122.30642899999999,37.125298999999991],[-122.30605700000001,37.125137000000009],[-122.306031,37.125149999999998],[-122.306218,37.124568999999994],[-122.30656799999998,37.123877999999998],[-122.306332,37.122894000000002],[-122.3052,37.122250999999999],[-122.30389099999999,37.122448999999996],[-122.30362199999999,37.122452999999993],[-122.303518,37.12209099999999],[-122.30320799999998,37.121588999999993],[-122.30345300000002,37.121296000000001],[-122.30447500000001,37.12063100000001],[-122.304389,37.120514],[-122.30473499999999,37.12035199999999],[-122.305173,37.119741000000005],[-122.30497299999999,37.118916999999996],[-122.3045,37.118445999999999],[-122.304041,37.11837100000001],[-122.30414199999998,37.119194],[-122.30386900000001,37.119487999999997],[-122.303816,37.119557999999998],[-122.30335199999999,37.119823999999994],[-122.30281600000001,37.120275999999997],[-122.302611,37.120451999999993],[-122.30255099999998,37.120420000000003],[-122.302311,37.119820999999995],[-122.30188399999999,37.119179000000003],[-122.30131000000002,37.118316],[-122.300336,37.117804999999997],[-122.29957,37.116678999999998],[-122.29823299999998,37.116109999999999],[-122.29717800000002,37.116039999999991],[-122.297168,37.115966],[-122.296848,37.115685999999997],[-122.296577,37.115546000000002],[-122.296496,37.115517999999994],[-122.29657800000001,37.115506000000011],[-122.296679,37.115308999999996],[-122.296556,37.115228999999992],[-122.29632599999999,37.115319000000007],[-122.296396,37.115040999999991],[-122.296705,37.114823000000001],[-122.29718499999998,37.11448399999999],[-122.29709699999999,37.114445000000003],[-122.29633,37.113815000000002],[-122.295586,37.113085999999996],[-122.295334,37.112388000000003],[-122.295708,37.111597000000003],[-122.29661299999999,37.111112999999996],[-122.296643,37.110974999999996],[-122.29618600000001,37.110670999999996],[-122.29574399999998,37.110540999999998],[-122.29548500000001,37.110416999999998],[-122.29546000000001,37.110429000000003],[-122.295219,37.110541999999995],[-122.295069,37.11074099999999],[-122.29446900000001,37.110615000000003],[-122.294472,37.110300000000009],[-122.294574,37.110062000000006],[-122.294724,37.109884999999991],[-122.29482400000002,37.109706999999993],[-122.29470700000002,37.109474999999996],[-122.29465400000001,37.109368999999994],[-122.294479,37.109196000000004],[-122.29431099999999,37.109029999999997],[-122.29379499999999,37.108649999999983],[-122.29313100000002,37.108150999999999],[-122.29261500000001,37.107711000000002],[-122.292097,37.107550000000003],[-122.291752,37.107464999999998],[-122.29180099999999,37.107469000000002],[-122.29160400000001,37.107288999999994],[-122.29076800000001,37.106709000000002],[-122.290373,37.106547999999997],[-122.28995500000001,37.106287999999999],[-122.289512,37.106027000000005],[-122.288944,37.105846],[-122.28860000000002,37.105606000000002],[-122.28825200000001,37.105722999999998],[-122.28795599999998,37.10568099999999],[-122.28778399999999,37.105482000000009],[-122.28778800000001,37.105104999999995],[-122.28784,37.104808000000006],[-122.28804100000001,37.104492],[-122.28771999999999,37.104390999999985],[-122.287497,37.104489000000008],[-122.28705100000002,37.104485999999994],[-122.28643600000001,37.104105999999994],[-122.28598800000002,37.103878999999992],[-122.286237,37.103245999999999],[-122.28588600000002,37.103225999999999],[-122.28560799999998,37.103743999999992],[-122.28534999999998,37.10374199999999],[-122.28478499999999,37.103282999999998],[-122.28459100000001,37.102846],[-122.284249,37.102387999999991],[-122.28412799999998,37.102069999999998],[-122.28398199999999,37.101830999999997],[-122.28358900000002,37.101551000000001],[-122.28337000000002,37.101173000000003],[-122.283102,37.100636000000002],[-122.28280900000001,37.100276999999998],[-122.282415,37.100036999999986],[-122.28207399999998,37.099460000000001],[-122.28177999999998,37.099081999999996],[-122.28141200000002,37.098742000000001],[-122.28116700000001,37.098503000000001],[-122.280826,37.097965999999992],[-122.28036,37.097526999999999],[-122.28001500000001,37.097346000000002],[-122.27996300000001,37.097543999999992],[-122.27997000000001,37.097579999999994],[-122.27946199999998,37.097230000000003],[-122.27880000000002,37.096465999999999],[-122.27809800000001,37.096563999999987],[-122.27834900000001,37.096916999999991],[-122.27840100000002,37.09735100000001],[-122.278868,37.097640999999996],[-122.27902500000002,37.09789700000001],[-122.27876500000001,37.098425000000006],[-122.27837499999998,37.099291000000001],[-122.278325,37.099455999999996],[-122.278199,37.099846000000007],[-122.27762100000001,37.099840999999998],[-122.277373,37.099871999999998],[-122.27686199999998,37.100073000000002],[-122.275983,37.100360999999978],[-122.275637,37.100678000000002],[-122.27582500000001,37.101056],[-122.27627600000001,37.101295],[-122.277106,37.101348000000002],[-122.27713,37.101413000000001],[-122.27730200000002,37.101591999999989],[-122.277646,37.101791999999989],[-122.277817,37.102051000000003],[-122.278063,37.10221099999999],[-122.278384,37.102331999999997],[-122.27872800000002,37.102591999999994],[-122.27887299999999,37.10295],[-122.27887000000001,37.103267000000002],[-122.27896600000001,37.103604999999995],[-122.27896200000002,37.103960999999998],[-122.27896099999998,37.104112999999998],[-122.278886,37.104119999999995],[-122.27856099999998,37.104533999999994],[-122.27818600000001,37.104849000000009],[-122.277812,37.105163999999995],[-122.27706999999999,37.105099999999993],[-122.27670000000001,37.104979],[-122.27632999999999,37.104818000000002],[-122.275785,37.10485400000001],[-122.27551099999998,37.105069999999998],[-122.27533600000001,37.105307000000003],[-122.27493700000001,37.105561999999985],[-122.27456499999998,37.105640000000001],[-122.274415,37.105817000000002],[-122.274091,37.106053000000003],[-122.27406399999998,37.106290999999999],[-122.27448299999999,37.106471999999997],[-122.274902,37.106612999999996],[-122.275521,37.106675999999993],[-122.27591599999998,37.106699000000006],[-122.276358,37.107118],[-122.276529,37.107337000000001],[-122.27677399999999,37.107616],[-122.27709400000001,37.107855999999991],[-122.277415,37.107917000000008],[-122.27763599999999,37.108077000000002],[-122.27728700000002,37.108313000000003],[-122.27728500000001,37.108530999999999],[-122.27701199999998,37.108628000000003],[-122.27690699999998,37.108741000000002],[-122.27666999999998,37.108719999999984],[-122.27520800000001,37.108992000000001],[-122.27416100000002,37.108595999999991],[-122.27357399999998,37.108981999999997],[-122.273667,37.109449999999995],[-122.27403099999998,37.110044000000009],[-122.27400599999999,37.110636],[-122.273572,37.111271999999992],[-122.27311999999999,37.111736999999998],[-122.272368,37.111000000000004],[-122.27172299999999,37.111322999999999],[-122.27134200000002,37.112488999999997],[-122.27022800000002,37.112039999999979],[-122.27027200000001,37.111937000000005],[-122.27042299999999,37.111680999999997],[-122.27069700000001,37.111463999999991],[-122.27089700000001,37.111326999999996],[-122.271145,37.111209000000002],[-122.27120700000002,37.111178000000002],[-122.271294,37.111190000000008],[-122.27199,37.110858],[-122.271945,37.110441000000009],[-122.27182500000002,37.110082999999996],[-122.27148100000001,37.109783999999998],[-122.271261,37.109524999999991],[-122.27118899999999,37.109226999999997],[-122.271068,37.108909000000004],[-122.27069899999999,37.108688999999998],[-122.270752,37.108392000000002],[-122.27102700000002,37.108115999999995],[-122.27105399999999,37.107838000000001],[-122.271278,37.107660999999986],[-122.27140500000002,37.107385000000001],[-122.27140900000001,37.106928999999994],[-122.271635,37.10659299999999],[-122.27188700000001,37.106099],[-122.271839,37.105980000000002],[-122.271641,37.105998],[-122.27146599999999,37.106195],[-122.27124000000002,37.106471999999997],[-122.27113900000001,37.106669000000004],[-122.27101299999998,37.106945999999994],[-122.270813,37.107143000000001],[-122.27063800000001,37.107340000000001],[-122.270191,37.107455999999999],[-122.27002,37.107236999999998],[-122.270197,37.106881999999992],[-122.270545,37.106684999999999],[-122.27082000000001,37.106369999999991],[-122.270938,37.106163000000002],[-122.27103399999999,37.106161],[-122.27114799999998,37.105881999999987],[-122.27117800000001,37.105671000000008],[-122.27136099999998,37.105459999999994],[-122.271365,37.105102999999993],[-122.27110299999998,37.104767000000002],[-122.27100799999999,37.104598999999986],[-122.27106499999999,37.104420999999995],[-122.271164,37.104221000000003],[-122.27136000000002,37.104100000000003],[-122.271584,37.104067000000008],[-122.271807,37.103980000000014],[-122.27200300000001,37.103869000000003],[-122.27214400000001,37.103714000000004],[-122.27233999999999,37.103614999999998],[-122.27266099999999,37.103460999999996],[-122.272858,37.103316999999997],[-122.272831,37.103149000000002],[-122.27284700000001,37.102959999999996],[-122.27297299999999,37.102882999999999],[-122.27299699999999,37.102845999999992],[-122.2731,37.102682999999999],[-122.273281,37.102694999999997],[-122.27325200000001,37.102873000000002],[-122.27324899999999,37.102888999999998],[-122.27322199999999,37.103051999999991],[-122.27330499999999,37.103164000000007],[-122.273487,37.10307499999999],[-122.27354399999999,37.102919999999997],[-122.273563,37.102891000000007],[-122.27356799999998,37.102891000000007],[-122.273788,37.102718000000003],[-122.273984,37.10266699999999],[-122.27396400000001,37.102474999999998],[-122.27377,37.102317000000006],[-122.27386,37.101968999999997],[-122.274101,37.101796],[-122.274343,37.101535999999996],[-122.274389,37.101239999999997],[-122.27428200000001,37.101030999999992],[-122.27413300000001,37.100680999999994],[-122.27398199999999,37.100540999999993],[-122.27381,37.100347999999997],[-122.273616,37.100172999999998],[-122.27357499999999,37.099893999999992],[-122.27366399999998,37.099755000000002],[-122.27366499999999,37.099563000000003],[-122.27353599999999,37.099439999999994],[-122.273385,37.099283],[-122.273366,37.099037999999993],[-122.273368,37.098829000000002],[-122.27335600000001,37.098787000000002],[-122.27341200000001,37.098743000000006],[-122.27356700000001,37.098446999999993],[-122.27370000000001,37.098169000000006],[-122.273791,37.097786999999997],[-122.273816,37.097403],[-122.27425599999998,37.096952999999999],[-122.27444300000001,37.09680500000001],[-122.27596200000001,37.097248999999998],[-122.277556,37.09733700000001],[-122.27781400000001,37.096792999999998],[-122.27688800000001,37.095945999999991],[-122.27668199999998,37.095103999999992],[-122.275947,37.094079999999991],[-122.27592,37.093420999999999],[-122.275818,37.093389999999999],[-122.27604099999999,37.092652999999991],[-122.27570900000001,37.091878000000008],[-122.27571399999999,37.091319000000006],[-122.27520900000002,37.09061899999999],[-122.27519100000002,37.090099999999993],[-122.27505600000002,37.089415000000002],[-122.27410999999999,37.089443999999993],[-122.273743,37.089742999999991],[-122.27366600000002,37.090090999999994],[-122.27382300000001,37.090563000000003],[-122.27347100000001,37.090631000000009],[-122.27330900000001,37.091385000000002],[-122.27359499999999,37.091859000000007],[-122.273572,37.09247100000001],[-122.27336300000002,37.092469000000001],[-122.273037,37.092466999999999],[-122.27275400000001,37.092465999999995],[-122.27242200000001,37.092275999999998],[-122.272187,37.091974999999998],[-122.271918,37.09159300000001],[-122.27184399999999,37.091481999999992],[-122.27208999999999,37.091450999999992],[-122.27217799999998,37.091311999999995],[-122.272029,37.090927999999991],[-122.27159800000001,37.090593999999996],[-122.27136000000002,37.090401],[-122.27116700000001,37.090121000000003],[-122.270996,37.089840999999993],[-122.270674,37.089421000000002],[-122.270459,37.089157999999998],[-122.27033100000001,37.088825999999997],[-122.270528,37.088687999999998],[-122.27064000000001,37.088428],[-122.270555,37.08814799999999],[-122.27027399999999,37.087955000000001],[-122.270167,37.087762999999995],[-122.27002100000001,37.087169000000003],[-122.26984899999999,37.086906999999982],[-122.269679,37.086522000000009],[-122.26930900000002,37.08653799999999],[-122.26917899999998,37.086536999999979],[-122.26909600000002,37.086134999999992],[-122.26903299999999,37.085873999999997],[-122.26877300000001,37.085801999999994],[-122.268708,37.085696999999996],[-122.268666,37.085539999999995],[-122.26845100000001,37.085346999999999],[-122.26827900000002,37.085084999999999],[-122.268129,37.08484],[-122.26789100000001,37.084699000000008],[-122.267697,37.084575999999998],[-122.26769899999998,37.084350000000001],[-122.267549,37.084122000000008],[-122.26733399999999,37.083893999999994],[-122.267161,37.083718999999995],[-122.26701099999998,37.083491999999985],[-122.266751,37.083385000000007],[-122.2666,37.083280000000002],[-122.26616600000001,37.083155000000005],[-122.26613600000002,37.083154999999998],[-122.26600999999999,37.082848999999996],[-122.26638199999999,37.082674999999995],[-122.26631099999999,37.082274000000005],[-122.265805,37.082110999999998],[-122.26591700000002,37.081426999999998],[-122.265388,37.081330999999984],[-122.265265,37.081026999999999],[-122.26419100000001,37.080184999999993],[-122.26425000000002,37.079777999999976],[-122.26382400000001,37.079316999999996],[-122.263265,37.079146000000001],[-122.263132,37.078971000000003],[-122.262586,37.077581999999992],[-122.261751,37.076429999999995],[-122.260823,37.075896],[-122.25967900000001,37.075749000000002],[-122.259182,37.075800000000008],[-122.25908300000002,37.075775000000014],[-122.258757,37.075703999999995],[-122.258563,37.075597999999999],[-122.258346,37.07547499999999],[-122.258196,37.075298999999994],[-122.25817099999999,37.075195999999998],[-122.25856199999998,37.075108999999998],[-122.25900799999999,37.07478900000001],[-122.25888499999999,37.07444799999999],[-122.258515,37.074151999999998],[-122.258888,37.073846000000003],[-122.25829999999999,37.073394000000008],[-122.25787700000001,37.073478999999999],[-122.25796300000002,37.073411],[-122.25765699999999,37.073197999999998],[-122.257047,37.073644000000002],[-122.25693700000001,37.073503000000002],[-122.25670299999999,37.073174999999999],[-122.256507,37.073053000000002],[-122.256512,37.072982000000003],[-122.25655999999999,37.072763000000009],[-122.256287,37.072687999999999],[-122.25605999999999,37.072649999999996],[-122.256041,37.072265999999999],[-122.256293,37.072103000000006],[-122.25618000000001,37.071955999999993],[-122.255999,37.071826999999999],[-122.25554300000002,37.071842999999987],[-122.25544799999999,37.071866999999997],[-122.25533900000002,37.071012000000003],[-122.255323,37.070502000000005],[-122.25567299999999,37.069976999999987],[-122.255296,37.069651],[-122.25529299999999,37.069551000000004],[-122.25436600000002,37.068035999999999],[-122.25371199999999,37.067593000000009],[-122.25395299999998,37.067005999999999],[-122.254561,37.066355000000001],[-122.254302,37.065897999999997],[-122.25315000000002,37.066080999999983],[-122.25227,37.066497999999996],[-122.25219000000001,37.066586000000001],[-122.25173999999998,37.066291000000007],[-122.25081200000001,37.066320999999995],[-122.250924,37.065619999999996],[-122.25012099999999,37.064693999999989],[-122.24936799999999,37.063904999999998],[-122.24865299999999,37.062960000000004],[-122.248321,37.062297999999998],[-122.24797700000002,37.061343000000001],[-122.24697500000001,37.060903999999994],[-122.24623099999998,37.061437999999995],[-122.24636599999998,37.062069999999999],[-122.24697,37.062967],[-122.247798,37.063445000000009],[-122.248081,37.063971000000002],[-122.24754900000001,37.063795000000006],[-122.24667100000002,37.063695999999993],[-122.245977,37.063850000000002],[-122.24533899999999,37.063858000000003],[-122.24534,37.063757000000003],[-122.24484000000001,37.063552999999999],[-122.244407,37.063568000000004],[-122.24410999999999,37.063657999999997],[-122.24374700000001,37.063454999999998],[-122.243566,37.063271],[-122.243499,37.063123999999995],[-122.243548,37.062849999999997],[-122.243526,37.062685999999999],[-122.243551,37.062503],[-122.24393900000001,37.062488000000002],[-122.24400900000001,37.062341999999994],[-122.243827,37.062213000000014],[-122.24371499999998,37.062066000000002],[-122.24360299999999,37.061827999999998],[-122.243469,37.061625999999997],[-122.24320299999999,37.061377999999998],[-122.24321300000001,37.060859000000001],[-122.24263300000001,37.060031000000009],[-122.243662,37.059507000000004],[-122.24374999999999,37.05897199999999],[-122.24331799999999,37.058553000000003],[-122.242266,37.058493000000006],[-122.24289899999999,37.057909999999993],[-122.24270199999999,37.05736499999999],[-122.241713,37.057216999999994],[-122.24201199999999,37.056488000000009],[-122.24252,37.056080000000009],[-122.241692,37.055602],[-122.240194,37.055861999999991],[-122.238398,37.05633499999999],[-122.23837300000001,37.056526999999996],[-122.238276,37.056550000000001],[-122.23795699999999,37.056474999999992],[-122.237844,37.056436999999995],[-122.237728,37.056601000000001],[-122.23756800000001,37.056617999999993],[-122.237498,37.056837000000002],[-122.23738200000001,37.057037000000001],[-122.237201,37.056907999999993],[-122.237134,37.05674299999999],[-122.23711200000001,37.056614999999994],[-122.236929,37.056760000000004],[-122.23674500000001,37.056868999999999],[-122.236678,37.056722000000001],[-122.23661199999999,37.056502000000002],[-122.23666,37.056301999999988],[-122.23679900000002,37.056083000000001],[-122.23702800000001,37.055956999999992],[-122.237212,37.05581200000001],[-122.23742,37.055484],[-122.23742300000002,37.055228999999997],[-122.23742399999999,37.055064000000002],[-122.23735799999999,37.054845],[-122.23738299999998,37.054662000000008],[-122.237521,37.054516999999997],[-122.23738499999999,37.054388000000003],[-122.23718100000001,37.054332000000002],[-122.236884,37.054385000000003],[-122.23656500000001,37.054383000000001],[-122.236221,37.054582000000003],[-122.23603700000001,37.054762999999994],[-122.23585399999999,37.054798000000005],[-122.23571899999999,37.054633000000003],[-122.23574299999999,37.054450999999993],[-122.23584200000001,37.054333999999997],[-122.23624699999999,37.054288999999997],[-122.236363,37.054033999999994],[-122.23654700000002,37.053888999999991],[-122.23652800000001,37.053524000000003],[-122.23653200000001,37.053139999999999],[-122.23637599999999,37.052773999999992],[-122.23608200000001,37.052553000000003],[-122.23526500000001,37.052163999999991],[-122.23463,37.051867000000001],[-122.234587,37.051556000000005],[-122.23483900000001,37.051429999999996],[-122.23497700000001,37.051285],[-122.23509300000002,37.051121000000002],[-122.23514,37.050956999999997],[-122.235006,37.050736999999998],[-122.234825,37.050552999999987],[-122.234645,37.050313999999993],[-122.23444200000002,37.050148],[-122.23442400000002,37.050138999999994],[-122.23457999999999,37.049897000000009],[-122.23485400000001,37.049099999999996],[-122.23403799999998,37.048912999999992],[-122.23313000000002,37.049337999999999],[-122.23310499999999,37.049280999999986],[-122.23310900000001,37.048896999999997],[-122.23325,37.048478000000003],[-122.23350499999999,37.048059000000002],[-122.233712,37.04791500000001],[-122.23375900000001,37.047750999999991],[-122.23360099999999,37.047567000000001],[-122.233306,37.047510000000003],[-122.23300999999999,37.047490000000003],[-122.23280200000001,37.047689999999996],[-122.23262200000002,37.047505999999991],[-122.23239500000001,37.047357999999996],[-122.23207600000002,37.047374000000005],[-122.231897,37.047098999999996],[-122.23167099999999,37.046860000000009],[-122.23151300000001,37.046748999999998],[-122.23124,37.046655999999992],[-122.23124200000001,37.046492000000001],[-122.231289,37.046290999999989],[-122.23138299999999,37.046036000000001],[-122.23143,37.04589],[-122.231318,37.045724999999997],[-122.23115900000001,37.045614000000008],[-122.23098000000002,37.045527],[-122.23158499999998,37.044969999999992],[-122.230901,37.044990000000006],[-122.22984800000002,37.044895000000004],[-122.229271,37.044457999999999],[-122.22894100000002,37.043541999999995],[-122.228769,37.042732000000008],[-122.22943600000001,37.042254],[-122.22950600000001,37.042196000000004],[-122.22951,37.042116],[-122.22924299999998,37.040855000000008],[-122.22834199999998,37.041443000000001],[-122.227968,37.041550000000008],[-122.22753299999999,37.041558000000009],[-122.226707,37.042518000000001],[-122.225656,37.042946999999998],[-122.227205,37.043617999999995],[-122.227238,37.04389299999999],[-122.22677999999999,37.044980000000002],[-122.22675300000002,37.04563499999999],[-122.226377,37.046348999999992],[-122.22639299999999,37.046692999999998],[-122.22598600000001,37.046785999999983],[-122.225719,37.047136999999999],[-122.225758,37.047629999999991],[-122.226782,37.047939999999997],[-122.22686399999999,37.048144000000001],[-122.22771399999999,37.048662999999991],[-122.22729,37.050218000000008],[-122.227394,37.051433999999993],[-122.22752499999999,37.051948999999993],[-122.227728,37.052177000000007],[-122.22767399999999,37.052205999999998],[-122.227671,37.05248000000001],[-122.22771399999999,37.052754],[-122.22753,37.052898999999989],[-122.227481,37.053173000000008],[-122.227593,37.053356000000001],[-122.227752,37.053502999999999],[-122.22772500000002,37.053869000000006],[-122.22792699999999,37.054161999999991],[-122.227788,37.054416999999994],[-122.22755799999999,37.054597999999984],[-122.227509,37.054945000000004],[-122.22753899999999,37.05497299999999],[-122.227233,37.055653999999997],[-122.227143,37.056240000000003],[-122.22754599999999,37.056571999999996],[-122.227514,37.056717999999996],[-122.227374,37.057026999999998],[-122.227508,37.057302000000007],[-122.227598,37.057383999999992],[-122.22680499999998,37.05852800000001],[-122.226001,37.059025999999996],[-122.22594200000002,37.058862999999995],[-122.22576000000001,37.058771],[-122.22555599999998,37.058732999999997],[-122.225373,37.058731999999999],[-122.22537599999998,37.058458000000002],[-122.22553799999999,37.058202999999999],[-122.22563100000001,37.058002999999992],[-122.225497,37.057782000000003],[-122.225364,37.057433999999994],[-122.22525200000001,37.057232999999997],[-122.22507200000001,37.056994000000003],[-122.225166,37.056702000000001],[-122.22512500000002,37.056424],[-122.225191,37.056427999999997],[-122.22526400000001,37.056063000000002],[-122.22538100000001,37.055680999999986],[-122.22556700000001,37.055352999999982],[-122.22572999999998,37.055079999999997],[-122.22607199999999,37.055027000000003],[-122.22630100000001,37.054882999999997],[-122.226349,37.054644999999994],[-122.22630700000001,37.054352999999999],[-122.22614900000002,37.05415099999999],[-122.226061,37.053894],[-122.22590300000002,37.053691999999998],[-122.22572100000001,37.053673000000003],[-122.22567200000002,37.053964999999998],[-122.225692,37.054276000000009],[-122.22535000000001,37.054273000000002],[-122.22505399999999,37.05425300000001],[-122.22469,37.054178],[-122.224464,37.054011999999993],[-122.224259,37.053955999999992],[-122.22394000000001,37.053935000000003],[-122.22359899999998,37.053897000000006],[-122.223347,37.054004999999997],[-122.223074,37.053966000000003],[-122.222849,37.053635999999997],[-122.222807,37.053252000000001],[-122.222992,37.053033999999997],[-122.22320000000001,37.052743000000007],[-122.22345300000002,37.05254399999999],[-122.22372799999998,37.052398999999987],[-122.22397900000001,37.052383000000006],[-122.22446000000001,37.052166],[-122.224645,37.051874999999995],[-122.224807,37.051675000000003],[-122.225013,37.051567000000006],[-122.225218,37.051622999999999],[-122.225328,37.05195299999999],[-122.22539300000001,37.052263999999994],[-122.22547999999999,37.052684999999997],[-122.22566000000002,37.052923],[-122.22577499999998,37.052850999999997],[-122.22591300000001,37.052724000000005],[-122.22582599999998,37.052339999999994],[-122.225668,37.052120000000002],[-122.22564799999999,37.051918000000001],[-122.22569600000001,37.051625999999999],[-122.225493,37.051406],[-122.22551899999999,37.051113999999998],[-122.22545300000002,37.05091199999999],[-122.22520399999999,37.050745999999982],[-122.22502299999999,37.050617000000003],[-122.22493299999999,37.050469999999997],[-122.22461599999998,37.050266999999991],[-122.224367,37.050101000000005],[-122.223822,37.049878],[-122.22370899999999,37.049749999999996],[-122.223575,37.049548000000001],[-122.22323299999999,37.049545999999999],[-122.223164,37.049617999999995],[-122.22320700000002,37.049800999999995],[-122.22316000000001,37.049965],[-122.222977,37.050074000000002],[-122.22277099999999,37.050163999999995],[-122.22247299999998,37.050252999999998],[-122.222269,37.05019699999999],[-122.22222499999999,37.049978000000003],[-122.22231800000002,37.04979500000001],[-122.22248000000002,37.049632000000003],[-122.22273199999999,37.049506000000001],[-122.222893,37.049305999999994],[-122.22278100000001,37.049140999999999],[-122.22246199999999,37.049156999999994],[-122.22218700000001,37.049265000000005],[-122.222071,37.049427999999992],[-122.221819,37.049591000000007],[-122.22161299999999,37.049645000000005],[-122.221294,37.049642999999996],[-122.221318,37.049497000000009],[-122.22145699999999,37.049370000000003],[-122.22148100000001,37.049168999999999],[-122.221507,37.048895000000002],[-122.22171499999999,37.048640000000006],[-122.222104,37.048442000000001],[-122.222083,37.048259000000002],[-122.22192500000001,37.048093999999999],[-122.22192699999999,37.047966000000002],[-122.222066,37.047766000000003],[-122.22218100000001,37.047584000000008],[-122.22218399999998,37.047327999999986],[-122.22211800000001,37.047127000000003],[-122.22191300000001,37.047088999999993],[-122.221548,37.047105000000002],[-122.221366,37.047102999999993],[-122.22123100000002,37.04692],[-122.22100400000001,37.046789999999994],[-122.22077599999999,37.04678899999999],[-122.22047200000002,37.046850999999997],[-122.22058699999998,37.046171000000008],[-122.22082899999999,37.045284000000009],[-122.22179199999999,37.044262000000003],[-122.22008599999998,37.043815000000009],[-122.219374,37.044048000000004],[-122.21768599999999,37.044598999999998],[-122.21736300000001,37.044288999999999],[-122.21710400000001,37.044077999999985],[-122.21692099999999,37.044002999999996],[-122.21675499999999,37.043623999999994],[-122.21632000000001,37.04360599999999],[-122.21700400000002,37.042692999999993],[-122.217513,37.04228599999999],[-122.21863999999999,37.042035000000013],[-122.21961600000002,37.04240699999999],[-122.220643,37.042399000000003],[-122.22217999999999,37.041467000000004],[-122.223866,37.040428999999996],[-122.224563,37.039243999999997],[-122.22430699999998,37.037754],[-122.223035,37.037080999999993],[-122.221513,37.037271999999994],[-122.21981499999998,37.038018000000001],[-122.217933,37.038511],[-122.21696799999999,37.03843100000001],[-122.21442999999999,37.038923000000004],[-122.212436,37.039366999999999],[-122.211986,37.03969],[-122.21128200000001,37.03947800000001],[-122.21021500000002,37.039886000000003],[-122.209214,37.041338000000003],[-122.208834,37.041840000000001],[-122.20851500000001,37.042585000000003],[-122.208164,37.042881000000001],[-122.20762000000001,37.042738000000007],[-122.20702,37.042581000000006],[-122.20659199999999,37.042897999999987],[-122.20648100000001,37.042927999999996],[-122.20562099999999,37.042102],[-122.20471499999999,37.042147999999997],[-122.20470000000002,37.042084000000003],[-122.20360599999999,37.041678000000005],[-122.20359299999998,37.041387000000007],[-122.20349600000002,37.041114],[-122.20333699999999,37.040951999999997],[-122.20283900000001,37.040707999999995],[-122.20264400000001,37.040559999999999],[-122.202703,37.040100000000002],[-122.204252,37.039158000000008],[-122.204453,37.039236000000002],[-122.20504600000001,37.039340000000003],[-122.20520500000001,37.03916499999999],[-122.20495699999999,37.038913000000001],[-122.204774,37.038803999999999],[-122.20517500000001,37.038699999999999],[-122.20567200000002,37.038001000000008],[-122.205675,37.037881999999996],[-122.20470299999999,37.037628999999988],[-122.20362599999999,37.037633],[-122.20292499999999,37.036516999999996],[-122.20253200000002,37.035426999999991],[-122.202521,37.034063000000003],[-122.20219699999998,37.033723000000009],[-122.202213,37.033707],[-122.20251700000001,37.032885999999984],[-122.202051,37.032423999999999],[-122.20077599999999,37.032378000000001],[-122.20056700000001,37.032729000000003],[-122.199859,37.032835999999996],[-122.19979700000002,37.032607000000006],[-122.19964299999999,37.032355000000003],[-122.19955399999999,37.031952999999994],[-122.19924399999999,37.031745999999998],[-122.20024600000001,37.031638999999984],[-122.20009199999998,37.031232000000003],[-122.19956500000002,37.030957999999998],[-122.198357,37.030881000000008],[-122.19771000000001,37.03051099999999],[-122.19758899999999,37.030442000000001],[-122.198165,37.030087000000002],[-122.19851300000001,37.029738000000002],[-122.19883000000002,37.029364000000001],[-122.19874099999998,37.028937000000006],[-122.198273,37.028783000000004],[-122.197712,37.028554000000007],[-122.19686799999998,37.028472999999998],[-122.196721,37.028568999999997],[-122.19711900000001,37.027757000000001],[-122.19683699999999,37.027230999999993],[-122.19589499999998,37.027734999999993],[-122.194902,37.028618000000002],[-122.19433100000001,37.029113000000002],[-122.19435700000001,37.029563000000003],[-122.193427,37.02959899999999],[-122.19296199999998,37.030146999999999],[-122.19296399999999,37.030016999999987],[-122.192404,37.030200999999991],[-122.19229999999999,37.029712000000011],[-122.19234,37.029040999999999],[-122.19183599999998,37.027900999999993],[-122.19141799999998,37.027258000000003],[-122.19066400000001,37.026983999999999],[-122.189762,37.026817000000008],[-122.18924199999998,37.026931999999995],[-122.18962200000001,37.027731000000003],[-122.19043600000001,37.028433],[-122.19099199999998,37.028677999999992],[-122.19157100000001,37.029505999999991],[-122.191002,37.029485000000001],[-122.190186,37.029298999999995],[-122.18933199999998,37.029267999999995],[-122.188417,37.029323999999995],[-122.187488,37.029603999999999],[-122.18742399999999,37.029781],[-122.18565899999999,37.029592000000001],[-122.18557,37.030211999999999],[-122.18509899999999,37.029927999999991],[-122.18361700000001,37.030304999999998],[-122.18265399999999,37.031461000000007],[-122.181588,37.032829],[-122.180539,37.033909999999992],[-122.179427,37.03481699999999],[-122.17945500000002,37.034880000000001],[-122.17906299999999,37.035026999999999],[-122.17885599999998,37.035716999999991],[-122.17903599999998,37.036472999999994],[-122.17872299999999,37.036435000000004],[-122.17849799999999,37.036899999999996],[-122.17817999999998,37.037086999999993],[-122.17789,37.03770699999999],[-122.17769600000001,37.037899999999986],[-122.17714099999999,37.038249],[-122.17693800000001,37.038652999999989],[-122.175577,37.040044000000002],[-122.17502100000002,37.041947999999984],[-122.17547399999999,37.04265199999999],[-122.17604,37.04314500000001],[-122.17659700000002,37.044186999999994],[-122.1768,37.043807000000008],[-122.17711399999999,37.044079999999994],[-122.17732599999999,37.044227000000014],[-122.17689900000001,37.045864999999992],[-122.17634700000002,37.046491000000003],[-122.17616599999998,37.046345999999993]]]},"properties":{"FID":0,"EVENT_ID":"CA3726212222320200816","IRWINID":"947FBFB1-EBEA-452F-9AD5-E4FC38C05068","INCID_NAME":"CZU AUG LIGHTNING","INCID_TYPE":"Wildfire","MAP_ID":10021177,"MAP_PROG":"MTBS","ASMNT_TYPE":"Extended","BURNBNDAC":85839,"BURNBNDLAT":"37.258","BURNBNDLON":"-122.218","IG_DATE":1597536000000,"PRE_ID":"804403420200724","POST_ID":"804403420210711","PERIM_ID":" ","DNBR_OFFST":50,"DNBR_STDDV":24,"NODATA_T":-970,"INCGREEN_T":-150,"LOW_T":80,"MOD_T":354,"HIGH_T":655,"COMMENT":" "}}]}