{"type":"FeatureCollection","features":[{"type":"Feature","id":1,"geometry":{"type":"Polygon","coordinates":[[[-122.14423826791061,37.156754327788832],[-122.14477716420382,37.108888253560806],[-122.12837383239038,37.108768798155189],[-122.1119705982251,37.108647073854911],[-122.09556746354461,37.108523080702469],[-122.0791644301854,37.108396818741156],[-122.07858420348964,37.156262044471788],[-122.09499756907776,37.156388524432373],[-122.11141103623807,37.15651273166754],[-122.12782460312938,37.156634666133904],[-122.14423826791061,37.156754327788832]]]},"properties":{"OBJECTID":1,"Shape_Length":22282.001600001007,"Shape_Area":30962953.515420638}}]}