{"type":"FeatureCollection","features":[{"type":"Feature","id":0,"geometry":{"type":"Polygon","coordinates":[[[-113.89483299998842,35.084462000000158],[-113.89478899998842,35.084455000000148],[-113.89415699998847,35.084319000000157],[-113.89397099998844,35.084255000000148],[-113.89352199998847,35.084108000000164],[-113.89340599998846,35.084068000000165],[-113.89330299998846,35.084031000000152],[-113.89319899998847,35.083990000000135],[-113.89310499998848,35.083950000000151],[-113.89301899998847,35.083910000000152],[-113.89293999998847,35.083869000000149],[-113.89286399998848,35.083825000000139],[-113.89279399998848,35.083779000000142],[-113.89273199998848,35.083732000000147],[-113.89267599998848,35.083684000000154],[-113.89262599998848,35.08363400000016],[-113.89258399998849,35.083582000000149],[-113.89254699998848,35.083528000000136],[-113.89251699998849,35.08347300000014],[-113.89243099998849,35.083287000000148],[-113.89237499998849,35.08321400000014],[-113.89232499998849,35.083141000000154],[-113.89227799998849,35.083067000000149],[-113.8922359999885,35.082992000000147],[-113.89219899998851,35.082916000000139],[-113.8921669999885,35.082840000000147],[-113.89213899998849,35.082762000000152],[-113.89211499998851,35.082684000000143],[-113.89209799998849,35.082613000000137],[-113.8920839999885,35.082541000000141],[-113.89207499998851,35.082468000000148],[-113.8920689999885,35.08239500000014],[-113.8920659999885,35.08232100000015],[-113.8920679999885,35.082246000000147],[-113.89207299998849,35.082171000000152],[-113.89208099998851,35.082095000000152],[-113.8921069999885,35.082043000000155],[-113.8921409999885,35.08199000000014],[-113.89309499998848,35.08180300000015],[-113.89335299998847,35.081752000000158],[-113.89397999998845,35.081629000000142],[-113.89393999998846,35.08142400000014],[-113.89392699998845,35.081337000000154],[-113.89392299998845,35.081291000000164],[-113.89392199998845,35.081249000000149],[-113.89392399998844,35.081210000000155],[-113.89392999998844,35.081174000000146],[-113.89394899998845,35.081101000000153],[-113.89397899998845,35.081021000000149],[-113.89401499998844,35.080940000000155],[-113.89412199998846,35.080726000000155],[-113.89414899998845,35.080661000000141],[-113.89416999998843,35.080603000000153],[-113.89419099998844,35.08053200000014],[-113.89420899998844,35.080460000000159],[-113.89422399998843,35.080386000000154],[-113.89423699998844,35.080312000000148],[-113.89424699998843,35.080237000000146],[-113.89425499998845,35.080160000000163],[-113.89425899998844,35.080083000000158],[-113.89426099998843,35.080004000000152],[-113.89426099998843,35.07992400000014],[-113.89425799998843,35.079842000000141],[-113.89425199998843,35.079760000000157],[-113.89424299998845,35.079676000000141],[-113.89423199998843,35.079590000000152],[-113.89421799998844,35.079504000000149],[-113.89420199998845,35.079415000000139],[-113.89418199998843,35.079325000000146],[-113.89413799998844,35.079148000000153],[-113.89408399998845,35.078963000000158],[-113.89401899998845,35.078770000000134],[-113.89394199998844,35.07856500000014],[-113.89385799998846,35.078359000000148],[-113.89376099998844,35.078132000000153],[-113.89365199998846,35.077892000000141],[-113.89346399998846,35.077486000000157],[-113.89342899998846,35.077405000000148],[-113.89333999998846,35.077192000000146],[-113.89328499998847,35.077077000000152],[-113.89325199998846,35.077016000000143],[-113.89321799998847,35.076961000000161],[-113.89318299998847,35.076912000000156],[-113.89314499998848,35.076866000000152],[-113.89310899998847,35.076828000000141],[-113.89306699998848,35.076791000000156],[-113.89301899998847,35.076755000000141],[-113.89296499998848,35.076719000000139],[-113.89291099998847,35.076686000000144],[-113.89284799998848,35.07665100000014],[-113.89260899998848,35.076527000000148],[-113.89251199998849,35.076473000000142],[-113.89246199998847,35.07644300000014],[-113.89241699998847,35.076413000000144],[-113.89237599998847,35.076384000000139],[-113.89233999998849,35.076354000000151],[-113.8922939999885,35.076313000000148],[-113.89224899998851,35.076268000000155],[-113.89220499998851,35.076219000000165],[-113.89216099998849,35.076166000000143],[-113.8921169999885,35.076107000000142],[-113.89206999998851,35.076042000000164],[-113.89189299998849,35.07577200000015],[-113.8918129999885,35.075658000000153],[-113.89176599998851,35.075598000000134],[-113.89171999998852,35.075543000000152],[-113.89167299998851,35.075494000000148],[-113.89162599998852,35.075448000000158],[-113.89155199998852,35.075384000000149],[-113.89147199998851,35.075320000000147],[-113.89138499998852,35.075255000000141],[-113.89128999998853,35.075188000000161],[-113.89118999998853,35.075121000000152],[-113.89107899998852,35.075049000000135],[-113.89077699998853,35.074865000000166],[-113.89058599998855,35.074754000000148],[-113.89039399998856,35.074647000000148],[-113.89019999998854,35.074545000000143],[-113.89000499998856,35.074449000000151],[-113.88980899998856,35.074358000000146],[-113.88961199998857,35.074273000000133],[-113.88941599998857,35.07419300000015],[-113.88921999998857,35.07412000000015],[-113.88911499998858,35.074084000000148],[-113.88900399998859,35.074050000000142],[-113.88888599998859,35.074017000000161],[-113.88663199998865,35.073310000000134],[-113.88639799998865,35.073145000000146],[-113.88520499998869,35.072789000000135],[-113.88499699998869,35.072727000000143],[-113.88442899998871,35.072578000000156],[-113.88398699998872,35.072088000000143],[-113.88358899998873,35.072005000000132],[-113.88344899998874,35.071986000000152],[-113.88331199998875,35.071963000000146],[-113.88317499998874,35.071937000000148],[-113.88303999998875,35.071906000000141],[-113.88290699998876,35.071872000000141],[-113.88276899998876,35.071832000000136],[-113.88263199998876,35.071788000000147],[-113.88249599998876,35.07174000000014],[-113.88236299998876,35.071688000000151],[-113.88223099998878,35.071631000000139],[-113.88210099998878,35.071570000000143],[-113.88197299998878,35.071505000000144],[-113.87917399998886,35.071662000000138],[-113.87896799998886,35.071709000000141],[-113.87885899998888,35.071731000000142],[-113.87875799998886,35.071750000000144],[-113.87866199998886,35.071766000000139],[-113.87857099998887,35.071780000000139],[-113.87846499998886,35.071792000000137],[-113.87788199998889,35.071784000000136],[-113.87654299998891,35.071572000000153],[-113.87648899998894,35.071480000000143],[-113.87642799998893,35.071392000000138],[-113.87641099998893,35.071369000000146],[-113.87634199998892,35.071285000000152],[-113.87626599998895,35.071204000000144],[-113.87618399998894,35.071126000000142],[-113.87609799998894,35.071053000000127],[-113.87600799998894,35.070986000000154],[-113.87591499998895,35.070926000000135],[-113.87581999998895,35.070872000000136],[-113.87572499998895,35.070826000000146],[-113.87571599998894,35.070822000000142],[-113.87563099998894,35.070787000000138],[-113.87554199998895,35.07075500000014],[-113.87544999998896,35.070727000000133],[-113.87535699998894,35.070703000000137],[-113.87526499998896,35.070683000000137],[-113.87517399998896,35.07066800000014],[-113.87508599998895,35.070658000000144],[-113.87500099998896,35.070652000000145],[-113.87492399998897,35.07065100000014],[-113.87484899998897,35.070653000000142],[-113.87477399998897,35.070657000000139],[-113.87469699998897,35.070664000000143],[-113.87462199998897,35.070674000000146],[-113.87454699998898,35.070686000000144],[-113.87447399998899,35.070700000000137],[-113.87440299998899,35.070717000000151],[-113.87433399998898,35.070736000000132],[-113.87426899998898,35.07075700000015],[-113.87420699998897,35.070780000000141],[-113.87414799998899,35.070805000000142],[-113.87409199998899,35.070832000000145],[-113.87403999998899,35.070861000000143],[-113.873992999989,35.070891000000152],[-113.87394899998898,35.070923000000136],[-113.873908999989,35.070956000000145],[-113.87386699998899,35.070995000000138],[-113.87382799998899,35.071037000000146],[-113.873779999989,35.071095000000135],[-113.87373599998898,35.071157000000149],[-113.873986999989,35.072248000000137],[-113.87430699998897,35.072681000000152],[-113.87453999998898,35.073665000000148],[-113.87462499998898,35.074020000000139],[-113.87462899998899,35.074075000000143],[-113.87462999998898,35.074129000000127],[-113.87462899998899,35.074181000000145],[-113.87462399998898,35.074233000000156],[-113.87461699998899,35.074283000000143],[-113.87460599998897,35.07433200000014],[-113.87459299998899,35.074379000000135],[-113.87457699998899,35.074426000000138],[-113.87455799998898,35.074471000000138],[-113.87453599998899,35.074516000000138],[-113.87444299998899,35.074687000000139],[-113.87437199998898,35.074809000000144],[-113.87430399998898,35.074918000000139],[-113.874235999989,35.075014000000159],[-113.87416399998898,35.07510200000015],[-113.87409099998901,35.07518100000015],[-113.874052999989,35.075217000000144],[-113.874014999989,35.075251000000158],[-113.873975999989,35.075282000000151],[-113.87393699998898,35.075311000000134],[-113.873891999989,35.075341000000144],[-113.87384399998901,35.075370000000142],[-113.873790999989,35.075400000000137],[-113.873732999989,35.075430000000132],[-113.87360399998902,35.075490000000158],[-113.87341999998901,35.075569000000144],[-113.87334899998901,35.075596000000139],[-113.87327099998902,35.075619000000145],[-113.87318799998901,35.075639000000137],[-113.87309899998901,35.07565500000014],[-113.87209099998904,35.075860000000134],[-113.87107899998907,35.075987000000133],[-113.87036599998909,35.076122000000126],[-113.87058299998908,35.07755000000013],[-113.87058099998907,35.077567000000144],[-113.87056499998909,35.077685000000137],[-113.87054499998909,35.077806000000145],[-113.87052199998908,35.077928000000149],[-113.87049499998908,35.078054000000137],[-113.8704639999891,35.078185000000147],[-113.8704289999891,35.07832300000014],[-113.8703899999891,35.078465000000129],[-113.8703449999891,35.078618000000134],[-113.87022899998908,35.078993000000146],[-113.8701979999891,35.079095000000144],[-113.8701659999891,35.079211000000136],[-113.87014299998908,35.079299000000141],[-113.86967799998909,35.079554000000137],[-113.86961599998911,35.079891000000138],[-113.86957699998912,35.080761000000152],[-113.86950899998912,35.080837000000137],[-113.86943599998912,35.080906000000148],[-113.86939799998912,35.080938000000145],[-113.86935899998912,35.080968000000126],[-113.86931899998913,35.080997000000139],[-113.86927799998912,35.081024000000141],[-113.86923299998912,35.081049000000142],[-113.86918199998912,35.081073000000153],[-113.86912499998913,35.081096000000137],[-113.86906099998914,35.081117000000134],[-113.86880099998915,35.081183000000138],[-113.86854299998915,35.081249000000142],[-113.86785999998915,35.08144400000014],[-113.86753399998918,35.081538000000137],[-113.86814799998916,35.08309700000013],[-113.86820399998916,35.083108000000152],[-113.86825799998914,35.083121000000141],[-113.86831099998915,35.083136000000138],[-113.86836099998915,35.083153000000145],[-113.86840799998915,35.083171000000135],[-113.86845399998914,35.083191000000134],[-113.86849799998915,35.083214000000133],[-113.86853899998914,35.083238000000136],[-113.86856099998914,35.083252000000137],[-113.86860099998916,35.083281000000142],[-113.86863799998915,35.083316000000146],[-113.86867399998914,35.083356000000137],[-113.86870899998914,35.083403000000125],[-113.86873799998914,35.083448000000125],[-113.86876899998914,35.08350000000015],[-113.86887999998913,35.083712000000141],[-113.86888099998914,35.08371400000015],[-113.86888399998912,35.083719000000137],[-113.86892499998913,35.083795000000151],[-113.86896399998913,35.083872000000127],[-113.86899999998914,35.083950000000144],[-113.86903399998913,35.084029000000143],[-113.86906499998913,35.08410800000015],[-113.86909299998914,35.084188000000132],[-113.86911899998913,35.084269000000134],[-113.86914199998913,35.084351000000133],[-113.86916299998913,35.084434000000137],[-113.86918099998911,35.084517000000126],[-113.86919699998911,35.084601000000141],[-113.86920999998912,35.084686000000147],[-113.86921999998911,35.084772000000143],[-113.86922799998912,35.084858000000139],[-113.86923399998912,35.08494600000013],[-113.86923599998912,35.085034000000142],[-113.86982199998911,35.085950000000132],[-113.86985899998912,35.085989000000133],[-113.86988999998911,35.086028000000134],[-113.86991499998912,35.086066000000137],[-113.86993499998911,35.086104000000141],[-113.86994899998912,35.086141000000147],[-113.8699569999891,35.086177000000134],[-113.86995999998912,35.086213000000136],[-113.8699569999891,35.086248000000133],[-113.86994799998911,35.08628000000013],[-113.86993299998912,35.086315000000134],[-113.8699099999891,35.086351000000121],[-113.86988199998912,35.086387000000144],[-113.8698479999891,35.086423000000138],[-113.86980999998912,35.086455000000143],[-113.86977099998911,35.086484000000148],[-113.86973199998911,35.086507000000132],[-113.86969999998911,35.086521000000133],[-113.86966399998911,35.086532000000133],[-113.86962299998912,35.086541000000132],[-113.86957699998914,35.086547000000138],[-113.86952899998911,35.086551000000142],[-113.86947399998911,35.086553000000137],[-113.86930499998913,35.086552000000125],[-113.86924799998913,35.08654900000014],[-113.86918899998912,35.086541000000139],[-113.86912699998915,35.086527000000125],[-113.86906099998914,35.086508000000137],[-113.86900499998913,35.086489000000135],[-113.86894199998913,35.086465000000146],[-113.86867199998915,35.086351000000128],[-113.86860499998916,35.086327000000132],[-113.86854499998914,35.086308000000145],[-113.86848999998915,35.086294000000137],[-113.86843699998916,35.086284000000141],[-113.86838599998916,35.086278000000135],[-113.86833699998914,35.086276000000133],[-113.86823399998914,35.086277000000152],[-113.86814999998916,35.086280000000137],[-113.86807599998916,35.08628600000015],[-113.86800899998916,35.086294000000144],[-113.86794699998916,35.086305000000131],[-113.86789099998916,35.086319000000138],[-113.86784099998916,35.086336000000145],[-113.86779699998915,35.086356000000151],[-113.86776299998915,35.086376000000143],[-113.86772999998917,35.08640000000014],[-113.86769599998918,35.086428000000133],[-113.86766299998916,35.086460000000145],[-113.86762999998918,35.086496000000139],[-113.86759599998919,35.086537000000135],[-113.86751099998916,35.086651000000145],[-113.86747999998917,35.086697000000143],[-113.86745299998917,35.08674600000014],[-113.86742899998917,35.086797000000139],[-113.86740899998917,35.086851000000138],[-113.86739199998917,35.086908000000136],[-113.86737899998917,35.086968000000134],[-113.86736999998917,35.087031000000138],[-113.86736299998917,35.087097000000135],[-113.86735999998918,35.08715700000014],[-113.86735999998918,35.087220000000144],[-113.86736599998918,35.087359000000134],[-113.86737799998917,35.087493000000137],[-113.86759899998917,35.088533000000133],[-113.86765999998917,35.088821000000152],[-113.86765999998917,35.088864000000129],[-113.86765699998917,35.088905000000146],[-113.86764999998917,35.088944000000133],[-113.86763999998917,35.088982000000136],[-113.86762699998917,35.089019000000128],[-113.86760999998917,35.089054000000139],[-113.86759699998917,35.089077000000138],[-113.86757699998917,35.089101000000142],[-113.86749299998917,35.089189000000147],[-113.86752699998917,35.089285000000139],[-113.86767699998917,35.089716000000131],[-113.86812399998917,35.089867000000147],[-113.86817899998917,35.089889000000142],[-113.86823299998916,35.089908000000143],[-113.86828799998916,35.089925000000136],[-113.86834199998914,35.089940000000134],[-113.86839499998915,35.089953000000143],[-113.86844699998916,35.089963000000132],[-113.86852799998914,35.089974000000133],[-113.86861399998914,35.089980000000139],[-113.86870799998914,35.089979000000142],[-113.86880899998913,35.089973000000143],[-113.86891199998914,35.089962000000142],[-113.86902799998913,35.089945000000142],[-113.86915099998915,35.089924000000138],[-113.86935599998912,35.089885000000145],[-113.86946799998913,35.089860000000144],[-113.86968099998911,35.089811000000132],[-113.8702849999891,35.088974000000142],[-113.87075199998908,35.088592000000133],[-113.87081699998909,35.088530000000141],[-113.87088299998909,35.088473000000135],[-113.87095199998909,35.088419000000137],[-113.87102299998907,35.088369000000135],[-113.87109599998907,35.088323000000145],[-113.87117199998907,35.088281000000151],[-113.87124999998908,35.088243000000141],[-113.87132999998907,35.088209000000134],[-113.87142599998907,35.088174000000151],[-113.87152899998907,35.088145000000132],[-113.87163699998906,35.088120000000139],[-113.87174899998905,35.088100000000146],[-113.87186199998905,35.088086000000132],[-113.87197599998906,35.088078000000138],[-113.87208899998905,35.088077000000133],[-113.87219899998904,35.088081000000152],[-113.87231399998905,35.088091000000141],[-113.87242499998905,35.08810700000015],[-113.87252799998903,35.088127000000142],[-113.87262199998905,35.088153000000148],[-113.87269699998903,35.088179000000146],[-113.87277199998903,35.088213000000152],[-113.87284799998903,35.088253000000137],[-113.87292599998904,35.088302000000141],[-113.87300299998901,35.088355000000149],[-113.87308499998902,35.088419000000144],[-113.87317199998903,35.088490000000149],[-113.87329899998903,35.088601000000139],[-113.87364899998902,35.089270000000155],[-113.87410799998901,35.089634000000139],[-113.874268999989,35.089762000000142],[-113.87433899998901,35.089782000000149],[-113.874407999989,35.089800000000139],[-113.87447599998899,35.089815000000137],[-113.87454299998899,35.089828000000139],[-113.87461099998899,35.089839000000133],[-113.87468099998898,35.089849000000136],[-113.87475399998898,35.089856000000132],[-113.87482999998899,35.089861000000141],[-113.87490799998899,35.08986500000016],[-113.87498999998897,35.08986600000015],[-113.87507499998897,35.089866000000157],[-113.87516399998897,35.089864000000141],[-113.87532399998898,35.089857000000137],[-113.87550399998896,35.089844000000141],[-113.87568099998896,35.089828000000146],[-113.87613099998894,35.089784000000144],[-113.87637199998893,35.089764000000137],[-113.87649799998893,35.089757000000141],[-113.87661399998895,35.089753000000144],[-113.87672299998893,35.089753000000151],[-113.87682599998891,35.089755000000146],[-113.87694399998891,35.08976300000014],[-113.87705499998891,35.089775000000152],[-113.87715899998892,35.089792000000152],[-113.8772579999889,35.089814000000132],[-113.87735099998892,35.089841000000149],[-113.87743899998891,35.089873000000146],[-113.8775219999889,35.089910000000145],[-113.8776009999889,35.08995300000015],[-113.87763699998891,35.089976000000135],[-113.87767399998891,35.090003000000145],[-113.87771199998889,35.090033000000126],[-113.8777519999889,35.09006700000014],[-113.87782299998889,35.090134000000148],[-113.87798599998889,35.090297000000149],[-113.87806999998888,35.090374000000132],[-113.87811299998889,35.090407000000141],[-113.87815399998888,35.090437000000144],[-113.87819399998889,35.090462000000137],[-113.87823499998889,35.090484000000139],[-113.87827299998887,35.090501000000145],[-113.87831399998888,35.09051600000015],[-113.87835799998889,35.090528000000148],[-113.87840399998888,35.090538000000137],[-113.87845399998889,35.090546000000131],[-113.87850599998887,35.090551000000147],[-113.87856099998889,35.090554000000139],[-113.87861999998889,35.090554000000125],[-113.87872399998888,35.090550000000135],[-113.87884299998888,35.090540000000139],[-113.87895899998887,35.090527000000158],[-113.87923799998886,35.090491000000149],[-113.87937499998885,35.090477000000149],[-113.87944099998886,35.09047200000014],[-113.87950299998884,35.090469000000141],[-113.87955999998884,35.090469000000134],[-113.87961299998886,35.09047000000016],[-113.87966499998885,35.090474000000142],[-113.87971499998885,35.090480000000142],[-113.87976099998885,35.090488000000143],[-113.87980499998885,35.090499000000136],[-113.87984499998885,35.090512000000139],[-113.87988399998885,35.090528000000141],[-113.87991899998885,35.090546000000145],[-113.87995299998884,35.090566000000159],[-113.87999799998884,35.090599000000147],[-113.88004299998885,35.090637000000143],[-113.88008899998883,35.090680000000134],[-113.88013499998883,35.090728000000134],[-113.88018199998884,35.090780000000152],[-113.88023099998883,35.090839000000145],[-113.88034799998883,35.090994000000144],[-113.88037699998883,35.09103500000014],[-113.88040299998883,35.091078000000152],[-113.88042599998883,35.091123000000152],[-113.88044799998883,35.091170000000155],[-113.88046699998883,35.091219000000137],[-113.88048399998883,35.091270000000151],[-113.88049799998883,35.091323000000138],[-113.88051099998883,35.091379000000153],[-113.88052099998882,35.091438000000132],[-113.88052899998881,35.091500000000146],[-113.88053599998884,35.091566000000142],[-113.88054099998882,35.091637000000141],[-113.88054499998881,35.091785000000144],[-113.88054499998881,35.092080000000145],[-113.88054699998884,35.092203000000147],[-113.88055299998884,35.092330000000146],[-113.88056499998882,35.09244200000014],[-113.88057599998882,35.092506000000149],[-113.88058899998882,35.092567000000152],[-113.88060499998882,35.092625000000147],[-113.88062299998882,35.092679000000139],[-113.88064399998882,35.092732000000154],[-113.88066699998882,35.092781000000151],[-113.88069399998882,35.092829000000144],[-113.88072299998882,35.092874000000137],[-113.88076499998881,35.09292900000014],[-113.88081399998882,35.092984000000136],[-113.88086899998882,35.093040000000144],[-113.88093299998881,35.093097000000142],[-113.88100499998882,35.093156000000143],[-113.8810889999888,35.093219000000147],[-113.8811809999888,35.093285000000158],[-113.8814469999888,35.093471000000136],[-113.88152699998879,35.093530000000143],[-113.88159599998879,35.093584000000142],[-113.88167199998878,35.093648000000158],[-113.8817379999888,35.093710000000151],[-113.88179499998878,35.093771000000146],[-113.88184399998879,35.093832000000141],[-113.88188699998879,35.093896000000157],[-113.88192399998879,35.093967000000134],[-113.88195699998879,35.094045000000143],[-113.88198599998879,35.094133000000149],[-113.88200699998877,35.094212000000134],[-113.88202699998877,35.094302000000148],[-113.88208099998877,35.094606000000148],[-113.88210299998877,35.094716000000147],[-113.88213099998879,35.094823000000147],[-113.88216099998877,35.094915000000142],[-113.88218099998878,35.094963000000135],[-113.88220199998878,35.095007000000138],[-113.88222599998878,35.095049000000138],[-113.88225099998877,35.095088000000139],[-113.88227799998877,35.095125000000152],[-113.88230799998877,35.095159000000145],[-113.88233899998878,35.095191000000142],[-113.88237299998879,35.095220000000133],[-113.88243299998877,35.095264000000142],[-113.88250199998878,35.09530700000014],[-113.88257999998876,35.095348000000143],[-113.88266799998875,35.095390000000144],[-113.88274499998877,35.095423000000139],[-113.88283299998878,35.095457000000152],[-113.88316699998876,35.095578000000152],[-113.88329999998876,35.095630000000149],[-113.88341299998875,35.095674000000152],[-113.88353099998875,35.095715000000148],[-113.88365399998875,35.095754000000156],[-113.88378299998874,35.095791000000133],[-113.88391699998873,35.09582500000014],[-113.88405699998873,35.095858000000142],[-113.88420399998873,35.095888000000151],[-113.88435799998872,35.095917000000135],[-113.88449399998872,35.095939000000143],[-113.88463599998872,35.095961000000138],[-113.88494999998871,35.096003000000145],[-113.88525999998869,35.096038000000149],[-113.88604199998868,35.096121000000146],[-113.88626199998866,35.096148000000142],[-113.88645799998866,35.09617300000015],[-113.88667299998865,35.096205000000147],[-113.88687099998864,35.096239000000153],[-113.88705499998866,35.096276000000152],[-113.88722699998863,35.096316000000151],[-113.88732699998864,35.096342000000156],[-113.88742299998864,35.096369000000138],[-113.88751599998864,35.096397000000145],[-113.88760499998862,35.096427000000148],[-113.88769199998862,35.096458000000155],[-113.88777499998864,35.096491000000142],[-113.88785599998862,35.096525000000149],[-113.88793299998864,35.096561000000143],[-113.88800899998861,35.096598000000149],[-113.8880809999886,35.09663700000015],[-113.88815099998861,35.096678000000153],[-113.8882179999886,35.096720000000133],[-113.88828299998862,35.096764000000157],[-113.88834599998862,35.096810000000147],[-113.88840599998862,35.096858000000147],[-113.88846299998862,35.096907000000144],[-113.8885589999886,35.096995000000142],[-113.88865199998858,35.097086000000147],[-113.88874399998861,35.097180000000137],[-113.8888319999886,35.097277000000155],[-113.88891699998861,35.097374000000158],[-113.88899699998859,35.097473000000143],[-113.88907299998858,35.097571000000151],[-113.88914299998859,35.097669000000153],[-113.88917999998858,35.097724000000156],[-113.88921399998858,35.09778100000014],[-113.88924599998859,35.09784000000014],[-113.88927599998858,35.09790200000014],[-113.88930499998858,35.097966000000142],[-113.88933099998859,35.098032000000146],[-113.8893559999886,35.098102000000139],[-113.88937899998858,35.09817500000014],[-113.88941799998858,35.098314000000144],[-113.88945299998858,35.09847200000015],[-113.88948399998857,35.098634000000153],[-113.88956099998857,35.099075000000141],[-113.88958799998858,35.099207000000142],[-113.88961499998858,35.09932500000015],[-113.88965199998857,35.099458000000148],[-113.88969299998857,35.099580000000152],[-113.88973799998857,35.099693000000144],[-113.88978899998857,35.099799000000139],[-113.88999499998856,35.100211000000144],[-113.89007499998856,35.10036600000015],[-113.89012199998857,35.100452000000146],[-113.89016799998856,35.100530000000148],[-113.89021299998856,35.100602000000144],[-113.89025699998858,35.100670000000157],[-113.89030699998857,35.100740000000158],[-113.89035799998855,35.100806000000141],[-113.89040899998855,35.100866000000153],[-113.89046099998855,35.100922000000146],[-113.89051499998854,35.10097400000015],[-113.89056899998855,35.101022000000142],[-113.89062499998856,35.101065000000148],[-113.89068199998854,35.101105000000146],[-113.89072799998854,35.101132000000163],[-113.89077599998855,35.10115800000014],[-113.89082799998856,35.101181000000153],[-113.89088299998855,35.10120300000014],[-113.89094199998854,35.101223000000154],[-113.89100399998854,35.101241000000151],[-113.89106999998853,35.101258000000151],[-113.89113999998852,35.101272000000151],[-113.89127299998853,35.101295000000142],[-113.89142499998853,35.101314000000158],[-113.89158199998852,35.101328000000144],[-113.89201099998851,35.101363000000148],[-113.8921389999885,35.101376000000137],[-113.8922519999885,35.101391000000149],[-113.89237799998848,35.101411000000148],[-113.8924909999885,35.101435000000151],[-113.8925959999885,35.101463000000152],[-113.89269099998849,35.101495000000149],[-113.89274399998848,35.101516000000139],[-113.89279699998849,35.101540000000149],[-113.89285199998849,35.10156800000015],[-113.89291099998849,35.101599000000149],[-113.89301899998848,35.101663000000151],[-113.89328899998846,35.101831000000161],[-113.89336699998847,35.101876000000146],[-113.89343799998848,35.101914000000157],[-113.89346899998847,35.101928000000143],[-113.89430399998845,35.101780000000147],[-113.89499799998843,35.10170300000015],[-113.89529699998843,35.102414000000145],[-113.8957869999884,35.102824000000147],[-113.89663499998839,35.103402000000159],[-113.89670599998836,35.103399000000145],[-113.89677399998837,35.103393000000153],[-113.89683899998836,35.103386000000157],[-113.89690099998838,35.103376000000139],[-113.89695999998837,35.103365000000153],[-113.89701499998836,35.10335100000016],[-113.89706799998838,35.103336000000141],[-113.89711699998837,35.103318000000151],[-113.89716299998838,35.103299000000156],[-113.89720599998836,35.103278000000152],[-113.89724099998836,35.103258000000146],[-113.89727699998836,35.10323500000014],[-113.89735099998836,35.103180000000151],[-113.89742999998836,35.103112000000152],[-113.89752699998836,35.103021000000155],[-113.89756899998837,35.102976000000147],[-113.89760599998836,35.102928000000148],[-113.89763699998835,35.102877000000156],[-113.89766299998834,35.102822000000153],[-113.89768399998835,35.102763000000145],[-113.89769999998835,35.102701000000152],[-113.89771099998835,35.102634000000137],[-113.89771699998835,35.102564000000157],[-113.89771899998834,35.102485000000151],[-113.89771399998834,35.10240100000015],[-113.89770499998835,35.102311000000157],[-113.89768899998835,35.102213000000155],[-113.89767099998835,35.102116000000152],[-113.89764599998834,35.102008000000147],[-113.89754499998836,35.101607000000158],[-113.89750799998836,35.101447000000157],[-113.89749199998835,35.101362000000144],[-113.89747999998836,35.101284000000142],[-113.89747099998836,35.101212000000146],[-113.89746699998837,35.101145000000159],[-113.89746699998837,35.10106700000015],[-113.89747299998837,35.100994000000142],[-113.89748599998835,35.100927000000155],[-113.89750499998836,35.10086600000016],[-113.89752999998836,35.100810000000152],[-113.89756199998835,35.100759000000153],[-113.89757999998835,35.100735000000149],[-113.89759999998836,35.100713000000148],[-113.89762199998835,35.100692000000151],[-113.89764599998834,35.100672000000152],[-113.89767699998835,35.100648000000142],[-113.89771099998835,35.100626000000155],[-113.89774799998835,35.100605000000165],[-113.89778799998835,35.100584000000147],[-113.89783099998834,35.100565000000152],[-113.89787699998834,35.100547000000148],[-113.89792699998834,35.100529000000151],[-113.89797999998835,35.100512000000158],[-113.89808599998834,35.100484000000165],[-113.89820899998833,35.100456000000158],[-113.89834099998833,35.100430000000152],[-113.90120699998825,35.100004000000155],[-113.90172199998824,35.099850000000153],[-113.90195799998823,35.099420000000158],[-113.90215999998821,35.098768000000156],[-113.90192699998823,35.09705200000014],[-113.90197999998821,35.097005000000159],[-113.90202599998823,35.096958000000157],[-113.90206699998822,35.09691000000015],[-113.90210099998822,35.096862000000151],[-113.90212999998822,35.096812000000156],[-113.90215299998822,35.096762000000155],[-113.90216899998822,35.096711000000155],[-113.90217999998822,35.096659000000152],[-113.90218299998821,35.09662300000015],[-113.90218299998821,35.096583000000159],[-113.90217899998822,35.096542000000163],[-113.90217199998821,35.096500000000155],[-113.90216199998822,35.09645600000016],[-113.90214799998822,35.09641100000016],[-113.90213199998821,35.096367000000164],[-113.90211199998822,35.096325000000164],[-113.90209299998821,35.096289000000155],[-113.90207199998822,35.096254000000158],[-113.90204799998821,35.096220000000166],[-113.90202199998822,35.096188000000161],[-113.90199299998824,35.09615600000015],[-113.90196299998823,35.09612500000015],[-113.90192899998823,35.096095000000147],[-113.90189399998823,35.096067000000154],[-113.90185599998823,35.096039000000154],[-113.90181599998823,35.096012000000165],[-113.90177299998822,35.09598600000016],[-113.90172799998824,35.095961000000145],[-113.90168099998823,35.09593800000016],[-113.90163099998823,35.095915000000161],[-113.90152399998824,35.095872000000149],[-113.90145299998825,35.095843000000166],[-113.90137099998825,35.095813000000156],[-113.90109599998826,35.095719000000166],[-113.90100099998824,35.095686000000157],[-113.90091499998825,35.095652000000143],[-113.90084199998826,35.095619000000148],[-113.90077699998827,35.095584000000159],[-113.90072199998826,35.095548000000164],[-113.90067599998827,35.095511000000158],[-113.90063799998828,35.09547200000015],[-113.90061099998827,35.095435000000151],[-113.90058699998828,35.09539600000015],[-113.90056799998828,35.095355000000154],[-113.90055199998828,35.095310000000154],[-113.90053999998828,35.095263000000152],[-113.90053199998827,35.095212000000153],[-113.90052699998827,35.095158000000154],[-113.90052599998828,35.095100000000166],[-113.90053199998827,35.094999000000143],[-113.90054799998828,35.09488200000014],[-113.90056799998828,35.094766000000156],[-113.90062799998827,35.09447200000016],[-113.90064199998828,35.094390000000146],[-113.90065199998826,35.094317000000139],[-113.90065999998826,35.094240000000156],[-113.90066299998826,35.09416800000016],[-113.90066199998827,35.094101000000158],[-113.90065699998826,35.094039000000159],[-113.90064199998827,35.093871000000142],[-113.90061799998826,35.093466000000163],[-113.90060299998827,35.093283000000142],[-113.90059099998828,35.093185000000148],[-113.90057699998827,35.093095000000147],[-113.90055999998827,35.093012000000158],[-113.90053999998828,35.092935000000153],[-113.90051399998826,35.092852000000164],[-113.90048299998826,35.092775000000159],[-113.90044899998827,35.092704000000147],[-113.90040999998826,35.092638000000157],[-113.90036599998828,35.092579000000143],[-113.90031799998826,35.092525000000151],[-113.90026499998828,35.092476000000147],[-113.90020699998826,35.092433000000142],[-113.90017099998828,35.092410000000157],[-113.90013099998828,35.092389000000153],[-113.90008599998828,35.09236800000015],[-113.90003699998827,35.09234800000015],[-113.89992799998829,35.092311000000151],[-113.89969699998829,35.092242000000148],[-113.89960099998829,35.092211000000155],[-113.89950599998831,35.092175000000161],[-113.89946499998831,35.092156000000159],[-113.89942699998829,35.09213700000015],[-113.89937599998829,35.092106000000157],[-113.89932699998829,35.092072000000151],[-113.89927999998831,35.092034000000162],[-113.89923499998831,35.091992000000161],[-113.8991919999883,35.091946000000156],[-113.89915099998831,35.091896000000141],[-113.89911099998832,35.091842000000156],[-113.89907299998831,35.091784000000153],[-113.89904299998831,35.091733000000161],[-113.8990139999883,35.091679000000148],[-113.89895399998831,35.091556000000146],[-113.89890199998831,35.091435000000146],[-113.8987819999883,35.091144000000142],[-113.89871799998832,35.091002000000167],[-113.89868399998832,35.090935000000144],[-113.89865099998832,35.090874000000156],[-113.89861599998834,35.09081700000015],[-113.89858099998833,35.090765000000147],[-113.89854499998832,35.09071700000014],[-113.89850799998833,35.090672000000154],[-113.89846899998832,35.090630000000154],[-113.89842899998831,35.090592000000143],[-113.89838699998832,35.09055700000016],[-113.89834299998832,35.090525000000156],[-113.89829699998833,35.090497000000141],[-113.89824899998834,35.09047100000015],[-113.89816899998833,35.090432000000156],[-113.89808699998834,35.090396000000148],[-113.89800099998833,35.090362000000148],[-113.89791399998833,35.090330000000158],[-113.89782699998835,35.090301000000146],[-113.89773899998835,35.090275000000148],[-113.89765199998834,35.090252000000156],[-113.89756599998834,35.090233000000154],[-113.89751999998835,35.090225000000153],[-113.89746999998835,35.090220000000151],[-113.89741699998837,35.090216000000154],[-113.89735899998834,35.090215000000164],[-113.89724899998836,35.090219000000154],[-113.89698399998836,35.090235000000142],[-113.89691399998837,35.090237000000144],[-113.89685299998837,35.090236000000147],[-113.89678999998836,35.090231000000145],[-113.89673199998838,35.090223000000151],[-113.89667899998838,35.090211000000146],[-113.89663099998837,35.090195000000136],[-113.89657399998838,35.090170000000157],[-113.89651699998839,35.090138000000159],[-113.89645899998838,35.090101000000146],[-113.89639899998838,35.090057000000151],[-113.89634199998838,35.090010000000149],[-113.89628099998839,35.08995500000016],[-113.89608399998839,35.089767000000144],[-113.89602199998841,35.089705000000158],[-113.89596099998839,35.08964100000015],[-113.89590299998841,35.089574000000148],[-113.89584699998839,35.089505000000145],[-113.8957939999884,35.089433000000142],[-113.89574199998839,35.089359000000158],[-113.89569399998841,35.089283000000144],[-113.8956469999884,35.089204000000137],[-113.8956029999884,35.08912300000015],[-113.89556099998842,35.089039000000156],[-113.89552199998842,35.088953000000139],[-113.89548499998841,35.088865000000133],[-113.8954509999884,35.088774000000143],[-113.89541899998841,35.088682000000141],[-113.89538899998841,35.088587000000146],[-113.89536199998841,35.088490000000164],[-113.89533799998841,35.088391000000151],[-113.8953159999884,35.088289000000145],[-113.89529599998841,35.088186000000157],[-113.8952799999884,35.088080000000133],[-113.8952649999884,35.087973000000147],[-113.89525399998841,35.087864000000152],[-113.89524499998841,35.087754000000146],[-113.89523799998842,35.087642000000159],[-113.8952349999884,35.087529000000153],[-113.89523399998841,35.087415000000149],[-113.8952349999884,35.087300000000141],[-113.89523999998842,35.08718400000015],[-113.8952469999884,35.087067000000154],[-113.89525599998842,35.086950000000144],[-113.8952689999884,35.086833000000148],[-113.89528299998842,35.086716000000159],[-113.89529899998841,35.086631000000153],[-113.8953249999884,35.086535000000154],[-113.89555399998841,35.086361000000146],[-113.89552799998842,35.085472000000145],[-113.8953219999884,35.084735000000158],[-113.89527799998841,35.084690000000158],[-113.89522899998842,35.084647000000146],[-113.89517399998842,35.084607000000148],[-113.89511599998841,35.084570000000149],[-113.89505599998841,35.084537000000147],[-113.89499599998844,35.084509000000153],[-113.89493499998844,35.084487000000159],[-113.89487599998841,35.08447100000015],[-113.89483299998842,35.084462000000158]]]},"properties":{"FID":0,"EVENT_ID":"AZ3507511388320210425","IRWINID":"BB6A93E3-BB46-4E4D-9797-431067FA209E","INCID_NAME":"FLAG","INCID_TYPE":"Wildfire","MAP_ID":10023809,"MAP_PROG":"MTBS","ASMNT_TYPE":"Extended","BURNBNDAC":1472,"BURNBNDLAT":"35.073","BURNBNDLON":"-113.875","IG_DATE":1619308800000,"PRE_ID":"A12STD20200909_30m","POST_ID":"B12STD20220907_30m","PERIM_ID":" ","DNBR_OFFST":1,"DNBR_STDDV":42,"NODATA_T":-970,"INCGREEN_T":-150,"LOW_T":38,"MOD_T":256,"HIGH_T":503,"COMMENT":" "}}]}