{"type":"FeatureCollection","features":[{"type":"Feature","id":1,"geometry":{"type":"Polygon","coordinates":[[[-119.99835380159274,48.709716672375315],[-119.99634772262624,48.675951355298615],[-119.99434536092713,48.642185777551383],[-119.99234670768433,48.608419939256592],[-119.99035175411571,48.574653840537053],[-119.97380763844188,48.575082678329835],[-119.957263134741,48.575509141867236],[-119.94071824515579,48.575933231011881],[-119.92417297182925,48.576354945627195],[-119.90762731690485,48.576774285577407],[-119.8910812825263,48.577191250727431],[-119.87453487083756,48.577605840943008],[-119.85798808398293,48.578018056090563],[-119.84144092410715,48.578427896037368],[-119.82489339335508,48.578835360651368],[-119.80834549387197,48.579240449801333],[-119.79179722780334,48.579643163356749],[-119.77524859729508,48.580043501187909],[-119.75869960449334,48.580441463165812],[-119.74215025154456,48.580837049162284],[-119.72560054059545,48.581230259049825],[-119.72741943039182,48.615004124366287],[-119.72924169447232,48.648777739549097],[-119.73106734085107,48.682551104501549],[-119.73289637756854,48.716324219126783],[-119.74949025299628,48.715929147825854],[-119.76608376700906,48.715531689197086],[-119.78267691743977,48.715131843369058],[-119.79926970212161,48.714729610471167],[-119.81586211888802,48.714324990633479],[-119.8324541655729,48.713917983986903],[-119.84904584001028,48.713508590663103],[-119.86563714003461,48.713096810794482],[-119.88222806348064,48.71268264451421],[-119.89881860818335,48.712266091956273],[-119.91540877197815,48.711847153255398],[-119.93199855270066,48.711425828547036],[-119.94858794818697,48.711002117967439],[-119.96517695627325,48.710576021653651],[-119.9817655747962,48.710147539743424],[-119.99835380159274,48.709716672375315]]]},"properties":{"OBJECTID":1,"Shape_Length":69171.83259999752,"Shape_Area":293943096.70827216}}]}