{"type":"FeatureCollection","features":[{"type":"Feature","id":0,"geometry":{"type":"Polygon","coordinates":[[[-108.29209300000761,32.94603200000013],[-108.2920590000076,32.945884000000127],[-108.29215100000761,32.94586900000013],[-108.29223400000761,32.94535500000012],[-108.29272500000759,32.944851000000135],[-108.29365900000759,32.945386000000127],[-108.29465500000755,32.946152000000126],[-108.29553800000754,32.946114000000122],[-108.29630400000754,32.945501000000114],[-108.29646800000752,32.944588000000131],[-108.2975050000075,32.943981000000129],[-108.29826300000749,32.94359600000012],[-108.29869800000748,32.942690000000134],[-108.29872800000749,32.941717000000118],[-108.29820800000749,32.94096200000012],[-108.29747000000751,32.940659000000124],[-108.29666400000752,32.940356000000129],[-108.29606100000753,32.94011300000011],[-108.29463200000754,32.940197000000126],[-108.29360900000758,32.940347000000138],[-108.29286500000761,32.940273000000126],[-108.29314800000759,32.939879000000126],[-108.29324400000758,32.938965000000131],[-108.29380300000756,32.938461000000125],[-108.29408100000758,32.938238000000119],[-108.29471600000754,32.937451000000131],[-108.29493900000756,32.936826000000138],[-108.29501900000754,32.93642700000013],[-108.29564200000755,32.936039000000122],[-108.29652700000752,32.93594400000012],[-108.29755400000751,32.935680000000119],[-108.29810700000749,32.935348000000118],[-108.29880100000747,32.93484800000013],[-108.29807400000749,32.934203000000132],[-108.29712700000752,32.934068000000117],[-108.29551100000755,32.933632000000131],[-108.29498200000756,32.933162000000124],[-108.29594400000754,32.932782000000131],[-108.2971690000075,32.932694000000126],[-108.29819600000751,32.932430000000117],[-108.29881500000748,32.932158000000129],[-108.29943100000746,32.931999000000133],[-108.30019800000746,32.931329000000126],[-108.30083500000745,32.930484000000121],[-108.30037900000744,32.929844000000131],[-108.29944700000748,32.929251000000122],[-108.29844400000749,32.928714000000127],[-108.29575200000754,32.927969000000132],[-108.29468700000756,32.927259000000127],[-108.29293700000758,32.926763000000129],[-108.29239600000761,32.926694000000118],[-108.29126200000763,32.926040000000128],[-108.29072600000764,32.925799000000126],[-108.28984900000766,32.925608000000132],[-108.28923900000767,32.925595000000129],[-108.28869300000767,32.925698000000125],[-108.28759800000769,32.925960000000131],[-108.28692700000771,32.925716000000143],[-108.28585200000774,32.925350000000115],[-108.28511300000774,32.925104000000132],[-108.28341000000779,32.925296000000138],[-108.2823950000078,32.925160000000126],[-108.28172900000783,32.924745000000136],[-108.28078500000782,32.924552000000126],[-108.28012000000784,32.924080000000124],[-108.27938600000788,32.923663000000133],[-108.27846500000788,32.922727000000137],[-108.2780140000079,32.921916000000145],[-108.27741800000791,32.921445000000134],[-108.27709600000792,32.920865000000127],[-108.27630500000791,32.92010300000014],[-108.27550500000794,32.919628000000145],[-108.27496900000794,32.919387000000143],[-108.27436400000798,32.919202000000126],[-108.27346800000798,32.919641000000134],[-108.272795000008,32.91945400000013],[-108.27232500000801,32.919272000000127],[-108.27203500000802,32.919896000000136],[-108.27221700000801,32.920587000000125],[-108.27206700000802,32.921042000000135],[-108.27164800000803,32.921433000000135],[-108.27110300000803,32.921478000000135],[-108.27088200000803,32.922046000000137],[-108.27051700000806,32.922897000000134],[-108.27016900000805,32.92317600000014],[-108.26988800000807,32.923475000000138],[-108.26953700000806,32.923849000000139],[-108.26863900000808,32.924345000000145],[-108.2675680000081,32.924418000000138],[-108.26752500000812,32.924459000000141],[-108.2675960000081,32.924914000000143],[-108.26755500000813,32.925342000000143],[-108.26723400000812,32.925645000000145],[-108.26652300000814,32.925773000000142],[-108.26606300000815,32.926001000000142],[-108.26585300000815,32.926402000000152],[-108.26570300000816,32.926685000000134],[-108.26492200000817,32.927241000000137],[-108.26407400000818,32.927222000000135],[-108.2636790000082,32.927190000000138],[-108.26301200000822,32.926793000000146],[-108.2628670000082,32.926910000000149],[-108.26277400000821,32.927170000000146],[-108.26265400000821,32.927406000000133],[-108.26233700000822,32.927590000000137],[-108.26206300000823,32.927297000000145],[-108.26164700000822,32.927050000000143],[-108.25990400000828,32.926678000000145],[-108.25925100000829,32.92678300000015],[-108.2589870000083,32.927063000000139],[-108.25835600000832,32.927359000000145],[-108.25778800000832,32.927442000000127],[-108.25681700000834,32.927731000000144],[-108.25661400000835,32.927771000000149],[-108.25668300000834,32.926831000000156],[-108.25628600000834,32.926478000000152],[-108.25636800000834,32.926022000000145],[-108.25673700000836,32.925057000000145],[-108.25613400000836,32.924815000000137],[-108.25524100000837,32.925139000000136],[-108.25450700000839,32.924722000000145],[-108.25369700000842,32.92458900000014],[-108.25296100000843,32.924230000000151],[-108.25345700000841,32.923554000000138],[-108.2535520000084,32.922697000000134],[-108.25364300000841,32.921955000000139],[-108.2539350000084,32.921274000000139],[-108.25341000000842,32.920690000000143],[-108.25335700000841,32.92023100000015],[-108.2539790000084,32.919844000000154],[-108.25426800000839,32.91927700000015],[-108.25415000000839,32.918702000000145],[-108.25375800000842,32.918236000000149],[-108.25293600000842,32.918447000000135],[-108.25218500000842,32.918602000000142],[-108.25166000000846,32.918018000000131],[-108.25222400000843,32.917343000000152],[-108.25244000000845,32.916947000000143],[-108.25225400000842,32.916370000000128],[-108.25192200000845,32.916134000000149],[-108.25167200000845,32.915442000000148],[-108.25148200000844,32.914979000000152],[-108.25184300000844,32.914300000000139],[-108.25199800000844,32.913674000000142],[-108.25202600000846,32.912759000000143],[-108.25237300000843,32.912537000000142],[-108.25327200000841,32.911984000000139],[-108.25369300000841,32.911536000000133],[-108.25330200000842,32.911012000000142],[-108.25345700000841,32.910385000000154],[-108.2532800000084,32.909523000000142],[-108.2533820000084,32.908437000000141],[-108.25334200000842,32.90752000000014],[-108.25295500000843,32.906882000000159],[-108.25201600000845,32.906518000000148],[-108.25078600000849,32.906777000000147],[-108.2495650000085,32.906750000000137],[-108.24874200000851,32.90701800000015],[-108.24824800000853,32.907637000000143],[-108.24755000000854,32.908251000000149],[-108.24643000000856,32.90937200000014],[-108.2455510000086,32.909238000000151],[-108.24509800000858,32.908541000000149],[-108.24443200000862,32.90812500000014],[-108.24388400000862,32.908285000000149],[-108.24332200000865,32.908903000000151],[-108.24275400000866,32.909692000000142],[-108.24233000000865,32.910255000000149],[-108.24129500000866,32.910804000000141],[-108.2399400000087,32.910717000000155],[-108.23959900000871,32.910767000000142],[-108.23877800000872,32.910978000000149],[-108.23795100000875,32.911360000000165],[-108.23672200000878,32.911619000000151],[-108.23569300000881,32.911940000000136],[-108.23498800000881,32.912783000000154],[-108.23456000000883,32.913461000000147],[-108.23399300000884,32.914250000000152],[-108.23353500000886,32.914656000000157],[-108.23338200000886,32.914547000000148],[-108.23269800000887,32.914699000000155],[-108.23201000000888,32.915017000000148],[-108.23126100000891,32.915454000000153],[-108.23108300000891,32.915713000000146],[-108.23106100000889,32.916428000000167],[-108.2310000000089,32.916607000000148],[-108.23086400000891,32.916642000000166],[-108.23045100000891,32.916805000000153],[-108.22983000000895,32.917135000000158],[-108.22946900000893,32.917814000000163],[-108.22980100000893,32.91805000000015],[-108.23007700000893,32.918157000000157],[-108.23004300000893,32.918218000000152],[-108.23014700000894,32.918531000000151],[-108.22990500000893,32.919026000000166],[-108.22949100000893,32.919590000000163],[-108.22933400000893,32.920087000000152],[-108.22913200000896,32.920226000000163],[-108.22865500000897,32.920120000000146],[-108.22836300000897,32.92039900000016],[-108.22811700000896,32.921014000000163],[-108.22790800000898,32.921391000000156],[-108.22747400000898,32.921692000000149],[-108.22694200000899,32.921513000000154],[-108.226328000009,32.921261000000158],[-108.22573100000903,32.921367000000153],[-108.22525900000902,32.921306000000151],[-108.22521900000903,32.921208000000163],[-108.22550400000904,32.92085200000016],[-108.22554900000904,32.920305000000148],[-108.22539800000902,32.919729000000153],[-108.22498100000904,32.919548000000162],[-108.22496300000905,32.918773000000158],[-108.22460200000906,32.918574000000135],[-108.22390200000906,32.918320000000151],[-108.22362600000906,32.918123000000158],[-108.22321000000908,32.917852000000167],[-108.22249400000909,32.918146000000156],[-108.22186400000912,32.918371000000157],[-108.22125800000914,32.918763000000162],[-108.22093900000914,32.919018000000158],[-108.22034000000914,32.919172000000152],[-108.22021300000915,32.919622000000146],[-108.21976900000917,32.919998000000149],[-108.21905700000919,32.919898000000153],[-108.21883500000918,32.920101000000159],[-108.2182410000092,32.920643000000148],[-108.21770600000922,32.921228000000163],[-108.21768500000921,32.921251000000154],[-108.21683000000924,32.921872000000157],[-108.21514300000928,32.922978000000157],[-108.21456400000928,32.92411200000015],[-108.21451100000928,32.924162000000173],[-108.2144830000093,32.924270000000163],[-108.21440500000928,32.924423000000154],[-108.21433800000929,32.924830000000149],[-108.21425300000928,32.92515800000016],[-108.21409500000931,32.925526000000161],[-108.21268900000932,32.926080000000162],[-108.21264900000932,32.926106000000168],[-108.21212900000934,32.926160000000159],[-108.21131300000935,32.926906000000166],[-108.21129800000936,32.926949000000171],[-108.21106300000936,32.927097000000167],[-108.21060500000938,32.928431000000167],[-108.2101650000094,32.929292000000167],[-108.20969400000939,32.929810000000167],[-108.20788100000944,32.931612000000158],[-108.20728900000945,32.932259000000158],[-108.20700900000946,32.932517000000161],[-108.20699800000946,32.932525000000162],[-108.20666700000947,32.932739000000154],[-108.20627700000948,32.932991000000158],[-108.20629300000948,32.933022000000165],[-108.2057460000095,32.933189000000169],[-108.20494700000953,32.933385000000158],[-108.20313900000954,32.934204000000172],[-108.20219500000958,32.934540000000162],[-108.20086800000961,32.935369000000172],[-108.20006000000963,32.935876000000171],[-108.19927900000965,32.936830000000171],[-108.19909600000966,32.936938000000161],[-108.19882200000967,32.937175000000174],[-108.19854600000967,32.93743000000017],[-108.19839200000968,32.937589000000166],[-108.19827000000966,32.937731000000163],[-108.19813400000967,32.937953000000171],[-108.19800100000968,32.938179000000169],[-108.19798700000969,32.938202000000167],[-108.19777400000969,32.938540000000174],[-108.19757100000969,32.93885100000017],[-108.1972640000097,32.939314000000174],[-108.19720100000971,32.939411000000163],[-108.19718900000969,32.939425000000163],[-108.19700100000971,32.939652000000159],[-108.1969230000097,32.93974700000016],[-108.19651300000972,32.940198000000159],[-108.19631300000972,32.94042700000017],[-108.19611500000974,32.940621000000164],[-108.19599200000974,32.940771000000169],[-108.19594800000974,32.94082500000016],[-108.19581500000973,32.940957000000168],[-108.19577100000973,32.941032000000178],[-108.19576300000973,32.941098000000167],[-108.19575700000973,32.941150000000178],[-108.19577800000974,32.941231000000158],[-108.19581600000973,32.941317000000168],[-108.19585400000972,32.941390000000162],[-108.19588400000974,32.941448000000172],[-108.19592400000974,32.94150400000018],[-108.19597300000973,32.941559000000154],[-108.19604100000973,32.941634000000178],[-108.19608400000972,32.941679000000171],[-108.19613200000973,32.941718000000179],[-108.19619600000972,32.941762000000168],[-108.19624800000972,32.941785000000174],[-108.19630300000972,32.941808000000165],[-108.19636400000972,32.941822000000165],[-108.19644200000972,32.941829000000162],[-108.19654600000972,32.941844000000167],[-108.1967110000097,32.941858000000174],[-108.1968910000097,32.941871000000162],[-108.1970310000097,32.941878000000173],[-108.1971510000097,32.941880000000175],[-108.19731700000969,32.941888000000176],[-108.19746100000971,32.941900000000167],[-108.19755300000971,32.941927000000163],[-108.19762800000969,32.941968000000173],[-108.1976860000097,32.942012000000176],[-108.19776300000967,32.942082000000163],[-108.19782600000968,32.942162000000167],[-108.19788200000968,32.942255000000159],[-108.19791600000968,32.942315000000164],[-108.19796500000967,32.942405000000171],[-108.19799900000969,32.942461000000172],[-108.19802500000968,32.942516000000154],[-108.19804900000968,32.942568000000172],[-108.19804900000968,32.942569000000162],[-108.19806700000969,32.942751000000172],[-108.19777900000967,32.943260000000159],[-108.1978890000097,32.943546000000168],[-108.19788800000968,32.943557000000162],[-108.19788600000967,32.943611000000161],[-108.19788600000967,32.943675000000169],[-108.19789100000969,32.943740000000162],[-108.19790800000968,32.943803000000166],[-108.19792900000968,32.943877000000164],[-108.19794800000969,32.943933000000179],[-108.19797600000967,32.94399000000017],[-108.19801300000968,32.944043000000157],[-108.19804700000968,32.944090000000166],[-108.19809700000968,32.944133000000164],[-108.19815000000966,32.944188000000167],[-108.19821400000967,32.944245000000166],[-108.19828400000968,32.944307000000165],[-108.19834400000967,32.94435300000017],[-108.19840300000966,32.944394000000152],[-108.19844800000966,32.944425000000159],[-108.19851300000968,32.944461000000167],[-108.19858000000967,32.944492000000167],[-108.19859400000966,32.944498000000173],[-108.19868500000968,32.944534000000161],[-108.19873700000964,32.944562000000168],[-108.19879500000965,32.944589000000164],[-108.19884800000965,32.944613000000153],[-108.19887600000965,32.944657000000177],[-108.19886600000964,32.944714000000168],[-108.19884100000966,32.944758000000171],[-108.19879900000966,32.944793000000168],[-108.19875600000965,32.944831000000157],[-108.19871900000965,32.944868000000163],[-108.19868800000965,32.944908000000162],[-108.19865400000968,32.944954000000166],[-108.19862700000967,32.94500300000017],[-108.19860500000968,32.945039000000165],[-108.19857600000967,32.945070000000165],[-108.19852700000968,32.945085000000162],[-108.19848400000967,32.945093000000178],[-108.19841400000966,32.94509300000017],[-108.19832600000966,32.945084000000172],[-108.19825000000966,32.945074000000162],[-108.19815600000967,32.945064000000173],[-108.19806700000969,32.945059000000171],[-108.19797000000968,32.945060000000169],[-108.19785700000968,32.945072000000167],[-108.19778700000968,32.945085000000162],[-108.19771200000967,32.945110000000184],[-108.19764900000969,32.945141000000177],[-108.19757100000969,32.945185000000166],[-108.1975230000097,32.945224000000174],[-108.1974780000097,32.945264000000165],[-108.19743100000969,32.945311000000153],[-108.1974050000097,32.945357000000172],[-108.1973880000097,32.945398000000161],[-108.19737800000969,32.945458000000173],[-108.19738000000969,32.945537000000172],[-108.19740600000969,32.945633000000171],[-108.1974320000097,32.945708000000174],[-108.19743500000969,32.945718000000163],[-108.19745700000971,32.945777000000163],[-108.1974830000097,32.945837000000175],[-108.19750700000969,32.945891000000167],[-108.1975340000097,32.945963000000162],[-108.19756300000969,32.946046000000152],[-108.19758300000969,32.946098000000163],[-108.19760900000969,32.94615400000017],[-108.19765000000967,32.946192000000174],[-108.19773400000967,32.94622000000016],[-108.19781600000968,32.946239000000169],[-108.19790700000969,32.94624700000017],[-108.19799400000967,32.946249000000165],[-108.19808100000969,32.946245000000168],[-108.19818500000967,32.946233000000163],[-108.19830700000966,32.946204000000165],[-108.19838600000968,32.946182000000171],[-108.19845700000967,32.946179000000171],[-108.19853700000967,32.946184000000173],[-108.19862700000967,32.946208000000169],[-108.19870100000966,32.946234000000167],[-108.19877200000965,32.946270000000169],[-108.19884300000965,32.946305000000159],[-108.19890100000966,32.946335000000175],[-108.19897400000967,32.946376000000171],[-108.19906200000966,32.946427000000156],[-108.19911400000964,32.946464000000169],[-108.19916800000966,32.946499000000166],[-108.19922400000965,32.946538000000167],[-108.19926700000964,32.94658300000016],[-108.19929500000966,32.946629000000165],[-108.19932600000965,32.946674000000172],[-108.19936000000965,32.946736000000172],[-108.19939300000965,32.946826000000179],[-108.19941400000965,32.946893000000181],[-108.19942500000964,32.946948000000162],[-108.19943000000966,32.947009000000165],[-108.19945000000965,32.947101000000174],[-108.19946900000964,32.947173000000156],[-108.19949500000965,32.947240000000171],[-108.19953700000966,32.94729400000017],[-108.19960100000964,32.94735300000017],[-108.19968600000965,32.947421000000148],[-108.19975900000964,32.947467000000174],[-108.19982700000963,32.947523000000167],[-108.19991600000962,32.947589000000171],[-108.19999100000963,32.947653000000173],[-108.20006600000964,32.947703000000168],[-108.20014500000964,32.94775700000018],[-108.20020300000964,32.947799000000167],[-108.20026900000963,32.947838000000168],[-108.20032800000962,32.947877000000162],[-108.20038200000963,32.947904000000165],[-108.20045900000962,32.947934000000153],[-108.20053100000962,32.947955000000164],[-108.20058600000962,32.947960000000172],[-108.20067700000962,32.94795700000018],[-108.2007450000096,32.947948000000174],[-108.2008240000096,32.947939000000162],[-108.20089000000961,32.947933000000177],[-108.20095200000961,32.947931000000168],[-108.2010040000096,32.947930000000156],[-108.2010150000096,32.947930000000163],[-108.20106400000961,32.947951000000174],[-108.2010830000096,32.947996000000167],[-108.2010620000096,32.948055000000167],[-108.20103500000961,32.948110000000163],[-108.20099500000961,32.94817100000018],[-108.20093500000961,32.948249000000153],[-108.2009210000096,32.948274000000161],[-108.20090600000961,32.948300000000181],[-108.20088300000961,32.948362000000174],[-108.20086600000961,32.948444000000173],[-108.2008690000096,32.948539000000167],[-108.20088800000961,32.948618000000174],[-108.20090500000961,32.948688000000161],[-108.20093000000961,32.948760000000163],[-108.20094700000961,32.948827000000165],[-108.2009700000096,32.948894000000166],[-108.2010000000096,32.948969000000162],[-108.2010270000096,32.949031000000161],[-108.2010610000096,32.949100000000158],[-108.20110200000961,32.949163000000162],[-108.20114700000961,32.949216000000177],[-108.2011900000096,32.949267000000162],[-108.20123100000961,32.949306000000171],[-108.2012820000096,32.949362000000171],[-108.2013340000096,32.949419000000162],[-108.20139800000959,32.949476000000161],[-108.20148400000959,32.949564000000173],[-108.20157100000959,32.949637000000166],[-108.2016310000096,32.949685000000166],[-108.20169500000959,32.949738000000174],[-108.2017550000096,32.949783000000167],[-108.2018110000096,32.94982000000018],[-108.20188600000958,32.949852000000156],[-108.20196400000958,32.949878000000169],[-108.20204800000958,32.949895000000168],[-108.20213100000957,32.94990400000016],[-108.20223100000958,32.949902000000165],[-108.20230900000959,32.949904000000153],[-108.20236900000957,32.949907000000174],[-108.20242500000957,32.949925000000178],[-108.20249800000957,32.949958000000173],[-108.20254800000956,32.949992000000172],[-108.20260800000956,32.950041000000169],[-108.20264100000956,32.95008300000017],[-108.20269900000956,32.950140000000154],[-108.20275700000957,32.950182000000162],[-108.20282900000956,32.950234000000165],[-108.20292500000956,32.950290000000159],[-108.20304900000954,32.950339000000177],[-108.20311400000955,32.950360000000167],[-108.20321500000955,32.950375000000157],[-108.20334700000954,32.950373000000162],[-108.20344500000955,32.950368000000161],[-108.20355100000955,32.950361000000164],[-108.20359400000955,32.950352000000159],[-108.20359900000953,32.950355000000158],[-108.20361300000955,32.950348000000155],[-108.20363200000953,32.950343000000167],[-108.20372000000954,32.950311000000163],[-108.20378300000955,32.950273000000152],[-108.20386500000953,32.950227000000169],[-108.20388100000955,32.950215000000171],[-108.20405900000954,32.950126000000175],[-108.20404200000954,32.950082000000158],[-108.20405500000953,32.95007000000016],[-108.20410300000952,32.95002500000016],[-108.20415800000953,32.949969000000166],[-108.20421200000953,32.949915000000168],[-108.20427500000952,32.949821000000178],[-108.20433700000953,32.949738000000167],[-108.20437100000952,32.949668000000166],[-108.20439100000954,32.949622000000168],[-108.20443300000953,32.949562000000171],[-108.20448700000952,32.94955200000016],[-108.20455900000952,32.949561000000166],[-108.20462300000951,32.949602000000169],[-108.20466400000952,32.949640000000166],[-108.20470700000951,32.949709000000162],[-108.2047370000095,32.949756000000164],[-108.20477800000953,32.94981800000015],[-108.20480600000953,32.94986900000017],[-108.20484000000951,32.94991400000017],[-108.20487500000952,32.949965000000162],[-108.20493500000953,32.950024000000155],[-108.2049780000095,32.950064000000161],[-108.20503800000951,32.950107000000159],[-108.2050970000095,32.950135000000166],[-108.20513200000951,32.950152000000166],[-108.20519100000951,32.950157000000146],[-108.20525500000949,32.950151000000162],[-108.20534100000951,32.950129000000153],[-108.20547200000951,32.950086000000169],[-108.2055720000095,32.950059000000159],[-108.2056900000095,32.950017000000173],[-108.20576500000949,32.949989000000173],[-108.2058580000095,32.94994600000016],[-108.2059140000095,32.949913000000173],[-108.20598100000949,32.949879000000166],[-108.2060330000095,32.949841000000163],[-108.20609800000948,32.94979800000015],[-108.20615000000947,32.949756000000157],[-108.20620300000948,32.949716000000166],[-108.20625500000948,32.94967600000016],[-108.20629800000948,32.949639000000161],[-108.20634700000947,32.949590000000157],[-108.20640800000947,32.949543000000148],[-108.20640800000947,32.949543000000148],[-108.20643800000948,32.949526000000169],[-108.20649500000948,32.949531000000157],[-108.20653200000947,32.949557000000148],[-108.20656300000948,32.949588000000155],[-108.20657000000948,32.949643000000158],[-108.20655500000947,32.949700000000171],[-108.20652800000948,32.949764000000158],[-108.20648600000948,32.949824000000163],[-108.20645400000947,32.949893000000166],[-108.20642900000948,32.949952000000167],[-108.20640900000947,32.950033000000161],[-108.20640500000948,32.950094000000163],[-108.20640300000947,32.950155000000152],[-108.20640300000947,32.95023900000016],[-108.20639900000948,32.950300000000162],[-108.20639900000948,32.95035700000016],[-108.20639300000948,32.950416000000153],[-108.20638300000948,32.950471000000178],[-108.20638300000948,32.950473000000166],[-108.20637200000948,32.950532000000173],[-108.20635800000947,32.950580000000159],[-108.20634300000948,32.950637000000171],[-108.20633400000948,32.950681000000166],[-108.20632500000949,32.950735000000165],[-108.20631700000948,32.950810000000168],[-108.20632300000948,32.950880000000161],[-108.20633800000948,32.950950000000169],[-108.20636300000947,32.951031000000171],[-108.20638900000948,32.951080000000175],[-108.20641100000948,32.951112000000158],[-108.20643600000948,32.951147000000162],[-108.20650300000948,32.951177000000165],[-108.20659800000948,32.951183000000157],[-108.20671400000947,32.951192000000162],[-108.20677500000946,32.951210000000167],[-108.20682500000946,32.951233000000165],[-108.20687300000947,32.951264000000165],[-108.20691700000947,32.951303000000166],[-108.20696300000947,32.951327000000163],[-108.20702600000946,32.951343000000165],[-108.20711700000946,32.951346000000164],[-108.20719300000945,32.951353000000154],[-108.20726300000945,32.951369000000163],[-108.20731500000944,32.951394000000171],[-108.20736600000944,32.951441000000166],[-108.20741200000946,32.951485000000176],[-108.20746300000945,32.951526000000158],[-108.20752000000945,32.951550000000168],[-108.20757500000946,32.951564000000161],[-108.20765200000945,32.951591000000164],[-108.20773300000944,32.95160000000017],[-108.20780900000943,32.951603000000169],[-108.20792200000943,32.951601000000153],[-108.20799800000945,32.951590000000152],[-108.20808800000945,32.951574000000164],[-108.20815400000942,32.951559000000167],[-108.20820300000943,32.951566000000163],[-108.20825300000942,32.951583000000177],[-108.20833900000942,32.951615000000153],[-108.20841200000942,32.951663000000167],[-108.20848500000943,32.951703000000158],[-108.20854900000944,32.951752000000162],[-108.20863900000944,32.951803000000147],[-108.20870700000943,32.951851000000168],[-108.20878200000942,32.951908000000167],[-108.20884400000941,32.951968000000164],[-108.20891000000941,32.952020000000168],[-108.2089630000094,32.952073000000162],[-108.20902300000941,32.952133000000167],[-108.20908700000942,32.952203000000146],[-108.20914000000943,32.952265000000175],[-108.2092010000094,32.952338000000175],[-108.2092640000094,32.952429000000159],[-108.2093210000094,32.952500000000164],[-108.20936200000939,32.952565000000156],[-108.20941300000939,32.952632000000165],[-108.2094370000094,32.952683000000171],[-108.20947200000941,32.952759000000157],[-108.20951600000939,32.952868000000159],[-108.20954500000941,32.952951000000155],[-108.2095720000094,32.953035000000149],[-108.20959300000941,32.953109000000154],[-108.20961600000939,32.953176000000155],[-108.20964900000939,32.953280000000163],[-108.20967000000941,32.953347000000157],[-108.2097130000094,32.953484000000159],[-108.20974800000941,32.953587000000148],[-108.20977100000941,32.953662000000158],[-108.2098040000094,32.953746000000159],[-108.20984200000939,32.953836000000166],[-108.20986500000939,32.953894000000169],[-108.20987900000939,32.953942000000161],[-108.20989600000939,32.953993000000153],[-108.20990300000939,32.954054000000149],[-108.20991100000938,32.954116000000163],[-108.2099180000094,32.954168000000166],[-108.20991700000938,32.954210000000167],[-108.20992100000937,32.954271000000155],[-108.20993200000939,32.954330000000169],[-108.20994300000939,32.954353000000154],[-108.20995600000938,32.954384000000168],[-108.21002000000939,32.954439000000157],[-108.2100800000094,32.954482000000148],[-108.21015500000939,32.95452800000016],[-108.2102440000094,32.954594000000164],[-108.21035700000937,32.954672000000173],[-108.21044200000938,32.95472200000016],[-108.21050700000939,32.954761000000161],[-108.21058200000938,32.954799000000172],[-108.21064700000937,32.954831000000162],[-108.21072200000938,32.954866000000166],[-108.21078000000938,32.954900000000166],[-108.21081800000937,32.95492600000015],[-108.21087600000938,32.954950000000153],[-108.21093000000937,32.954994000000148],[-108.21096500000937,32.955033000000164],[-108.21100000000936,32.955066000000173],[-108.21102200000936,32.955111000000166],[-108.21103700000937,32.955158000000154],[-108.21105500000935,32.955210000000157],[-108.21107200000937,32.955275000000164],[-108.21108500000936,32.955341000000153],[-108.21110800000936,32.955419000000163],[-108.21112700000937,32.955485000000174],[-108.21114400000937,32.955556000000158],[-108.21115700000936,32.955611000000161],[-108.21117200000937,32.955660000000158],[-108.21118900000937,32.955725000000164],[-108.21120800000936,32.955800000000167],[-108.21123600000936,32.955865000000159],[-108.21126800000937,32.955936000000172],[-108.21129600000937,32.955992000000151],[-108.21134100000937,32.956047000000154],[-108.21140400000935,32.956123000000154],[-108.21146700000935,32.956202000000161],[-108.21152100000936,32.956260000000164],[-108.21159400000936,32.956348000000155],[-108.21165800000935,32.95642200000016],[-108.21173500000936,32.956515000000167],[-108.21179700000935,32.956586000000172],[-108.21191500000934,32.956732000000166],[-108.21199700000933,32.956836000000166],[-108.21206600000934,32.95692000000016],[-108.21215400000933,32.957033000000159],[-108.21219700000934,32.957091000000162],[-108.21225000000933,32.957157000000159],[-108.21230500000934,32.957228000000164],[-108.21235000000934,32.957277000000161],[-108.21240100000934,32.95734600000015],[-108.21247400000932,32.957450000000158],[-108.21251100000933,32.957502000000154],[-108.21254300000933,32.957564000000154],[-108.21256800000933,32.957632000000153],[-108.21259300000932,32.957712000000164],[-108.21260800000933,32.957784000000153],[-108.21261700000932,32.957836000000157],[-108.21262800000932,32.957884000000163],[-108.21263000000933,32.957961000000161],[-108.21264200000932,32.958047000000164],[-108.21266200000932,32.95816400000016],[-108.21268900000932,32.958242000000169],[-108.21271800000932,32.958326000000163],[-108.21275000000934,32.95840600000016],[-108.21277500000932,32.958465000000153],[-108.21283900000932,32.958596000000156],[-108.21287100000933,32.958664000000169],[-108.21292200000934,32.958748000000163],[-108.21295800000932,32.958811000000154],[-108.21299500000931,32.958898000000154],[-108.21303700000931,32.958981000000158],[-108.2130900000093,32.959063000000157],[-108.21312000000931,32.959114000000163],[-108.21316900000932,32.959168000000155],[-108.21321000000931,32.95921800000017],[-108.2132700000093,32.959278000000161],[-108.21331100000933,32.959322000000164],[-108.21336000000932,32.959373000000156],[-108.21340100000933,32.959428000000152],[-108.2134440000093,32.959488000000157],[-108.21350700000932,32.959566000000173],[-108.21355400000931,32.959630000000153],[-108.2136150000093,32.959695000000167],[-108.2136720000093,32.959772000000157],[-108.21371500000929,32.959823000000164],[-108.21375500000931,32.959860000000155],[-108.2137940000093,32.959900000000154],[-108.2138560000093,32.959948000000161],[-108.21392800000929,32.960008000000173],[-108.2139840000093,32.960051000000163],[-108.21403800000928,32.960089000000167],[-108.2141050000093,32.960127000000163],[-108.21419000000928,32.960186000000164],[-108.2142690000093,32.960250000000151],[-108.21433700000928,32.960302000000148],[-108.21441200000929,32.96035500000017],[-108.21447400000928,32.960403000000156],[-108.21455100000928,32.96046600000016],[-108.21460800000928,32.960526000000158],[-108.21467400000928,32.96060100000016],[-108.21478200000928,32.960716000000147],[-108.21488500000928,32.960822000000157],[-108.21493800000928,32.96089100000016],[-108.21497500000928,32.960946000000156],[-108.21501500000927,32.961011000000163],[-108.21505700000928,32.961084000000156],[-108.21509600000928,32.961142000000159],[-108.21515700000927,32.961225000000162],[-108.21520300000925,32.961302000000167],[-108.21524800000925,32.961371000000156],[-108.21529500000925,32.961441000000164],[-108.21533700000927,32.961505000000159],[-108.21538400000927,32.961581000000152],[-108.21545000000927,32.961683000000164],[-108.21549700000926,32.961761000000166],[-108.21554300000926,32.961833000000162],[-108.21558600000927,32.961899000000166],[-108.21561400000927,32.961958000000166],[-108.21565000000925,32.962022000000154],[-108.21568500000924,32.962110000000159],[-108.21571700000925,32.962175000000158],[-108.21574300000925,32.962232000000164],[-108.21576400000924,32.962304000000167],[-108.21578300000925,32.962383000000166],[-108.21579600000925,32.962449000000163],[-108.21580000000925,32.962519000000171],[-108.21580200000925,32.962635000000162],[-108.21580700000925,32.962700000000162],[-108.21581300000925,32.962764000000156],[-108.21581700000924,32.962849000000155],[-108.21582800000925,32.962917000000161],[-108.21585400000924,32.963007000000154],[-108.21587600000925,32.963074000000162],[-108.21589500000925,32.963133000000163],[-108.21592200000926,32.963212000000169],[-108.21595100000926,32.963301000000158],[-108.21597100000925,32.963362000000153],[-108.21599400000925,32.963429000000176],[-108.21601400000925,32.96353100000016],[-108.21602900000926,32.963599000000173],[-108.21604000000926,32.963666000000167],[-108.21605000000925,32.963743000000157],[-108.21605600000925,32.963831000000162],[-108.21606400000925,32.96390400000017],[-108.21607400000926,32.96400100000016],[-108.21609500000925,32.964082000000147],[-108.21613200000925,32.964165000000165],[-108.21616200000925,32.964221000000165],[-108.21620700000923,32.964281000000156],[-108.21625000000924,32.964322000000152],[-108.21631800000924,32.964384000000159],[-108.21640200000924,32.96444000000016],[-108.21647200000923,32.964490000000154],[-108.21654900000924,32.964552000000161],[-108.21660500000924,32.964593000000157],[-108.21667900000922,32.964655000000157],[-108.21673100000923,32.964698000000155],[-108.21679500000923,32.964747000000152],[-108.21687200000922,32.964815000000165],[-108.21693100000923,32.964874000000158],[-108.21701200000922,32.964940000000169],[-108.21706800000922,32.964997000000153],[-108.21716300000922,32.965076000000167],[-108.21721900000922,32.965123000000148],[-108.21726200000923,32.965164000000165],[-108.21730900000921,32.965208000000153],[-108.2173670000092,32.965268000000158],[-108.2174350000092,32.965341000000166],[-108.2174800000092,32.965394000000167],[-108.21753500000921,32.965458000000154],[-108.2175980000092,32.965549000000166],[-108.21764200000921,32.965623000000164],[-108.2177050000092,32.965719000000163],[-108.2177560000092,32.965794000000145],[-108.2177900000092,32.965850000000167],[-108.21782900000922,32.965905000000156],[-108.21786100000919,32.965952000000158],[-108.21790000000919,32.966012000000163],[-108.2179320000092,32.966063000000169],[-108.21795400000921,32.966106000000167],[-108.21799300000922,32.966155000000164],[-108.21803200000919,32.966203000000171],[-108.21807600000919,32.966263000000154],[-108.2181510000092,32.966311000000147],[-108.2181970000092,32.966340000000159],[-108.21827200000919,32.966380000000157],[-108.21834300000921,32.966417000000156],[-108.21845000000918,32.966473000000164],[-108.21852700000919,32.966507000000149],[-108.21865700000917,32.966564000000147],[-108.21872800000918,32.96660800000015],[-108.21885100000918,32.966663000000153],[-108.21897400000917,32.966725000000146],[-108.21904900000918,32.966780000000156],[-108.21915100000918,32.966854000000161],[-108.21924800000916,32.966924000000134],[-108.21936100000917,32.967003000000162],[-108.21945200000918,32.967073000000148],[-108.21954500000915,32.967129000000149],[-108.21961400000917,32.967179000000158],[-108.21969500000915,32.967234000000154],[-108.21976400000915,32.967281000000156],[-108.21980400000916,32.967332000000162],[-108.21984500000917,32.967399000000157],[-108.21987100000915,32.967455000000164],[-108.21989400000916,32.967516000000153],[-108.21991800000916,32.96757600000015],[-108.21994700000916,32.967655000000171],[-108.21997300000915,32.967722000000165],[-108.21999600000915,32.967783000000153],[-108.22003600000915,32.967859000000153],[-108.22006200000915,32.967917000000142],[-108.22009200000915,32.96798600000016],[-108.22012800000915,32.968060000000165],[-108.22016800000915,32.968132000000153],[-108.22019600000914,32.968194000000153],[-108.22022500000914,32.968261000000155],[-108.22026500000915,32.968337000000155],[-108.22030200000916,32.968410000000155],[-108.22033200000915,32.968488000000157],[-108.22034800000914,32.968556000000156],[-108.22035700000916,32.968641000000154],[-108.22035700000916,32.968719000000164],[-108.22033300000913,32.968815000000156],[-108.22031000000915,32.968894000000162],[-108.22027900000916,32.968994000000158],[-108.22025400000915,32.969066000000154],[-108.22024000000916,32.969140000000159],[-108.22022400000915,32.969213000000167],[-108.22021800000915,32.969265000000156],[-108.22039200000916,32.969256000000151],[-108.22052200000914,32.969239000000158],[-108.22063800000912,32.969202000000159],[-108.22081300000914,32.96915100000016],[-108.22090800000913,32.969110000000164],[-108.22105000000913,32.969061000000167],[-108.22115000000912,32.969045000000143],[-108.22127300000912,32.96903400000015],[-108.22142500000912,32.969001000000155],[-108.22161700000912,32.968961000000157],[-108.22176500000911,32.968918000000151],[-108.22191300000911,32.968885000000164],[-108.22202400000911,32.968855000000161],[-108.22215900000911,32.968816000000146],[-108.22225300000909,32.968784000000156],[-108.22235400000909,32.968741000000151],[-108.22246600000909,32.968692000000146],[-108.2225470000091,32.96863600000016],[-108.22259700000909,32.968593000000148],[-108.22262900000909,32.968522000000149],[-108.22265200000909,32.968442000000152],[-108.22266900000909,32.968376000000163],[-108.22269600000909,32.968321000000167],[-108.22274200000909,32.968235000000163],[-108.22278600000908,32.968166000000153],[-108.22284300000908,32.968103000000148],[-108.22292400000909,32.968044000000155],[-108.22299300000908,32.968011000000146],[-108.22305100000908,32.967975000000159],[-108.22313000000908,32.96795200000016],[-108.22321000000908,32.967923000000148],[-108.22326800000909,32.967897000000164],[-108.22337100000908,32.967857000000159],[-108.22346400000907,32.967814000000153],[-108.22354500000908,32.967784000000144],[-108.22361000000906,32.967764000000159],[-108.22368700000906,32.967747000000145],[-108.22379100000907,32.96774400000016],[-108.22388200000906,32.967745000000143],[-108.22398100000906,32.967752000000146],[-108.22409600000906,32.967762000000157],[-108.22417000000905,32.967769000000153],[-108.22427800000906,32.967764000000166],[-108.22435300000906,32.967762000000157],[-108.22443800000904,32.967752000000154],[-108.22456800000906,32.967721000000147],[-108.22470100000905,32.967681000000155],[-108.22477200000904,32.967653000000155],[-108.22485800000904,32.967627000000149],[-108.22502400000903,32.967598000000159],[-108.22510300000904,32.96757900000015],[-108.22523200000904,32.967542000000172],[-108.22529000000902,32.967511000000165],[-108.22530800000902,32.967479000000154],[-108.22534600000904,32.967412000000159],[-108.22537500000904,32.967318000000141],[-108.22542700000902,32.967208000000156],[-108.22546900000904,32.967150000000146],[-108.22550300000903,32.967095000000143],[-108.22554700000903,32.967045000000148],[-108.22559900000901,32.966988000000143],[-108.22564700000902,32.966945000000159],[-108.22571500000902,32.966893000000162],[-108.22576000000902,32.966858000000165],[-108.22580600000903,32.96681800000016],[-108.22585700000901,32.966767000000154],[-108.22590300000903,32.966720000000166],[-108.22594600000902,32.966678000000158],[-108.22601800000902,32.966620000000155],[-108.226092000009,32.966568000000166],[-108.226166000009,32.966513000000148],[-108.22623100000901,32.966468000000155],[-108.22631800000902,32.966407000000153],[-108.22639400000901,32.96635300000014],[-108.22647200000901,32.966290000000164],[-108.22655700000901,32.966230000000159],[-108.22661800000901,32.966190000000147],[-108.226685000009,32.96615200000015],[-108.22674300000898,32.966121000000165],[-108.22680500000899,32.966090000000158],[-108.226881000009,32.966044000000153],[-108.226944000009,32.966011000000151],[-108.227011000009,32.965973000000133],[-108.227103000009,32.965934000000139],[-108.227163000009,32.965905000000163],[-108.22725400000898,32.965862000000151],[-108.22734900000899,32.965809000000164],[-108.22744400000899,32.965763000000159],[-108.22752800000899,32.965729000000152],[-108.22762300000898,32.965735000000159],[-108.22775400000899,32.965748000000154],[-108.22786200000897,32.965768000000146],[-108.22794600000897,32.965781000000156],[-108.22803900000896,32.965788000000153],[-108.22813000000896,32.965798000000149],[-108.22820600000897,32.965812000000163],[-108.22829500000897,32.965826000000156],[-108.22835400000898,32.965828000000151],[-108.22844400000896,32.965799000000146],[-108.22856900000896,32.965757000000153],[-108.22864600000895,32.965721000000158],[-108.22874800000895,32.965665000000151],[-108.22881900000895,32.965620000000143],[-108.22892500000896,32.965576000000162],[-108.22903900000894,32.96551900000015],[-108.22917200000894,32.965467000000153],[-108.22925600000895,32.965433000000161],[-108.22936400000894,32.965387000000156],[-108.22948400000894,32.965327000000158],[-108.22959900000892,32.965268000000151],[-108.22975500000892,32.965208000000146],[-108.22985000000894,32.965165000000148],[-108.23000900000892,32.965095000000147],[-108.2301110000089,32.96504900000015],[-108.23023400000891,32.964986000000167],[-108.23034600000892,32.96492500000015],[-108.2304490000089,32.96487900000016],[-108.23055400000891,32.964837000000152],[-108.2306210000089,32.964801000000151],[-108.2306910000089,32.964747000000152],[-108.2307500000089,32.964682000000167],[-108.23081000000892,32.964617000000146],[-108.2308850000089,32.964524000000146],[-108.23094600000891,32.964452000000158],[-108.23099700000891,32.964385000000163],[-108.23107200000891,32.964308000000152],[-108.23115700000888,32.964239000000148],[-108.23123300000888,32.964167000000153],[-108.2312960000089,32.964118000000155],[-108.23134300000889,32.964112000000142],[-108.23140000000889,32.964133000000153],[-108.23144500000889,32.964191000000163],[-108.2314740000089,32.96426500000014],[-108.23150600000889,32.964323000000149],[-108.23154500000889,32.964388000000156],[-108.23159000000889,32.964436000000156],[-108.23164800000889,32.964477000000159],[-108.23171700000889,32.96451400000015],[-108.23177600000888,32.964533000000145],[-108.23186500000888,32.964542000000144],[-108.23197500000889,32.964550000000159],[-108.23216800000888,32.96456200000015],[-108.23230300000887,32.964572000000146],[-108.23245800000886,32.964573000000144],[-108.23262600000886,32.964563000000147],[-108.23275600000886,32.964548000000136],[-108.23288200000886,32.96451700000015],[-108.23297700000886,32.964477000000159],[-108.23306000000885,32.96444400000015],[-108.23312000000885,32.96442700000015],[-108.23318200000885,32.964432000000158],[-108.23328400000885,32.964475000000149],[-108.23337000000885,32.964518000000147],[-108.23343900000884,32.964549000000147],[-108.23353400000885,32.964585000000149],[-108.23364100000884,32.964605000000148],[-108.23376000000884,32.96460600000016],[-108.23389500000883,32.964582000000156],[-108.23401000000882,32.964558000000146],[-108.23410400000883,32.96454500000015],[-108.23420800000882,32.964535000000147],[-108.23431000000882,32.964536000000145],[-108.23445000000882,32.964539000000137],[-108.2345800000088,32.964529000000141],[-108.23471300000881,32.964523000000142],[-108.23479400000882,32.964527000000153],[-108.23491400000881,32.964551000000149],[-108.23504900000881,32.964593000000143],[-108.23517000000879,32.964642000000147],[-108.23528300000879,32.964688000000152],[-108.23537600000881,32.964727000000153],[-108.23547500000879,32.964748000000149],[-108.23557800000881,32.964757000000141],[-108.23565900000879,32.964759000000143],[-108.23579200000879,32.96473100000015],[-108.2358980000088,32.964716000000159],[-108.23598300000879,32.964716000000152],[-108.23606900000878,32.964743000000155],[-108.23608100000878,32.964748000000142],[-108.23612200000878,32.964765000000142],[-108.23617500000879,32.964810000000149],[-108.23621400000877,32.964866000000164],[-108.23622300000879,32.964916000000152],[-108.23620000000878,32.964966000000146],[-108.2361540000088,32.965017000000167],[-108.2361080000088,32.965071000000158],[-108.2360620000088,32.96512200000015],[-108.23601000000879,32.965200000000159],[-108.2359940000088,32.965226000000143],[-108.2359340000088,32.965327000000151],[-108.23589100000879,32.965417000000159],[-108.2358590000088,32.965509000000154],[-108.23583100000879,32.965584000000142],[-108.23581300000879,32.965676000000151],[-108.2358100000088,32.965775000000157],[-108.23582700000878,32.965845000000144],[-108.23584600000879,32.965908000000155],[-108.23586800000878,32.96595100000016],[-108.2358820000088,32.965971000000145],[-108.23591100000878,32.966011000000144],[-108.23596200000878,32.966077000000155],[-108.23603000000878,32.966132000000151],[-108.2361030000088,32.966189000000149],[-108.23618300000877,32.966255000000153],[-108.23627000000879,32.966331000000146],[-108.23633800000879,32.966393000000139],[-108.23637900000878,32.966433000000151],[-108.23643100000876,32.966488000000147],[-108.23650100000879,32.966558000000163],[-108.23659800000878,32.966642000000164],[-108.23667800000878,32.96671400000016],[-108.23674400000877,32.966778000000154],[-108.23685600000877,32.966870000000149],[-108.23693500000877,32.96692700000014],[-108.23700800000876,32.96697500000014],[-108.23708500000876,32.967023000000147],[-108.23713300000875,32.967055000000137],[-108.23720900000876,32.96710800000016],[-108.23732400000877,32.967179000000151],[-108.23739500000875,32.96722700000015],[-108.23749700000876,32.967283000000158],[-108.23759300000876,32.96732100000014],[-108.23767700000876,32.967349000000141],[-108.23780400000875,32.967390000000144],[-108.23791000000874,32.967453000000148],[-108.23799900000874,32.967526000000142],[-108.23809000000874,32.967598000000152],[-108.23820300000874,32.967701000000147],[-108.23828600000874,32.967782000000142],[-108.23836400000874,32.967864000000148],[-108.23842300000874,32.967940000000155],[-108.23848600000872,32.968024000000149],[-108.23852900000874,32.968073000000153],[-108.23858500000873,32.968133000000137],[-108.23864000000873,32.968204000000156],[-108.23869900000872,32.968270000000146],[-108.23876100000872,32.968332000000146],[-108.23882100000873,32.968398000000128],[-108.23885800000872,32.968438000000148],[-108.23891500000873,32.968491000000142],[-108.23896300000874,32.968541000000158],[-108.23900800000874,32.968586000000151],[-108.23907600000871,32.968640000000157],[-108.23917300000871,32.968726000000146],[-108.23925000000871,32.968798000000149],[-108.23930100000871,32.968843000000149],[-108.23938900000871,32.968946000000152],[-108.23944200000872,32.969022000000152],[-108.23948700000872,32.969084000000137],[-108.23954200000871,32.969149000000158],[-108.23958500000872,32.969204000000154],[-108.23962400000872,32.969260000000148],[-108.23965600000869,32.969320000000145],[-108.2396920000087,32.969375000000149],[-108.23974100000869,32.969431000000142],[-108.2398210000087,32.969478000000144],[-108.2398770000087,32.969502000000148],[-108.23996700000869,32.96953600000014],[-108.24003900000869,32.969565000000145],[-108.2401270000087,32.969590000000146],[-108.24026800000868,32.969634000000134],[-108.24033100000868,32.969666000000146],[-108.24038500000869,32.96970100000015],[-108.2404260000087,32.969745000000152],[-108.24045600000868,32.969790000000152],[-108.24047200000868,32.969834000000134],[-108.24048900000868,32.969882000000148],[-108.24053400000868,32.969955000000134],[-108.24058900000868,32.970019000000157],[-108.2406780000087,32.97009600000014],[-108.24077100000868,32.970180000000141],[-108.24083300000866,32.970232000000159],[-108.24088600000867,32.970285000000153],[-108.24093800000868,32.970347000000132],[-108.24098700000869,32.970405000000156],[-108.24106500000869,32.970484000000134],[-108.24113700000868,32.970552000000147],[-108.24123100000868,32.970618000000158],[-108.24133100000867,32.970674000000159],[-108.24141000000866,32.970719000000159],[-108.24150800000865,32.970771000000148],[-108.24157900000867,32.970810000000149],[-108.24163300000865,32.970845000000146],[-108.24170400000867,32.970881000000148],[-108.24178200000867,32.970920000000149],[-108.24183800000866,32.970950000000144],[-108.24191300000867,32.970980000000147],[-108.24199300000863,32.971012000000151],[-108.24209100000866,32.971057000000151],[-108.24217500000866,32.97109500000014],[-108.24226100000865,32.971144000000145],[-108.24233800000866,32.971179000000141],[-108.24246100000866,32.971252000000142],[-108.24254400000864,32.971307000000152],[-108.24262400000865,32.971348000000155],[-108.24271100000864,32.971395000000143],[-108.24280700000864,32.971449000000149],[-108.24289300000864,32.971496000000151],[-108.24296800000864,32.971540000000147],[-108.24304100000865,32.971583000000152],[-108.24326700000863,32.97173700000014],[-108.24336800000863,32.971787000000148],[-108.24348300000862,32.971834000000143],[-108.24360000000863,32.971882000000143],[-108.24369500000861,32.971921000000151],[-108.24379900000861,32.971967000000156],[-108.24386800000862,32.972002000000145],[-108.24394000000861,32.972032000000141],[-108.24400000000861,32.972064000000152],[-108.24407100000863,32.972094000000148],[-108.24413600000861,32.972128000000147],[-108.24420500000859,32.972165000000153],[-108.24425500000861,32.972195000000141],[-108.2443030000086,32.972223000000149],[-108.2443550000086,32.972265000000156],[-108.24439100000859,32.972316000000149],[-108.24443500000859,32.972351000000153],[-108.2444890000086,32.972393000000153],[-108.24453600000859,32.972446000000147],[-108.2445900000086,32.972494000000161],[-108.24462700000859,32.97252800000016],[-108.2446470000086,32.972547000000141],[-108.2447210000086,32.972620000000148],[-108.24476700000858,32.972666000000153],[-108.2448200000086,32.972721000000149],[-108.24487000000859,32.972759000000153],[-108.24496600000859,32.972821000000152],[-108.24510200000859,32.972879000000141],[-108.24518600000859,32.97291500000015],[-108.24525100000858,32.972941000000155],[-108.2453320000086,32.972972000000148],[-108.24541000000858,32.973002000000143],[-108.24549400000856,32.973033000000143],[-108.24557600000857,32.973061000000151],[-108.24566500000857,32.973078000000136],[-108.24574900000859,32.973094000000145],[-108.24585200000858,32.973119000000132],[-108.24593900000858,32.973139000000153],[-108.24606700000855,32.973165000000144],[-108.24611100000855,32.97317200000014],[-108.24619000000855,32.973184000000138],[-108.24629700000855,32.97320300000014],[-108.24644300000857,32.973224000000144],[-108.24657200000856,32.973241000000144],[-108.24672600000855,32.973262000000148],[-108.24685100000856,32.973276000000141],[-108.24699300000854,32.973288000000139],[-108.24713300000855,32.973291000000138],[-108.24723100000854,32.973288000000139],[-108.24732100000854,32.973272000000144],[-108.24737500000855,32.97323700000014],[-108.24746800000854,32.973164000000139],[-108.24755100000854,32.973085000000133],[-108.24761300000853,32.973006000000133],[-108.24765500000852,32.972944000000133],[-108.24773200000853,32.972875000000151],[-108.24773500000853,32.972873000000149],[-108.24799400000853,32.973073000000134],[-108.24809600000852,32.973119000000132],[-108.24814200000853,32.973193000000151],[-108.24819700000853,32.973277000000138],[-108.24826200000851,32.973382000000136],[-108.24832900000851,32.973475000000143],[-108.24839200000851,32.973556000000137],[-108.24843700000851,32.973618000000144],[-108.24848200000851,32.973675000000142],[-108.24853300000851,32.973726000000141],[-108.24858300000851,32.973774000000134],[-108.24863200000851,32.97382100000015],[-108.24866100000851,32.973852000000136],[-108.24869600000851,32.973889000000149],[-108.24873500000851,32.973936000000144],[-108.24876500000852,32.97398000000014],[-108.24881000000852,32.974031000000132],[-108.24883900000852,32.97408000000015],[-108.2488670000085,32.974129000000147],[-108.2489030000085,32.974189000000145],[-108.2489860000085,32.974316000000144],[-108.2490440000085,32.974437000000137],[-108.2490950000085,32.974511000000149],[-108.2491450000085,32.974589000000137],[-108.2491900000085,32.974671000000143],[-108.2492320000085,32.974740000000132],[-108.2492850000085,32.974825000000145],[-108.24933800000849,32.974896000000136],[-108.2493820000085,32.974954000000139],[-108.24941700000848,32.97500700000014],[-108.24946600000848,32.975071000000135],[-108.24952400000848,32.975115000000137],[-108.24959100000848,32.97515600000014],[-108.24964500000848,32.975182000000139],[-108.24971200000849,32.975214000000143],[-108.24979500000849,32.975262000000136],[-108.24983200000848,32.975304000000136],[-108.24990900000849,32.975363000000144],[-108.24996300000848,32.975407000000139],[-108.25001500000847,32.975448000000149],[-108.25007100000848,32.97549000000015],[-108.25011200000847,32.975527000000142],[-108.25018300000848,32.975568000000138],[-108.25023900000848,32.975603000000149],[-108.25030400000847,32.975624000000145],[-108.25037200000848,32.975636000000151],[-108.25048400000847,32.97565300000015],[-108.25058500000848,32.975662000000142],[-108.25069500000845,32.975674000000133],[-108.25078600000847,32.975686000000145],[-108.25089200000846,32.975705000000147],[-108.25096900000845,32.975732000000164],[-108.25105300000845,32.975769000000135],[-108.25113500000846,32.975803000000148],[-108.25122700000844,32.975841000000145],[-108.25132200000846,32.975875000000144],[-108.25140800000845,32.975897000000153],[-108.25151300000844,32.975931000000138],[-108.25160800000845,32.975962000000145],[-108.25168300000844,32.975982000000137],[-108.25177600000845,32.975998000000139],[-108.25187400000844,32.976011000000149],[-108.25199600000843,32.976023000000133],[-108.25213200000844,32.976035000000138],[-108.25223100000844,32.97605100000014],[-108.25234900000842,32.976068000000133],[-108.25243200000841,32.976082000000147],[-108.25252000000843,32.976109000000136],[-108.25258900000843,32.976139000000138],[-108.25264500000841,32.976175000000133],[-108.25273300000843,32.976228000000148],[-108.25278300000842,32.976260000000131],[-108.25286200000841,32.976303000000151],[-108.25292900000841,32.976342000000152],[-108.25303700000842,32.976410000000136],[-108.25311000000841,32.976455000000136],[-108.25317500000841,32.976487000000148],[-108.25325600000841,32.976539000000145],[-108.25331300000842,32.976561000000146],[-108.25339300000842,32.976572000000139],[-108.25348000000841,32.976565000000136],[-108.2535550000084,32.976551000000143],[-108.2536470000084,32.976521000000147],[-108.2537030000084,32.976491000000145],[-108.2537530000084,32.976471000000146],[-108.2538340000084,32.976460000000138],[-108.25390200000838,32.976456000000148],[-108.25397600000839,32.976467000000149],[-108.25404900000839,32.976483000000151],[-108.25415700000839,32.976503000000129],[-108.25427300000838,32.976534000000143],[-108.25435500000839,32.976554000000149],[-108.25444200000838,32.976570000000152],[-108.25451800000839,32.976586000000133],[-108.25459600000839,32.976597000000133],[-108.25467400000838,32.976591000000141],[-108.25478800000838,32.976560000000141],[-108.25485700000837,32.976522000000145],[-108.25492500000837,32.976447000000142],[-108.25496300000837,32.976392000000132],[-108.25499600000838,32.976339000000138],[-108.25501900000837,32.976298000000142],[-108.25505500000837,32.976237000000133],[-108.25508700000837,32.976171000000136],[-108.25512800000837,32.976079000000148],[-108.25515300000838,32.976017000000134],[-108.25516800000837,32.975940000000136],[-108.25518900000837,32.975882000000148],[-108.25521900000837,32.975814000000149],[-108.25527000000835,32.975735000000142],[-108.25533300000835,32.975670000000143],[-108.25538600000837,32.975614000000142],[-108.25542600000836,32.975543000000137],[-108.25547500000836,32.975491000000147],[-108.25553900000835,32.975483000000139],[-108.25561000000836,32.975512000000144],[-108.25568900000837,32.975549000000136],[-108.25576800000836,32.975610000000145],[-108.25585300000836,32.975685000000134],[-108.25593200000834,32.975741000000141],[-108.25604400000834,32.975829000000132],[-108.25611600000835,32.975890000000142],[-108.25623100000834,32.975942000000138],[-108.25634300000834,32.975980000000135],[-108.25644400000834,32.976013000000144],[-108.25654900000835,32.976044000000151],[-108.25664300000834,32.976073000000142],[-108.25674000000832,32.976098000000142],[-108.25681400000833,32.976114000000138],[-108.25688600000834,32.976132000000128],[-108.25696800000834,32.976143000000143],[-108.25706700000833,32.976156000000145],[-108.25713900000831,32.976166000000141],[-108.25720500000831,32.976168000000136],[-108.25727700000833,32.976166000000148],[-108.25734700000832,32.976172000000126],[-108.25746700000832,32.976197000000134],[-108.25757900000832,32.976212000000146],[-108.25769400000831,32.976214000000148],[-108.25781100000832,32.976213000000151],[-108.2579190000083,32.976201000000145],[-108.25801700000829,32.976191000000142],[-108.25810900000832,32.976186000000133],[-108.25817600000832,32.97619300000013],[-108.2582510000083,32.976198000000139],[-108.25832000000828,32.976210000000144],[-108.25839400000828,32.976221000000145],[-108.25847400000829,32.976240000000139],[-108.2585400000083,32.97625100000014],[-108.25861100000829,32.976266000000145],[-108.2586790000083,32.976293000000133],[-108.25874400000828,32.976300000000144],[-108.2588040000083,32.976280000000138],[-108.25884800000829,32.976250000000142],[-108.25890900000829,32.976173000000152],[-108.25896800000828,32.976128000000138],[-108.25902800000829,32.97609900000014],[-108.25909900000829,32.976077000000132],[-108.25918300000828,32.976059000000134],[-108.25924400000828,32.976048000000141],[-108.25931700000827,32.976042000000142],[-108.25939700000828,32.976049000000145],[-108.25946900000828,32.976071000000125],[-108.25955300000827,32.976105000000139],[-108.25963600000827,32.976148000000137],[-108.25969000000828,32.976179000000144],[-108.25972800000827,32.976209000000139],[-108.25975800000828,32.976259000000141],[-108.25978600000828,32.976307000000148],[-108.25981800000827,32.976372000000126],[-108.25983800000827,32.976422000000149],[-108.25986300000827,32.97649300000014],[-108.25987700000827,32.976534000000136],[-108.25989600000827,32.976599000000149],[-108.25990700000827,32.97665500000015],[-108.25991800000827,32.976717000000143],[-108.25992200000827,32.976784000000151],[-108.25992700000828,32.976845000000139],[-108.25994200000827,32.976893000000125],[-108.25995700000827,32.976953000000151],[-108.25997800000827,32.977026000000151],[-108.26000100000827,32.977129000000133],[-108.26002000000827,32.977194000000132],[-108.26003100000827,32.977255000000127],[-108.26002800000828,32.977328000000128],[-108.26002000000827,32.977385000000133],[-108.26001800000827,32.977457000000136],[-108.26002600000827,32.977543000000146],[-108.26004600000827,32.977592000000136],[-108.26007400000827,32.977637000000144],[-108.26010700000826,32.977682000000151],[-108.26013700000826,32.977717000000126],[-108.26017900000825,32.97776100000015],[-108.26022200000826,32.977796000000133],[-108.26027600000826,32.977833000000139],[-108.26033700000826,32.977865000000143],[-108.26038900000826,32.97790000000014],[-108.26045500000825,32.977939000000148],[-108.26053100000826,32.977967000000142],[-108.26060200000826,32.978001000000134],[-108.26066500000826,32.978029000000134],[-108.26075100000824,32.978070000000152],[-108.26080700000824,32.97809700000014],[-108.26087200000825,32.978130000000135],[-108.26093200000825,32.978164000000135],[-108.26096900000826,32.978208000000151],[-108.26104400000824,32.978254000000142],[-108.26110500000824,32.978282000000128],[-108.26118100000824,32.978295000000138],[-108.26129300000822,32.97829700000014],[-108.26136700000824,32.978302000000149],[-108.26144800000824,32.978318000000137],[-108.26153000000822,32.978343000000137],[-108.26161800000823,32.978365000000124],[-108.26170700000823,32.978385000000145],[-108.26177600000823,32.978401000000133],[-108.26186500000821,32.978426000000134],[-108.26196100000821,32.97846400000013],[-108.26203200000822,32.978492000000131],[-108.26208700000821,32.978508000000133],[-108.26213600000821,32.978516000000134],[-108.26219500000823,32.978508000000133],[-108.26228400000821,32.978465000000149],[-108.26234700000822,32.978417000000142],[-108.26239500000821,32.978368000000152],[-108.26243900000821,32.978315000000144],[-108.26249400000822,32.978246000000141],[-108.26255400000819,32.978182000000132],[-108.26263400000821,32.978114000000133],[-108.26270100000822,32.978068000000142],[-108.2627490000082,32.978039000000152],[-108.26281400000821,32.978012000000135],[-108.2628820000082,32.977994000000137],[-108.26294400000822,32.977990000000148],[-108.26303900000819,32.978006000000143],[-108.26312300000818,32.978024000000133],[-108.2632140000082,32.978048000000143],[-108.2632960000082,32.978067000000138],[-108.26338200000819,32.978092000000132],[-108.26345100000819,32.978119000000135],[-108.26356300000819,32.978150000000134],[-108.26364500000817,32.97817700000013],[-108.26373700000818,32.97820700000014],[-108.26381300000817,32.978229000000134],[-108.26389500000818,32.97825200000014],[-108.26396300000819,32.978266000000126],[-108.26403000000818,32.978285000000142],[-108.26413100000819,32.978309000000131],[-108.26421200000816,32.978325000000119],[-108.26431300000817,32.978344000000142],[-108.26441400000817,32.978360000000137],[-108.26447900000817,32.978379000000139],[-108.26457200000817,32.97841200000012],[-108.26466400000817,32.978435000000133],[-108.26473400000816,32.978455000000139],[-108.26482400000818,32.978476000000136],[-108.26489400000816,32.978489000000138],[-108.26496200000815,32.978499000000134],[-108.26502700000816,32.978502000000134],[-108.26513300000816,32.978503000000138],[-108.26523500000816,32.978502000000127],[-108.26533900000815,32.978502000000134],[-108.26542400000815,32.978506000000138],[-108.26550700000814,32.978500000000118],[-108.26562400000815,32.978496000000128],[-108.26573700000814,32.978486000000117],[-108.26587500000814,32.978469000000132],[-108.26600100000815,32.978445000000136],[-108.26609400000814,32.978413000000131],[-108.26615200000813,32.978382000000146],[-108.26621900000814,32.978341000000142],[-108.26627800000813,32.978285000000142],[-108.26631100000813,32.978239000000144],[-108.26633600000812,32.978189000000128],[-108.26636700000813,32.978140000000138],[-108.26640000000813,32.978107000000136],[-108.26647100000812,32.978065000000136],[-108.26653800000813,32.978051000000129],[-108.26662300000812,32.978047000000146],[-108.26671100000813,32.978074000000134],[-108.26675500000812,32.978102000000135],[-108.26681700000812,32.978155000000143],[-108.26690800000813,32.978230000000131],[-108.26694300000811,32.978271000000134],[-108.26698700000811,32.978338000000143],[-108.26704100000812,32.978400000000136],[-108.26709600000811,32.978455000000139],[-108.26714200000812,32.97849500000013],[-108.26719800000811,32.978543000000144],[-108.26725900000811,32.97860100000014],[-108.26730500000812,32.978645000000135],[-108.26735000000811,32.978696000000141],[-108.26739100000812,32.978738000000149],[-108.2674470000081,32.978795000000133],[-108.2675050000081,32.978836000000136],[-108.26755500000812,32.978873000000149],[-108.2676110000081,32.978908000000139],[-108.2676780000081,32.978945000000138],[-108.2677400000081,32.978991000000136],[-108.26782300000812,32.97904100000013],[-108.2678880000081,32.979080000000138],[-108.26795900000809,32.979121000000134],[-108.2680110000081,32.979156000000138],[-108.2680810000081,32.979210000000151],[-108.26812300000809,32.979238000000137],[-108.2681850000081,32.979289000000144],[-108.2682260000081,32.979322000000138],[-108.26827400000809,32.979357000000135],[-108.26830900000809,32.979397000000141],[-108.26835600000808,32.979445000000126],[-108.2684290000081,32.979498000000135],[-108.26849300000808,32.97955200000014],[-108.26858000000809,32.979616000000135],[-108.26864500000808,32.979653000000134],[-108.26873600000809,32.979723000000128],[-108.26879500000808,32.979760000000141],[-108.26886300000808,32.979801000000137],[-108.26892000000808,32.97982900000013],[-108.26897600000807,32.979861000000128],[-108.26903500000809,32.979893000000146],[-108.26909800000809,32.979915000000126],[-108.26916700000807,32.979944000000145],[-108.26920100000805,32.979956000000143],[-108.26924200000808,32.979971000000127],[-108.26930500000807,32.979995000000137],[-108.26938300000808,32.98000900000013],[-108.26944400000806,32.980027000000135],[-108.26951100000807,32.980057000000137],[-108.26957200000805,32.980092000000134],[-108.26966800000805,32.980128000000136],[-108.26973100000805,32.980171000000134],[-108.26979100000804,32.980212000000144],[-108.26987900000805,32.980264000000126],[-108.26993400000806,32.98029800000014],[-108.26994300000806,32.980304000000139],[-108.26999900000806,32.980341000000145],[-108.27006400000806,32.980382000000141],[-108.27014500000804,32.980432000000135],[-108.27022400000806,32.980498000000132],[-108.27029500000805,32.980543000000125],[-108.27035300000806,32.980587000000135],[-108.27040500000803,32.980626000000136],[-108.27045000000803,32.980661000000126],[-108.27051500000805,32.980694000000135],[-108.27055700000804,32.980722000000135],[-108.27060100000804,32.980739000000135],[-108.27063400000804,32.980749000000124],[-108.27070000000803,32.980754000000132],[-108.27084000000805,32.98074100000013],[-108.27096400000804,32.980711000000127],[-108.27108900000803,32.980675000000133],[-108.27120400000803,32.980647000000133],[-108.27134600000802,32.980605000000139],[-108.27149400000803,32.980548000000127],[-108.27159500000802,32.980518000000131],[-108.27168500000802,32.980489000000127],[-108.27179400000801,32.980449000000128],[-108.27186700000802,32.980418000000128],[-108.27192100000802,32.980387000000142],[-108.27196000000802,32.980359000000128],[-108.27197300000802,32.980343000000133],[-108.27199600000802,32.980315000000132],[-108.27203500000802,32.980262000000131],[-108.27205900000801,32.980200000000146],[-108.27207800000801,32.980127000000138],[-108.27208400000802,32.980065000000145],[-108.27208400000802,32.979993000000135],[-108.27207600000801,32.979913000000131],[-108.27207600000801,32.979834000000132],[-108.27207300000802,32.979755000000132],[-108.27207300000802,32.979748000000129],[-108.27207600000801,32.97969300000014],[-108.27208000000802,32.979630000000128],[-108.27209100000802,32.979559000000144],[-108.27210800000802,32.979484000000134],[-108.27212500000802,32.979432000000138],[-108.27214900000801,32.979388000000135],[-108.27217800000801,32.979353000000138],[-108.272206000008,32.979330000000139],[-108.272250000008,32.979301000000135],[-108.27229200000799,32.979295000000135],[-108.272350000008,32.979292000000136],[-108.27241700000801,32.979303000000144],[-108.272469000008,32.979342000000145],[-108.272520000008,32.979409000000132],[-108.27257300000799,32.97947600000014],[-108.27261400000801,32.979531000000136],[-108.27266400000801,32.979577000000127],[-108.272738000008,32.979639000000134],[-108.272783000008,32.979687000000133],[-108.272813000008,32.979711000000137],[-108.27286400000798,32.97975300000013],[-108.272937000008,32.979808000000141],[-108.27300300000799,32.979858000000142],[-108.27306400000801,32.979888000000138],[-108.27312500000798,32.979912000000134],[-108.27320000000799,32.979930000000145],[-108.27332700000798,32.979956000000143],[-108.27341800000799,32.979965000000128],[-108.27354800000798,32.979963000000133],[-108.27366000000799,32.97996700000013],[-108.27375800000799,32.979971000000127],[-108.27385300000797,32.979980000000133],[-108.27396000000797,32.980004000000136],[-108.27403600000798,32.980031000000139],[-108.27411800000797,32.980065000000145],[-108.27413000000797,32.980069000000142],[-108.27419300000795,32.980093000000124],[-108.27427700000796,32.980125000000136],[-108.27434600000795,32.980152000000132],[-108.27440700000797,32.980168000000141],[-108.27448600000795,32.980178000000137],[-108.27455400000797,32.980180000000132],[-108.27458600000796,32.980174000000126],[-108.27462200000795,32.980167000000144],[-108.27469200000795,32.980149000000139],[-108.27475700000795,32.980118000000139],[-108.27481100000794,32.980085000000145],[-108.27486800000794,32.980024000000135],[-108.27492300000796,32.979966000000132],[-108.27495400000794,32.979927000000139],[-108.27501900000796,32.979819000000127],[-108.27504400000794,32.979754000000121],[-108.27506500000794,32.979701000000134],[-108.27508100000794,32.979649000000137],[-108.27509400000795,32.979585000000121],[-108.27509600000795,32.979522000000138],[-108.27509400000795,32.97945600000012],[-108.27508500000795,32.979384000000145],[-108.27507700000794,32.979307000000134],[-108.27505200000796,32.97922100000013],[-108.27500400000795,32.979112000000136],[-108.27499500000795,32.979091000000132],[-108.27493400000795,32.978993000000131],[-108.27488100000795,32.978917000000131],[-108.27482800000796,32.978831000000142],[-108.27480200000795,32.978793000000131],[-108.27479100000795,32.978722000000133],[-108.27463400000798,32.978531000000132],[-108.27435500000796,32.978188000000138],[-108.27387300000797,32.97729500000014],[-108.27358500000797,32.976898000000133],[-108.27358500000797,32.976886000000135],[-108.27358500000797,32.976739000000137],[-108.27358800000799,32.976643000000138],[-108.27358600000798,32.976561000000132],[-108.27359300000798,32.976482000000132],[-108.27359500000797,32.976421000000137],[-108.27359700000797,32.976362000000123],[-108.27360100000797,32.976291000000138],[-108.27360600000797,32.976216000000136],[-108.27361400000797,32.976160000000135],[-108.27363000000797,32.976112000000128],[-108.27365800000797,32.976036000000136],[-108.27367600000798,32.975983000000127],[-108.27370800000797,32.975932000000128],[-108.27374100000797,32.975888000000133],[-108.27377900000798,32.975828000000128],[-108.27380600000797,32.975787000000125],[-108.27384100000798,32.975754000000144],[-108.27387700000797,32.97572600000013],[-108.27391600000797,32.975711000000125],[-108.27397400000797,32.975692000000137],[-108.27403900000796,32.975662000000135],[-108.27412200000798,32.975642000000136],[-108.27419700000796,32.975624000000131],[-108.27430200000796,32.975603000000135],[-108.27440200000795,32.975582000000145],[-108.27450600000796,32.975568000000131],[-108.27460400000795,32.97555600000014],[-108.27469500000797,32.975563000000129],[-108.27480100000794,32.975576000000139],[-108.27490900000794,32.975595000000119],[-108.27503200000794,32.975608000000129],[-108.27512200000794,32.975632000000132],[-108.27520400000795,32.975653000000136],[-108.27529100000795,32.975676000000128],[-108.27538700000794,32.975707000000142],[-108.27549500000794,32.975736000000126],[-108.27558100000793,32.975772000000141],[-108.27564100000794,32.975806000000134],[-108.27570300000792,32.975854000000126],[-108.27576100000793,32.975898000000129],[-108.27582400000793,32.975947000000133],[-108.27587700000794,32.976002000000143],[-108.27594300000791,32.976059000000134],[-108.27599300000793,32.976096000000133],[-108.27607000000792,32.976151000000137],[-108.27613400000793,32.97619600000013],[-108.27621200000793,32.976233000000136],[-108.27629400000792,32.976256000000134],[-108.27640400000793,32.976271000000125],[-108.27653700000792,32.976280000000138],[-108.2766080000079,32.976310000000133],[-108.27663500000791,32.976350000000132],[-108.27665400000791,32.976399000000129],[-108.27667200000792,32.97646500000014],[-108.27669100000792,32.976528000000137],[-108.27671400000791,32.976591000000134],[-108.27674600000792,32.976653000000141],[-108.27678300000791,32.976707000000125],[-108.27682200000791,32.976760000000127],[-108.27685200000792,32.976804000000129],[-108.27689100000792,32.976853000000133],[-108.27691300000789,32.976889000000128],[-108.27692500000792,32.976909000000134],[-108.27695400000792,32.976944000000131],[-108.27698400000791,32.976991000000126],[-108.27701500000792,32.977040000000137],[-108.27705300000791,32.977100000000128],[-108.27706700000792,32.977120000000127],[-108.27709600000792,32.977158000000138],[-108.27710800000791,32.977172000000138],[-108.2771910000079,32.977259000000124],[-108.27719900000791,32.977267000000118],[-108.2772280000079,32.977290000000146],[-108.27728000000791,32.977319000000129],[-108.27733000000791,32.977345000000135],[-108.27739700000789,32.977368000000133],[-108.27753200000789,32.977405000000125],[-108.2776160000079,32.977427000000141],[-108.2777110000079,32.977450000000125],[-108.27780000000789,32.977474000000129],[-108.27791300000789,32.977507000000138],[-108.27794400000789,32.977516000000136],[-108.27799500000789,32.977532000000132],[-108.27813900000788,32.977555000000145],[-108.27823600000789,32.977575000000137],[-108.27834400000789,32.977582000000126],[-108.27845000000788,32.977579000000134],[-108.27853500000788,32.977569000000138],[-108.27864400000787,32.977557000000139],[-108.27872700000788,32.977542000000128],[-108.27884500000788,32.977511000000121],[-108.27896000000788,32.977485000000129],[-108.27904300000786,32.977474000000136],[-108.27908500000787,32.977513000000123],[-108.27910200000785,32.977567000000136],[-108.27911600000786,32.977613000000133],[-108.27913300000786,32.977676000000123],[-108.27914500000786,32.977752000000137],[-108.27915500000786,32.977838000000126],[-108.27916600000786,32.977906000000132],[-108.27920000000786,32.977971000000132],[-108.27924100000786,32.978029000000127],[-108.27927600000785,32.978068000000135],[-108.27931500000786,32.978115000000138],[-108.27939700000786,32.978196000000118],[-108.27944700000786,32.978238000000125],[-108.27950100000785,32.978273000000129],[-108.27956600000788,32.978305000000127],[-108.27964100000786,32.978337000000138],[-108.27972900000785,32.978367000000127],[-108.27982200000785,32.978403000000135],[-108.27989300000785,32.978425000000129],[-108.27995200000784,32.978439000000137],[-108.28002200000785,32.978458000000131],[-108.28008500000784,32.978472000000131],[-108.28014400000785,32.978489000000124],[-108.28020300000784,32.978498000000137],[-108.28026200000784,32.978504000000122],[-108.28032300000784,32.978513000000127],[-108.28037400000784,32.978523000000123],[-108.28047400000783,32.978536000000133],[-108.28049000000783,32.978538000000128],[-108.28062600000784,32.978561000000127],[-108.28071000000784,32.978586000000135],[-108.28083000000782,32.978606000000127],[-108.28092700000784,32.978626000000126],[-108.28102900000783,32.978641000000138],[-108.28112600000783,32.978648000000128],[-108.28121500000782,32.978650000000137],[-108.28130600000783,32.978652000000139],[-108.28139800000783,32.978644000000131],[-108.28146800000783,32.978634000000142],[-108.28154100000782,32.978602000000116],[-108.28161900000782,32.978568000000138],[-108.28167500000782,32.978539000000119],[-108.28175200000781,32.978519000000126],[-108.28182400000782,32.978519000000134],[-108.28188100000781,32.978545000000132],[-108.2819130000078,32.978587000000118],[-108.28191600000781,32.978639000000129],[-108.28191400000782,32.978698000000129],[-108.28189700000782,32.978773000000132],[-108.28189300000781,32.978842000000128],[-108.28190100000782,32.978918000000128],[-108.28191800000782,32.978972000000127],[-108.28194900000781,32.979028000000127],[-108.28197900000782,32.979080000000124],[-108.2820050000078,32.979124000000134],[-108.28203400000781,32.979162000000123],[-108.28209800000782,32.979213000000129],[-108.2821520000078,32.979247000000136],[-108.2822000000078,32.979264000000128],[-108.2822570000078,32.979283000000137],[-108.28231600000778,32.979304000000141],[-108.28239600000779,32.979318000000127],[-108.2824740000078,32.97932700000014],[-108.28248700000781,32.979327000000133],[-108.2825830000078,32.979326000000135],[-108.2826480000078,32.979331000000137],[-108.28273300000779,32.979336000000124],[-108.28280700000779,32.979343000000128],[-108.28289400000779,32.979351000000136],[-108.28295500000779,32.979359000000137],[-108.28305400000779,32.979379000000137],[-108.28312000000778,32.979393000000144],[-108.28319300000778,32.979423000000125],[-108.28327800000778,32.979481000000128],[-108.28336100000779,32.979542000000137],[-108.28344500000777,32.979593000000129],[-108.28352400000777,32.97964500000014],[-108.28358200000777,32.979686000000122],[-108.28364000000778,32.979721000000133],[-108.28371500000777,32.979768000000135],[-108.28380100000777,32.979827000000135],[-108.28389900000778,32.979881000000127],[-108.28397000000777,32.979916000000131],[-108.28404100000776,32.979948000000128],[-108.28411200000775,32.979978000000138],[-108.28420000000776,32.98001200000013],[-108.28432200000778,32.980053000000126],[-108.28441100000776,32.980080000000136],[-108.28449000000776,32.980112000000126],[-108.28457900000775,32.980132000000133],[-108.28464500000776,32.980144000000124],[-108.28469500000774,32.98015400000012],[-108.28472700000775,32.980157000000133],[-108.28479400000775,32.98016300000014],[-108.28490200000775,32.98017400000014],[-108.28495600000774,32.980169000000124],[-108.28500700000774,32.980151000000134],[-108.28505600000774,32.980187000000122],[-108.28524000000775,32.980248000000131],[-108.28552900000773,32.980269000000121],[-108.28583400000772,32.98027500000012],[-108.28599500000773,32.980247000000126],[-108.28606300000772,32.98013600000013],[-108.28604300000772,32.980108000000122],[-108.28598000000773,32.979949000000126],[-108.28603900000773,32.979679000000125],[-108.28604600000772,32.979463000000138],[-108.28612700000772,32.979198000000139],[-108.28614300000771,32.979145000000123],[-108.28619000000772,32.978991000000121],[-108.28618200000771,32.978908000000125],[-108.28614700000772,32.978561000000127],[-108.28596400000774,32.978056000000137],[-108.28559200000772,32.977808000000138],[-108.28593100000774,32.977272000000134],[-108.28604500000772,32.976668000000139],[-108.2866380000077,32.976377000000127],[-108.2873260000077,32.976105000000125],[-108.28785100000771,32.976161000000126],[-108.28765900000771,32.976916000000131],[-108.2874130000077,32.97720900000013],[-108.2872570000077,32.977516000000122],[-108.28708900000771,32.97756900000013],[-108.28684800000772,32.977664000000125],[-108.28677400000771,32.977877000000127],[-108.28660800000772,32.978302000000134],[-108.28654600000772,32.978659000000128],[-108.2868280000077,32.978880000000117],[-108.28721700000769,32.978917000000123],[-108.2876440000077,32.978855000000138],[-108.28809000000768,32.978693000000142],[-108.28827900000769,32.978566000000122],[-108.28837700000769,32.978577000000129],[-108.28897100000768,32.978490000000122],[-108.28968200000766,32.978456000000136],[-108.29039500000765,32.978371000000131],[-108.29061400000764,32.977593000000134],[-108.29063400000763,32.977523000000126],[-108.29059700000764,32.977526000000118],[-108.29059300000763,32.977496000000123],[-108.29059300000763,32.977464000000126],[-108.29057300000763,32.977436000000132],[-108.29055400000763,32.977413000000126],[-108.29057000000763,32.977384000000136],[-108.29078100000764,32.976944000000131],[-108.29086100000765,32.976182000000129],[-108.29111100000762,32.975400000000128],[-108.29152600000764,32.974813000000125],[-108.29228100000761,32.97416100000013],[-108.2921860000076,32.973587000000137],[-108.29185900000761,32.973150000000118],[-108.29185300000761,32.973052000000123],[-108.29195900000761,32.972652000000117],[-108.2917700000076,32.972385000000131],[-108.29132900000762,32.972462000000135],[-108.29078800000764,32.972101000000123],[-108.29031100000765,32.971948000000118],[-108.28983400000764,32.971818000000127],[-108.28904400000768,32.971729000000131],[-108.28866700000768,32.971101000000118],[-108.28843100000768,32.970500000000129],[-108.28795900000769,32.970203000000126],[-108.2877200000077,32.970109000000122],[-108.2877130000077,32.969947000000126],[-108.28800500000769,32.969608000000122],[-108.28826400000769,32.969494000000125],[-108.28875800000768,32.969075000000124],[-108.28890400000766,32.968902000000128],[-108.28898900000767,32.968896000000129],[-108.28922700000766,32.968873000000123],[-108.28960700000766,32.96866600000012],[-108.28975100000766,32.968412000000122],[-108.28989800000764,32.968028000000132],[-108.28978500000765,32.967854000000131],[-108.28921600000766,32.967570000000123],[-108.28884100000768,32.96760500000012],[-108.28838200000767,32.967638000000129],[-108.28829800000767,32.967665000000132],[-108.28821900000769,32.96749400000013],[-108.28821800000767,32.967492000000128],[-108.2877220000077,32.967566000000119],[-108.2871780000077,32.967569000000132],[-108.28663500000772,32.967571000000135],[-108.28522700000777,32.967526000000134],[-108.28497600000775,32.967420000000125],[-108.28492200000774,32.967278000000135],[-108.28465500000776,32.967272000000122],[-108.28454400000776,32.967082000000133],[-108.28449400000775,32.967028000000127],[-108.28461700000776,32.966763000000135],[-108.28435500000776,32.966471000000126],[-108.28438800000777,32.966109000000131],[-108.28416000000776,32.965777000000131],[-108.28416600000776,32.965568000000125],[-108.28403800000777,32.965136000000129],[-108.28373600000778,32.965187000000128],[-108.28369900000777,32.965135000000124],[-108.28377400000777,32.965076000000138],[-108.28400000000778,32.964909000000134],[-108.28439400000777,32.964788000000134],[-108.28489200000774,32.964613000000128],[-108.28532600000774,32.964293000000133],[-108.28559100000774,32.963941000000126],[-108.28594400000773,32.963520000000123],[-108.28567900000775,32.963299000000127],[-108.28548400000773,32.963338000000121],[-108.28554200000775,32.963141000000128],[-108.28514900000776,32.963037000000121],[-108.28502100000775,32.96308400000013],[-108.28458100000776,32.963246000000126],[-108.28442200000777,32.963152000000136],[-108.28391800000777,32.962998000000134],[-108.28424800000776,32.962203000000123],[-108.28430900000775,32.961317000000129],[-108.28411600000776,32.960969000000127],[-108.28358800000777,32.960443000000133],[-108.28357400000777,32.959890000000144],[-108.28357300000778,32.959841000000125],[-108.28352100000777,32.959325000000128],[-108.28329300000779,32.959005000000118],[-108.28292000000779,32.958952000000117],[-108.2828040000078,32.958745000000135],[-108.2826590000078,32.958452000000129],[-108.2825620000078,32.958161000000118],[-108.28253100000779,32.958060000000138],[-108.28258000000778,32.957369000000135],[-108.28236200000781,32.957102000000134],[-108.2822880000078,32.957013000000124],[-108.28198000000782,32.956640000000121],[-108.2817510000078,32.956446000000128],[-108.28203400000781,32.955807000000135],[-108.28265000000781,32.95508000000013],[-108.28306600000779,32.954445000000128],[-108.28331400000779,32.953735000000144],[-108.28333200000779,32.953139000000142],[-108.28332300000777,32.953060000000136],[-108.28344700000778,32.952854000000137],[-108.28370800000778,32.952086000000136],[-108.28409700000778,32.951580000000121],[-108.28480200000776,32.951852000000123],[-108.28500100000774,32.951956000000131],[-108.28520300000774,32.952062000000119],[-108.28620000000771,32.952007000000123],[-108.28632500000772,32.952000000000133],[-108.28633600000774,32.951657000000118],[-108.28635400000772,32.951056000000136],[-108.28667300000771,32.950634000000129],[-108.28671600000771,32.950622000000131],[-108.2869630000077,32.950910000000128],[-108.28740000000771,32.95144400000013],[-108.28771700000769,32.952167000000131],[-108.28727100000771,32.952896000000131],[-108.28729800000772,32.95320400000012],[-108.28722900000771,32.953330000000129],[-108.2871480000077,32.953748000000125],[-108.28729800000772,32.95401900000013],[-108.28763700000769,32.954045000000121],[-108.28795700000771,32.953938000000129],[-108.28816900000767,32.953694000000112],[-108.28838300000768,32.95335500000013],[-108.28843900000768,32.952994000000139],[-108.28840200000769,32.952873000000125],[-108.28857700000769,32.952778000000116],[-108.28940100000766,32.952560000000133],[-108.28957500000766,32.952513000000124],[-108.28969100000766,32.95221500000013],[-108.28985100000766,32.951804000000124],[-108.28958300000765,32.951367000000118],[-108.28960900000766,32.951373000000125],[-108.28976100000766,32.951018000000118],[-108.28940000000766,32.950819000000138],[-108.28896900000767,32.95091200000013],[-108.28845900000769,32.950368000000132],[-108.28908100000767,32.950165000000126],[-108.28977700000766,32.950007000000134],[-108.28985000000766,32.949991000000125],[-108.29086900000765,32.94998900000013],[-108.29149400000762,32.949883000000135],[-108.29150700000761,32.949454000000145],[-108.29141100000761,32.949379000000128],[-108.29151000000762,32.949362000000136],[-108.29135100000762,32.949027000000122],[-108.29119100000763,32.948687000000128],[-108.29107400000763,32.948483000000131],[-108.29108800000763,32.948351000000137],[-108.29136700000761,32.948314000000146],[-108.2925200000076,32.948713000000126],[-108.29309600000761,32.948391000000122],[-108.29320900000759,32.947997000000129],[-108.29336200000759,32.947995000000127],[-108.29362800000759,32.947619000000131],[-108.2933600000076,32.947136000000128],[-108.29300100000759,32.947149000000124],[-108.29223500000761,32.946921000000124],[-108.29166300000762,32.947099000000129],[-108.29072700000764,32.947079000000123],[-108.29154300000762,32.946425000000126],[-108.29209300000761,32.94603200000013]]]},"properties":{"FID":0,"EVENT_ID":"NM3295410827320200606","IRWINID":"F823FE9E-0A01-4E41-8D22-2EC8A04F0215","INCID_NAME":"TADPOLE","INCID_TYPE":"Wildfire","MAP_ID":10020948,"MAP_PROG":"MTBS","ASMNT_TYPE":"Initial","BURNBNDAC":11414,"BURNBNDLAT":"32.954","BURNBNDLON":"-108.273","IG_DATE":1591401600000,"PRE_ID":"A12SYB20190721_30m","POST_ID":"B12SYB20200730_30m","PERIM_ID":" ","DNBR_OFFST":-5,"DNBR_STDDV":31,"NODATA_T":-970,"INCGREEN_T":-150,"LOW_T":40,"MOD_T":450,"HIGH_T":9999,"COMMENT":" "}}]}